inDegrees=yes
nColumns=22
nRows=100
DataType=double
version=3
OpenSimVersion=4.5
endheader
time	pelvis_tilt	pelvis_list	pelvis_rotation	pelvis_tx	pelvis_ty	pelvis_tz	hip_flexion_r	hip_adduction_r	hip_rotation_r	knee_angle_r	ankle_angle_r	mtp_angle_r	hip_flexion_l	hip_adduction_l	hip_rotation_l	knee_angle_l	ankle_angle_l	mtp_angle_l	lumbar_extension	lumbar_bending	lumbar_rotation
0	1.673328626830439	4.686987482996582	-0.05967445559297091	0	0.8466962854391682	-0.01352843731190047	30.30899804186743	-2.217298068169692	-4.103070814323838	-17.04280367772629	-2.566080064509471	0	-17.74451794296318	8.255083819334063	-8.551678195498257	-12.042129003655	12.22612132242282	0	-7.125916640177945	-7.044095948505483	-6.895688550573266
0.01045165715081033	1.488152319711475	4.139112165952915	0.2580430733593965	0.01607096358526172	0.8460823876351362	-0.01336023758023305	29.73712355561271	-1.683460764450145	-3.933791826561229	-17.85537663645232	-2.172357169123213	0	-18.13823900853317	7.455043724301489	-8.603581307142631	-12.84731929075924	10.79734497805456	0	-6.562187034686067	-6.28115932282947	-6.873857506645641
0.02090331430162067	1.281450329530516	3.445875620912839	0.5073392720768092	0.03224788690654545	0.8458427962003253	-0.01300672616469939	29.29479237484411	-0.9370878051041107	-3.657443312691521	-18.83161411931078	-1.859729729190269	0	-18.42771768154133	6.49925503898796	-8.637676838497025	-13.75386213784001	9.175614510855874	0	-5.966926442870824	-5.356176188829017	-6.791759079053649
0.031354971452431	1.059623146975408	2.561515531165154	0.6583122175712838	0.04834582913574414	0.845991328598021	-0.01242284223047747	29.0566400430509	0.07810136321325667	-3.248035840238211	-19.97644002436305	-2.113769481388693	0	-18.57330889912145	5.348717598575681	-8.675195544023616	-14.83615317168357	7.418461837748954	0	-5.380152294239794	-4.213538799162439	-6.632934855576202
0.04180662860324134	0.840911308063199	1.564904291115918	0.7098275147087719	0.06437813780891666	0.8464950498869128	-0.01160409308314185	28.98074834328831	1.281283342981531	-2.663011182633061	-21.36966617293892	-2.360868429436729	0	-18.5713944631202	4.083186103342386	-8.702333656231945	-16.15298086755737	5.527175006158536	0	-4.819132677910734	-2.944385763108861	-6.410951605694819
0.05225828575405167	0.6417772910038828	0.5896652141483941	0.6696091720570514	0.0803861267436401	0.8473239261511449	-0.01056787426547694	28.94258164961251	2.527255251121453	-1.886267175729057	-22.91070820485371	-2.238181280659601	0	-18.38245732003471	2.83028506549227	-8.681200807555024	-17.82950908278325	3.501139502259554	0	-4.290397769304128	-1.704556619915985	-6.143538551740246
0.06270994290486201	0.4674225353872775	-0.255829105898622	0.5500728846790978	0.09637825160624214	0.8484789462171393	-0.009357774115503927	28.76516820953298	3.677252629997393	-1.039149243410621	-24.2917968786988	-1.820764963862302	0	-17.91356613347846	1.689343648561332	-8.549553400750382	-20.06351241878492	1.413353077598747	0	-3.786514923287439	-0.6200112804408257	-5.840267288173255
0.07316160005567234	0.3107636124622123	-0.9407844777540475	0.363532103601594	0.1122502451178328	0.8499432602628221	-0.008027901522057509	28.34619356290555	4.665604977330948	-0.2946207652506294	-25.30134839000598	-1.186005280442041	0	-17.03270592283144	0.6893557956735585	-8.285344775844349	-23.10110007923766	-0.4352249866128978	0	-3.304848915249301	0.2746692521368996	-5.506625202922041
0.08361325720648267	0.1602054612992041	-1.489083543977889	0.1403484789692165	0.1278523235532829	0.8516543066390897	-0.006670669284153104	27.66969083842841	5.479219348029623	0.2189069392477938	-25.84327810945455	-0.4588552622257943	0	-15.68360721482718	-0.1870864068279289	-7.916187365267931	-26.96517266670452	-2.038953182246337	0	-2.84845483957759	1.009602520706988	-5.155968017886461
0.094064914357293	0.003921979476153167	-1.951512214105326	-0.07673298780642612	0.1430320114101118	0.8535064192487478	-0.005347960702956412	26.82066136649822	6.1647044173731	0.5746680595354793	-26.02009634854981	0.2914661574612624	0	-13.90160636862528	-0.9788475789719592	-7.384212177260467	-31.45531028470185	-3.543279574785715	0	-2.424433950469935	1.63509978624509	-4.804828016200581
0.1045165715081033	-0.1622586613007893	-2.342286836641134	-0.2520203409116691	0.1576791211277113	0.8553832909922593	-0.004086866609717551	25.88822973029876	6.730867328405915	0.7969811443406218	-25.95790772293132	1.009133280592747	0	-11.78325563717071	-1.681403975355572	-6.669343416990261	-36.32566421580459	-4.883313461902814	0	-2.042682057219696	2.149881781180852	-4.461083807590789
0.1149682286589137	-0.340741481896158	-2.735942987082824	-0.3566367157480528	0.1718064904794721	0.8572479351672406	-0.00293666278136878	24.91900930719349	7.245822987114259	0.8701159411123685	-25.7203379770057	1.645486960898114	0	-9.465329050450919	-2.372199605403779	-5.863693108078978	-41.17295613420569	-6.597963703342826	0	-1.697065648907748	2.637993417634672	-4.137445942077253
0.125419885809724	-0.5299825141000855	-3.119033892557123	-0.3845015869913014	0.1854853401878633	0.859147449626167	-0.001911088836524029	23.92115229290411	7.700044172937448	0.8085424923781108	-25.32555606723839	2.167936802211397	0	-7.091281085218453	-3.045884673582545	-5.056037088054194	-45.53019503673406	-8.637682197735346	0	-1.379665853576804	3.083960616201841	-3.83609992881821
0.1358715429605343	-0.7282067506901821	-3.464675345901249	-0.3382344176802226	0.1987341842444145	0.8611217494144515	-0.00101917153954387	22.90370735527421	8.077178989117131	0.6527033586541444	-24.79847136106851	2.590142401603322	0	-4.710076991341277	-3.682838275792051	-4.293326883998367	-49.24346296653633	-10.34361195669496	0	-1.092307806814082	3.460734231331419	-3.551936985162515
0.1463232001113447	-0.9336769194788536	-3.74736719890309	-0.2272587546628153	0.2115345764696206	0.8631681388156716	-0.0002604885653051346	21.8724860223289	8.364011262143793	0.4494583087230506	-24.15490333037084	2.924754353116847	0	-2.29325901811794	-4.25911197453039	-3.597130684925396	-52.42458969694567	-10.87086119500379	0	-0.840964440907118	3.743734246478156	-3.277364559753505
0.156774857262155	-1.143767160213958	-3.948714289618508	-0.06573837679888349	0.2238761617923483	0.8652721858097915	0.0003764791770704504	20.82796878701578	8.553215041638813	0.2387447293248156	-23.40763330162597	3.200293706472418	0	0.2105018121340994	-4.751516492304374	-2.977419153182436	-55.20925351184642	-10.52022413168329	0	-0.630794305326883	3.916139291667854	-3.00366422115877
0.1672265144129653	-1.354897462149849	-4.063617561106613	0.1290281995794172	0.235773149698285	0.867406761558389	0.0009083614693399738	19.76882885108972	8.648232834163547	0.04446346796668468	-22.56876288229363	3.435226859707352	0	2.830314030544009	-5.143379000666261	-2.436258736576249	-57.69562021400392	-9.785244117636005	0	-0.4648793388053499	3.976585763770861	-2.72139133709005
0.1776781715637757	-1.562814155612581	-4.087247840970668	0.3406402896438618	0.2472645633609927	0.8695355008937071	0.00135884375997542	18.69793230957113	8.650302766618175	-0.1206481028055007	-21.663928576052	3.656123734190714	0	5.56051524708541	-5.41789043170979	-1.977683188989016	-59.93367216615452	-8.766323717044173	0	-0.3434091531979107	3.921780282666369	-2.425150924875909
0.188129828714586	-1.762905370680537	-4.020617936378701	0.5540295793845845	0.2583990859681546	0.8716191877359079	0.001749295479592921	17.62287659389522	8.564841676704152	-0.2463449146463591	-20.72995625365085	3.898234216367586	0	8.37736669516703	-5.567855428349156	-1.608907788986458	-61.9316693757527	-7.595263972858748	0	-0.2664576806199664	3.755671638817407	-2.111659823294131
0.1985814858653963	-1.951112092399598	-3.874780168627226	0.7557975637443327	0.2692407898536561	0.8736169928074495	0.002092358643530889	16.54644790789024	8.404437012997379	-0.336220578431021	-19.79342881925048	4.193745900775593	0	11.2425360928003	-5.601937092036822	-1.340574883333227	-63.6676371068953	-6.383722619198748	0	-0.2314094941534049	3.495654922348831	-1.777929510115685
0.2090331430162067	-2.12463529279931	-3.664122824760425	0.9345354450195102	0.279865930529092	0.875490550067365	0.002395440946090169	15.46570517740055	8.183792276664571	-0.397300650363037	-18.86775111017513	4.569284429873221	0	14.1035902384315	-5.53764890488794	-1.184491397186894	-65.08220427490789	-5.187934468834452	0	-0.2326227533960207	3.163663103540115	-1.421801576926499
0.219484800167017	-2.282144603143085	-3.402432660930447	1.082044662246055	0.2903393504388675	0.8771982612497341	0.002664574097063758	14.3821413133354	7.916584348578247	-0.4346502934420403	-17.96922245151756	5.045932662358585	0	16.91051141631159	-5.396958653630638	-1.150594177039266	-66.12257449570527	-3.986788253408351	0	-0.264877733686821	2.780030098285157	-1.043851078488172
0.2299364573178274	-2.422751723570382	-3.104558364211051	1.192097865194462	0.3007081958569581	0.8786967410680666	0.002906430028296667	13.30246226032835	7.617575815387443	-0.4502379129705246	-17.11939557724878	5.636231457624915	0	19.62365415682484	-5.205555094758738	-1.243207825536417	-66.76014509814937	-2.748807722414697	0	-0.3250749303483603	2.365223933895166	-0.645236448989674
0.2403881144686377	-2.545622484811731	-2.787526344637025	1.25914707496502	0.3110015720783829	0.8799460136401204	0.003126834063440445	12.24010628292008	7.303776048417316	-0.4424194338286183	-16.3469279641891	6.336932012443193	0	22.21156821930045	-4.99035336727294	-1.45849693537379	-66.98113459487824	-1.460399292830602	0	-0.412611249095461	1.942046205980791	-0.227495753127561
0.250839771619448	-2.649463490390622	-2.468860868250404	1.277372887575083	0.3212579146164832	0.8809277760635633	0.003332139832380657	11.20468557872272	6.992661335617937	-0.4088541783522701	-15.67195954415605	7.124274172555091	0	24.62746795303753	-4.775871088576855	-1.784396902194825	-66.72213196020209	-0.1264183498920421	0	-0.5248884044864379	1.533621857343437	0.2080448829729239
0.2612914287702583	-2.732357153793045	-2.165627960745975	1.237518527976712	0.3315625286764796	0.8816750661090781	0.003528763179496195	10.19218526604679	6.701485064753911	-0.3424270182594783	-15.09044802549648	7.940829921903744	0	26.75951052015839	-4.583162380969592	-2.210794648462049	-65.74069376217467	1.23594502606357	0	-0.6512474339096751	1.164651457713211	0.6588204019609735
0.2717430859210687	-2.791829651835057	-1.896855348467304	1.136301470843642	0.3419611103076915	0.882186259302384	0.003729912663494317	9.19478215104261	6.449503066755015	-0.2385452761412537	-14.59128614640352	8.75093711501547	0	28.57106188122865	-4.435535586026354	-2.71968750464276	-64.03779516158404	2.560079672017893	0	-0.7856427676434363	0.8559634386405929	1.124496230833529
0.282194743071879	-2.824921316062299	-1.681299170107042	0.9714358045400838	0.3524892851200824	0.8824509600128561	0.003934187684234073	8.200396263489631	6.254275014736353	-0.09004134186543519	-14.15933084524621	9.539402126782166	0	30.05827728738813	-4.346891411015203	-3.292327993212358	-61.70690615377229	3.706092904561898	0	-0.9229685081784985	0.6301418927741588	1.607011930079719
0.2926464002226893	-2.829881522515651	-1.535285146142452	0.7392184848066845	0.363195325784449	0.882472399304091	0.004109207767733874	7.195424799650026	6.127956396261379	0.1078004258107822	-13.77594615721674	10.28782941815506	0	31.20536594840877	-4.313556092917329	-3.90991688931318	-58.7968724354872	4.550690197725912	0	-1.054509471834822	0.514788366806771	2.111090991824879
0.3030980573734997	-2.806972477752347	-1.470548972274159	0.439299167226307	0.3741358203122588	0.8822598906907545	0.004231959468860916	6.167244420470059	6.077498416617198	0.3475317835401225	-13.42310199771842	10.98497793659231	0	31.98927122590007	-4.333339866351573	-4.562388672331808	-55.32347151677293	5.024988713798059	0	-1.168577243150608	0.5291377390159769	2.636984137056501
0.31354971452431	-2.759297994637517	-1.49223039347792	0.07954555166337217	0.3853124923231509	0.8818048287469912	0.004300672008069541	5.112814386658123	6.103910665314668	0.6109400404340124	-13.09072629480473	11.63008967709332	0	32.42771674935316	-4.406472705670096	-5.236312707717372	-51.34620198364868	5.034280208847971	0	-1.263975503419531	0.6759772753586804	3.181027950544378
0.3240013716751203	-2.692331585487664	-1.600775262069369	-0.3260337846026344	0.3967047856565956	0.881083592271105	0.004313663159157502	4.029911330930654	6.203948645941166	0.8765994530445785	-12.76647903747863	12.2349195954904	0	32.57405709259465	-4.530877316910311	-5.917323417705316	-46.98917676612955	4.539298658521654	0	-1.342376778434031	0.9497956195090217	3.736657769352142
0.3344530288259307	-2.610351118041864	-1.790972641610664	-0.7610298565242235	0.4082694090303259	0.8800590728948209	0.004268310175274527	2.920439406513366	6.370037113951748	1.128290260637568	-12.44740239338664	12.82042832238776	0	32.53427596694231	-4.702950733657161	-6.592454803568531	-42.53129784474521	3.559051397584313	0	-1.410883197999216	1.33709228181822	4.297682128267859
0.344904685976741	-2.517309820428185	-2.04581989080857	-1.209641947890291	0.4199721803948905	0.8787200024581574	0.004161184679375876	1.788206196409985	6.583072912797699	1.347085762762553	-12.13608760189921	13.41179046871236	0	32.3849739241326	-4.904584872469745	-7.249138161620111	-38.15879315585878	2.386470067381336	0	-1.476070941597267	1.810568284551946	4.858615550987864
0.3553563431275514	-2.415815469919254	-2.349394165341453	-1.657503316261017	0.4317790641939366	0.8770800501245273	0.003988195051176853	0.6371155174535897	6.826265869209545	1.520336569450412	-11.83378630569079	14.01771435892177	0	32.16882840899343	-5.116399956228427	-7.86980113464739	-33.94067117221294	1.43245273123617	0	-1.547421488736053	2.344797912477281	5.415146089456671
0.3658080002783617	-2.307390417495338	-2.68763769819047	-2.091787775567854	0.4436685473606335	0.8751687282823161	0.003746732569834462	-0.5322961936477898	7.085669767494022	1.639512219437075	-11.53827595669723	14.64631970803313	0	31.91469371867461	-5.324266112868202	-8.440555263907964	-29.91482882175555	0.841452220803442	0	-1.632199404787316	2.917320854313316	5.963133257698433
0.376259657429172	-2.19307268454259	-3.044492352016656	-2.502844514349603	0.4556323485223458	0.8730264568982166	0.00343981230999542	-1.717929070742714	7.34611391713638	1.699086928699801	-11.24968458069205	15.29353792353196	0	31.63672066919151	-5.516826824128093	-8.955585051190077	-26.09512733328324	0.4690285120620133	0	-1.733938404957109	3.504183916286115	6.498051751124045
0.3867113145799824	-2.075338082449202	-3.404943944752566	-2.886367215989191	0.4676322743059181	0.8706912341496685	0.003077564856926223	-2.888215738696478	7.595314224191534	1.696114594339586	-11.01456314484881	15.9500395800628	0	31.34606536843733	-5.687528312081085	-9.406536291673147	-22.4879181567393	0.1287064612401135	0	-1.860247193258869	4.083686869860999	7.014123193090093
0.3971629717307927	-1.955907156232999	-3.745531601811079	-3.238319943397547	0.4796461869305301	0.8681995117593206	0.002666350661798505	-4.026426243574565	7.812000344985169	1.626081318133263	-10.85156540534756	16.59832864912936	0	31.0589601325238	-5.821044244671361	-9.797602439139546	-19.12645729347461	-0.2616169678493834	0	-2.01505350167894	4.624629382783175	7.509540311524238
0.407614628881603	-1.835849290137824	-4.051995333907755	-3.557754321588056	0.4916431052177664	0.8655919322197304	0.002214228595369955	-5.108865521012014	7.984914112210599	1.492327336424292	-10.79297589568977	17.22147506413341	0	30.79571777541249	-5.913783378012326	-10.14304157594387	-16.0644815537408	-0.696152226150093	0	-2.204874149324563	5.107549978871663	7.982507368343252
0.4180662860324134	-1.715515891089974	-4.310002629999623	-3.844448176316348	0.5035993178311103	0.862914163305904	0.001732673392502931	-6.121029255283093	8.102536116789214	1.299952096125935	-10.85418453368169	17.79307248466935	0	30.58693159917536	-5.962910607645881	-10.46284457719713	-13.38526125543788	-1.141106006964755	0	-2.434698640696924	5.511789080560905	8.433018883806891
0.4285179431832237	-1.595374832453838	-4.512646686424125	-4.098550433620064	0.5154887845000443	0.8602093195008857	0.001233895517573528	-7.052856414122322	8.160416268010536	1.056669674065058	-11.0464158566967	18.30750976330476	0	30.49480874831642	-5.977742692830705	-10.7724344418308	-11.26757608421676	-1.502982252230775	0	-2.708726474989799	5.825334768163707	8.861883089015496
0.438969600334034	-1.474669643844018	-4.653666983849973	-4.321945922732575	0.5273178586300181	0.8575260302824392	0.0007309188546518572	-7.912001254092044	8.153359288149341	0.7730748436154969	-11.35356304430191	18.74971038220835	0	30.57541365718684	-5.969119787856564	-11.0840567646447	-9.893383627786916	-1.720058642350677	0	-3.02486181558362	6.038217981343847	9.269466096151975
0.4494212574848443	-1.351099231534634	-4.712530827456519	-4.518890482959073	0.5391392260433231	0.8549198789530669	0.0002357586986408232	-8.722623732631513	8.059614447523105	0.457948666825628	-11.73431657763125	19.10043580696887	0	30.83717127845139	-5.925638276613619	-11.39978254137577	-9.322761847786298	-1.769156356495916	0	-3.37322283502457	6.125402258937896	9.65536725338333
0.4598729146356547	-1.220575044634453	-4.655581141300789	-4.699133921422328	0.5510323359188497	0.8524537523137059	-0.0002347213745136821	-9.501096688177048	7.842455944067059	0.1225597989884275	-12.16791004785551	19.34900796413126	0	31.23463699784109	-5.815702558293411	-11.70930061186333	-9.482935069300023	-1.671187699215578	0	-3.740805897135473	6.047629184084171	10.01834302339134
0.470324571786465	-1.077908805889137	-4.454539510723539	-4.876405834536446	0.563097955934947	0.850198026200883	-0.0006593190905388099	-10.25737679411119	7.469465120986044	-0.2147530880640355	-12.64997092124998	19.47727934701598	0	31.67896785232568	-5.606750651725831	-11.9928487859031	-10.19152067015174	-1.530435937372162	0	-4.112499927728368	5.772672732372365	10.35491515548239
0.4807762289372753	-0.9183287621383688	-4.104089311999515	-5.061915039279607	0.5754589909388169	0.8482223784830133	-0.00102362879805267	-11.00727310096214	6.931449321408625	-0.5331837337021896	-13.16879697992972	19.45179355950198	0	32.06579063707187	-5.28117344812093	-12.21846100284662	-11.21746790621364	-1.522604648619682	0	-4.468780578175114	5.296218803008655	10.65943156251563
0.4912278860880857	-0.7388205676128681	-3.628391125615535	-5.263056946127593	0.5882218174291344	0.8465874844608376	-0.001328535208258977	-11.74802860093931	6.249382040105637	-0.8158887348515248	-13.74606252695299	19.23436457987551	0	32.29977083205172	-4.842856759358202	-12.3377525063326	-12.34836492127288	-1.794918696951815	0	-4.792470204531098	4.650331417392872	10.92760023823534
0.5016795432388961	-0.5402197784907763	-3.063387639602456	-5.489591708786752	0.6014743533815826	0.8453463251461882	-0.001564872060042323	-12.43388302156247	5.4559402116228	-1.054371677099704	-14.4777464987211	18.79446792741368	0	32.27651160691489	-4.306175245265792	-12.28407272105679	-13.35715579338557	-2.528068848613999	0	-5.064466011227061	3.879611360879759	11.15546733786065
0.5121312003897064	-0.3304126318827748	-2.449638934621545	-5.746771453237271	0.6152467930682065	0.844511077438544	-0.001741940249480937	-12.98581827221809	4.588843069847559	-1.251265153373533	-15.50274793075393	18.11609129930994	0	31.9341539106963	-3.686604591906399	-12.00173818244738	-14.09307436020463	-3.783852197135291	0	-5.26926827317721	3.036506233187313	11.34156850460722
0.5225828575405167	-0.1280992074144149	-1.815006396807629	-6.02698974901821	0.6295546056381477	0.8440248535708543	-0.001884535608270234	-13.39204189156461	3.678428011379807	-1.390040936214746	-16.79164565870584	17.15064672700324	0	31.3051145859171	-2.993148783639431	-11.51624280328091	-14.60961136991468	-5.289917928840895	0	-5.384009148050505	2.158929966415561	11.48348357142683
0.533034514691327	0.04265634418286714	-1.185624159613976	-6.301406389894637	0.6445305555727799	0.8438077557155496	-0.002016079034838281	-13.85848238989586	2.765797592835006	-1.415053668823841	-17.90412386991397	15.81537189428569	0	30.46898022370366	-2.23641514327396	-10.90214927761177	-15.03872416703005	-6.46842026042553	0	-5.365288097488958	1.279219520134103	11.56929928111496
0.5434861718421373	0.1663462520793489	-0.5739569030918263	-6.551706507024504	0.6600939660415085	0.8438029211810194	-0.002148764571416316	-14.38371236609666	1.875826702115021	-1.335686932765358	-18.8215747433299	14.157888844465	0	29.56580477349972	-1.428646936654358	-10.1817634350263	-15.64451775914146	-5.9309848689217	0	-5.21290166687879	0.4084363059992347	11.59690631589892
0.5539378289929477	0.2344282735435129	0.1336310668469087	-6.733885965069591	0.6758936250223887	0.8440351863884953	-0.002333775966554943	-14.8230361181269	0.9082961660092751	-1.184086165822524	-19.75142649422102	12.2782207927173	0	28.81432944053953	-0.4621108428167207	-9.286859198961309	-16.42479434343277	-5.317795297099905	0	-4.963018268732316	-0.5962521896020392	11.5388706773006
0.5643894861437581	0.2487030332870782	0.9610207794760934	-6.819599179750853	0.6916492282566905	0.8445541702939914	-0.002614814190670433	-15.0637014959579	-0.1482752929627334	-0.9776784012926177	-20.88367854124038	10.22696512028449	0	28.36531647705889	0.6647047591849374	-8.177547293553143	-17.48444362658066	-5.154814373295876	0	-4.659474830562594	-1.766796522275067	11.38743187181477
0.5748411432945684	0.2236573315381612	1.786570866495031	-6.799202297386564	0.7072606512220162	0.8454032720993097	-0.003003445563271629	-15.05426414375752	-1.16178744100414	-0.7257055533231862	-22.35457151334036	7.981647682480031	0	28.19191466099232	1.797805726124035	-6.981906152708344	-18.95012390100188	-4.80156848290113	0	-4.344772417037658	-2.960538620354452	11.15516088506053
0.5852928004453787	0.1760353292192128	2.467977485437803	-6.669638215946504	0.7227927214225539	0.8466396073386915	-0.00351218061820598	-14.76989975393652	-1.981148502293498	-0.4164888120592353	-24.27228307803062	5.546372464825237	0	28.08926362265155	2.765296571035397	-6.002124490031945	-20.57051300325803	-4.078913610518151	0	-4.029005620829651	-3.998738439191838	10.85325956324538
0.595744457596189	0.1183146111080696	3.007950403255544	-6.448167415715245	0.7382861022259987	0.8482576355862694	-0.004168086442539991	-14.13743303108814	-2.605292726767738	-0.03203970942606137	-26.82967762631398	3.244903456779357	0	27.87279743337388	3.57171684570659	-5.413061930195333	-22.00466641789225	-3.184308318513	0	-3.701714969733622	-4.863062816504788	10.49656409731184
0.6061961147469994	0.05992702058124844	3.476471398039352	-6.170235796193094	0.753739197490053	0.8501753407876463	-0.004959342271952369	-13.13277133816756	-3.106001345631897	0.3923417563217115	-30.06017481519229	1.209123910503014	0	27.42917878140067	4.311674593293195	-5.085645436544515	-23.0280519268034	-2.26357898095366	0	-3.352705076966159	-5.620829945264556	10.11053515574491
0.6166477718978097	0.003698158153050083	3.914014447690688	-5.867096188568977	0.7690490616138176	0.8522612814828129	-0.005809323842279066	-11.7859408619027	-3.518425137492356	0.8800324254793379	-33.83617782294576	-0.6228014900900647	0	26.74974373457386	5.022194861760175	-4.891524841754588	-23.6127645820717	-1.366443106548686	0	-2.993977091976165	-6.323758307638973	9.708538766393977
0.62709942904862	-0.05001173652899094	4.322760334749565	-5.571204536846815	0.7840920490951896	0.8543893226602645	-0.006642900841088054	-10.17308035761002	-3.836689538573379	1.51012720382466	-37.93196750851377	-2.210130949457323	0	25.87602373910027	5.688667527583926	-4.797056951873142	-23.82237869861014	-0.5108951633422728	0	-2.646069346262737	-6.975686193813845	9.29392276291478
0.6375510861994304	-0.1027920893263398	4.717454308901181	-5.317783645093605	0.7988019425512319	0.8564751054581372	-0.007437298343443137	-8.422285671223149	-4.112982317540786	2.215432366471489	-41.99301874099607	-3.077070972177514	0	24.85830337012858	6.309554551021209	-4.824195247904658	-23.73645613782983	0.3234052047589422	0	-2.318809343523173	-7.582010995454537	8.870141756692243
0.6480027433502407	-0.1551271923646907	5.09450375278237	-5.135956019687625	0.8131642556900628	0.8585488952717083	-0.00820761765462228	-6.618831847121769	-4.42243310309023	2.858660580556838	-45.60813592594574	-3.228981140106602	0	23.72550198858877	6.876040129820614	-4.984180741223827	-23.39404503131845	1.096675007279987	0	-2.015831150795858	-8.125079338324612	8.445571790221194
0.6584544005010511	-0.2073877944888392	5.422167734419572	-5.03933777881951	0.8271106953587756	0.860656337582679	-0.008951615310397927	-4.718493287563981	-4.762448477605683	3.415367439592741	-48.79906747784105	-3.087487079485545	0	22.51684438587932	7.358623118829189	-5.259326279550059	-22.85603128039903	1.789052114065075	0	-1.750309988120664	-8.564822397192614	8.020181438519487
0.6689060576518614	-0.2577672652289549	5.671028947720737	-5.026523743922263	0.8405995504496452	0.8628143539694839	-0.009660997304248849	-2.683457224807924	-5.102028503876677	3.889287686739242	-51.65789033109888	-2.745956166886265	0	21.25685190897043	7.735673656931521	-5.619830526402377	-22.16788067387098	2.39706745975109	0	-1.533719317006423	-8.870499546768457	7.58855637644882
0.6793577148026716	-0.3030816044467568	5.822978063375035	-5.086032273657873	0.8536381748332563	0.8650285193163112	-0.01033076677045825	-0.5160130281434333	-5.409288148088645	4.280929673804527	-54.21399815338508	-2.164753853603095	0	19.95504707294579	8.000062036101101	-6.030730104240543	-21.35935920220114	2.935262714821678	0	-1.372306189637631	-9.028025961912689	7.145946477529045
0.689809371953482	-0.3396063455827545	5.867370754079991	-5.20079721267515	0.8662484616762803	0.8672988906263717	-0.01096241424176677	1.769585025439941	-5.6519226717644	4.592413245302877	-56.46309392587909	-1.460927338831113	0	18.61921897155819	8.152045916689202	-6.456749605445072	-20.45577941829133	3.393674157493369	0	-1.271953400789781	-9.033005919022166	6.688293216042483
0.7002610291042924	-0.363676344900548	5.797285984709435	-5.350653233657132	0.8784500025504153	0.8696123669672725	-0.01155903891736488	4.153774659901694	-5.792647940910449	4.830619750003757	-58.41534088170682	-0.6601100014287201	0	17.26472374073852	8.192379764152479	-6.866301989544247	-19.50059757294889	3.788013673544878	0	-1.240112954006727	-8.885906695914207	6.212681105653861
0.7107126862551028	-0.3718596712413741	5.612526360067349	-5.515285286078064	0.8902796698806094	0.8719437122405406	-0.01211909734144185	6.608266302229671	-5.79912393263102	5.002043936239166	-60.08071791802323	0.2137616219892067	0	15.89995848306634	8.125141398983711	-7.233958620736546	-18.53068691643115	4.165534105808147	0	-1.280872873382315	-8.59558699332559	5.716599855477655
0.721164343405913	-0.3611427698733582	5.327989685344235	-5.677257287192506	0.9017888461996192	0.8742557450176076	-0.01265192879657469	9.095789066193358	-5.672852180840136	5.096801095317007	-61.45157191331334	1.136086171762318	0	14.52850890019296	7.968497021179362	-7.53577333730401	-17.57005196379334	4.562889790284423	0	-1.394478371797128	-8.185471343689372	5.201306431849169
0.7316160005567234	-0.3294766501548194	4.96652323633282	-5.821728964328315	0.9130494636196455	0.8765077090398613	-0.01316810204527677	11.56792720932346	-5.43577295576926	5.102018684711839	-62.49062723038868	2.102032361204498	0	13.14743547973972	7.746596712520765	-7.763358998394647	-16.62602074921341	4.998916888848426	0	-1.574847262936261	-7.686698195162199	4.66892328821424
0.7420676577075338	-0.2759809405994091	4.554497843423476	-5.937689137041427	0.924133583601554	0.8786534169479753	-0.013672540047996	13.98101989690813	-5.118200205338504	5.011893288258011	-63.16953091379782	3.108937661889135	0	11.75464083762535	7.485253647886671	-7.916032806617397	-15.70215802869979	5.484343288676315	0	-1.812427905940904	-7.133859185474157	4.121712601414447
0.752519314858344	-0.2012954278483674	4.1228531512445	-6.017315946884189	0.9350873524849942	0.8806397488228426	-0.01416649297596529	16.30596329057285	-4.758757560495994	4.826399171867816	-63.48086734515034	4.129263628495995	0	10.36014066914663	7.212692624919474	-7.998391300234194	-14.8135221730576	6.013625986341837	0	-2.099184563053684	-6.566731932955067	3.56267151526588
0.7629709720091543	-0.1076003425778736	3.700619913440718	-6.055583165950998	0.9459565577531165	0.8824237563135081	-0.0146498988433446	18.50504468477238	-4.397238135615286	4.550085242877866	-63.37039297377812	5.134492518157635	0	8.974453647930659	6.954649830915709	-8.019206870249368	-13.97074336582775	6.567613334582722	0	-2.424892999384101	-6.021993776950643	2.996814809020035
0.7734226291599647	0.002283194187562033	3.310105728076073	-6.045372573395239	0.9568301634421627	0.8840032356009082	-0.01512021274694668	20.48213839385248	-4.068828640474123	4.187417323808869	-62.61652335630446	6.114206977762591	0	7.595325676754869	6.731450431565261	-7.983610494937417	-13.16255373491819	7.10211205474128	0	-2.771625774186776	-5.529670885789988	2.429320893070412
0.7838742863107752	0.1246297267995606	2.969344932994409	-5.984433498261353	0.9677350549906708	0.8853418431573139	-0.01556284802306455	22.21507702871503	-3.787335391688886	3.757898611601202	-61.23319007312207	7.023967773168072	0	6.233860361757	6.556673383591973	-7.894050599015134	-12.39877887592427	7.598641980931847	0	-3.12895250804613	-5.114020925308769	1.861166964684399
0.7943259434615854	0.2564102943426698	2.691855151057704	-5.872256354186417	0.9786831772483667	0.8864000648655546	-0.01596146954985225	23.70907436014508	-3.556108265903967	3.282624669296272	-59.30933771003009	7.747794869588569	0	4.899813526291398	6.439216800206792	-7.751667645162513	-11.69186519591163	8.062719053283502	0	-3.489142925218978	-4.79299374498364	1.291592907057716
0.8047776006123957	0.3947319973181416	2.486792216721262	-5.7106280630824	0.989695914641222	0.887153312051199	-0.01630266322953891	24.96417225661136	-3.374648866733973	2.782479431315572	-56.90244221115958	8.187701515236469	0	3.593696083018663	6.384806684057548	-7.559047930848307	-11.03857473803459	8.491851936207089	0	-3.843529906336674	-4.577671167231935	0.7209261559027682
0.8152292577632061	0.5378174611524146	2.359504910087231	-5.503713554230669	1.000793290392793	0.8875898752247077	-0.01658049617685322	25.97971402305693	-3.241406895720226	2.278169110116422	-54.05177298226983	8.241690387976901	0	2.312535355237151	6.396267574174016	-7.321241605273331	-10.43363664557424	8.888181761718029	0	-4.185976132942701	-4.472293469981654	0.150656404129772
0.8256809149140164	0.6838088292370107	2.314600761965618	-5.259142553978529	1.011988476568747	0.8877018312007221	-0.01679498940637813	26.76321913020146	-3.15728919964784	1.789729128953445	-50.80261210996755	7.844441868501214	0	1.053311320089962	6.476556227553637	-7.048821904116421	-9.871998659998328	9.257603408004561	0	-4.512139683801828	-4.477969932060929	-0.4153257015338301
0.8361325720648267	0.8307354198946802	2.359112998250158	-4.987340917518749	1.023278609326587	0.8874727396583154	-0.01694724490901761	27.35146430269505	-3.128078584623542	1.333371046257993	-47.2716875679182	6.946540513755671	0	-0.1841382978189817	6.631827370564787	-6.754570854137659	-9.353616323412457	9.617443351722159	0	-4.820389494373885	-4.59799200917196	-0.9718682158283923
0.846584229215637	0.9782174386251279	2.493706706654069	-4.699526502727441	1.03465019091645	0.8868734977450424	-0.01703810337007105	27.82229434485424	-3.152815821421869	0.9193879977868308	-43.71167070814845	5.67011220761222	0	-1.399605703455888	6.862397439452216	-6.454026754677043	-8.88460094976478	9.997998726069779	0	-5.112778764478332	-4.827870203654425	-1.515511805051844
0.8570358863664473	1.124700140325688	2.713203841234103	-4.406618525907755	1.046095773110527	0.8858984239154847	-0.01707352304571293	28.21877344446776	-3.229646912843022	0.5528041943676377	-40.23362329393734	4.367829238173424	0	-2.596706248021432	7.164045981287797	-6.166515023769373	-8.45886505989286	10.40732192833907	0	-5.391864321284483	-5.156117350613258	-2.040415777444258
0.8674875435172578	1.268173401934614	3.004900835528638	-4.117596575294242	1.057622323277114	0.8845613757325494	-0.01705662996829958	28.55248922216826	-3.347920507471574	0.2377250515920302	-36.84724978313637	3.476744475971552	0	-3.783458095641088	7.525554455258441	-5.908152630071386	-8.061652857319455	10.84194052237781	0	-5.658577402274728	-5.56399105966811	-2.540559984361872
0.8779392006680681	1.407906603849362	3.352162563903273	-3.839038968002648	1.069241817932292	0.8828931803077319	-0.01698767363519371	28.82868391272934	-3.493455709644422	-0.02632347947118755	-33.55263403291211	3.043493392439987	0	-4.97106545248217	7.931905268552263	-5.689801358482001	-7.675275283820525	11.29687176945272	0	-5.91397277112657	-6.030109340221589	-3.012493363050308
0.8883908578188783	1.542839491621288	3.736950545781581	-3.575840548101039	1.080969883107722	0.8809336107132469	-0.01686484481595218	29.04749200614084	-3.650905601774579	-0.2417727831791929	-30.33842371011219	2.842195010236429	0	-6.16931695315793	8.366482820400712	-5.519460200261939	-7.283426595238361	11.76267048025322	0	-6.1572085959188	-6.532752265514223	-3.454469336391112
0.8988425149696887	1.671287108657966	4.138295131522867	-3.329876379836671	1.092810420442826	0.8787240014905682	-0.01668770809554821	29.20541125048464	-3.801902321460652	-0.4110528700348158	-27.1911641555275	2.668167065753508	0	-7.373230840319157	8.808186860802648	-5.404357607913571	-6.894186688682882	12.23155049230515	0	-6.389183786255032	-7.047518332295176	-3.866152831532827
0.9092941721204991	1.79110402998047	4.536416347417189	-3.100047755380461	1.104747031932877	0.8763051458344681	-0.01645881805621504	29.30070126728319	-3.931028767778961	-0.5414935824430485	-24.10829111020352	2.416172986142491	0	-8.557458627718836	9.235446823434513	-5.351759045396023	-6.550407140989782	12.70550496779991	0	-6.614464166848672	-7.551876441570156	-4.247747730236876
0.9197458292713094	1.89968993821865	4.913343667515568	-2.883567847343334	1.116755113047706	0.8737181372706583	-0.01618551280101667	29.33802446806464	-4.026921490736021	-0.6489743795723384	-21.11194730874817	2.064552988061459	0	-9.686549054134188	9.628067501841576	-5.368980651687537	-6.310555367083618	13.18910243402341	0	-6.838452366612136	-8.024660282256628	-4.59962297273305
0.9301974864221196	1.995397226713264	5.260010688619626	-2.678360919768183	1.128818921825077	0.8710044448836912	-0.01587681842795074	29.3376298881195	-4.088011482522895	-0.7523656847021774	-18.27606972456801	1.630962112975172	0	-10.73612960623492	9.976278740249949	-5.459318674793062	-6.212302585476033	13.67598895719057	0	-7.064425106801924	-8.454034560909164	-4.924103794213609
0.9406491435729301	2.077206312706585	5.566459222136869	-2.482453243427628	1.140946104619061	0.8682115989758905	-0.01554874764717859	29.32282117132399	-4.112851296647324	-0.8714641159657329	-15.69353034007355	1.148507434690264	0	-11.70030479283994	10.27076073613452	-5.618825054349787	-6.260699807889075	14.14130695021738	0	-7.290820194597138	-8.824811184000859	-5.223515913632555
0.9511008007237405	2.143972875644964	5.820644781909098	-2.293632470336419	1.153154368028572	0.8653892704947226	-0.01521959182141006	29.32667113651961	-4.097842764145729	-1.033052899425625	-13.48840495374824	0.6459181844966776	0	-12.58450858512211	10.50052804888989	-5.841960879765899	-6.441355855836329	14.56353913010084	0	-7.51319296932003	-9.118649697149882	-5.500313090325926
0.9615524578745507	2.194114469853826	6.027724689919221	-2.110249442816722	1.165473160143701	0.8625833981236093	-0.01490036500659922	29.39412355402595	-4.056262790742067	-1.258691190720885	-11.82109827896281	0.2153826699601648	0	-13.40522243446488	10.67272702700015	-6.118700719734774	-6.716987685546079	14.90380356872294	0	-7.722545561217835	-9.339403752675562	-5.757863628107427
0.972004115025361	2.224380634797016	6.188401834754444	-1.926706701064309	1.177935663198161	0.8598416858349964	-0.01460085139935623	29.55935038120831	-3.997999419909503	-1.555437987167248	-10.8272775884106	-0.05577776055825508	0	-14.16674312824781	10.78669179810218	-6.434039753649137	-7.072927791147872	15.12995122212987	0	-7.907445119992084	-9.487666409221948	-5.997632132018949
0.9824557721761714	2.23164217318506	6.282729342394089	-1.733165299382056	1.190592800269197	0.857220476353463	-0.01432845384154758	29.82747263984179	-3.912486310542612	-1.934564920857158	-10.58615724694934	-0.1844493286674863	0	-14.86269940387671	10.81737841462709	-6.779230502105669	-7.519905090936192	15.23104095940923	0	-8.053492880289326	-9.541755987144041	-6.219305962187909
0.9929074293269818	2.213316821800734	6.284941841990947	-1.520412391649111	1.203503885350508	0.8547755617296653	-0.01408841739653579	30.17040585129237	-3.782363588249551	-2.399454158931809	-11.06922206971927	-0.2427970469275041	0	-15.47990063323523	10.7321988840759	-7.147237949730492	-8.086287254988365	15.21256984906744	0	-8.14631495124161	-9.473472495228597	-6.419140083593319
1.003359086477792	2.166530880806271	6.17227091060783	-1.281633227653819	1.216751875709433	0.8525586731751721	-0.01388700186853409	30.52092065113863	-3.590367892847282	-2.927591317156251	-12.11212868017166	-0.3634183362083034	0	-16.01853607770118	10.50309228480679	-7.522539284137761	-8.771427913007233	15.05625861777482	0	-8.16782027013693	-9.25692175474666	-6.591785057595914
1.013810743628602	2.088241024402251	5.937810649580985	-1.013757287096757	1.230436871590916	0.8506132927392331	-0.01373418214253998	30.7920368839185	-3.331013068527942	-3.45539652084955	-13.46854946293454	-0.7585036791233083	0	-16.48884226057136	10.12071244471863	-7.878833274311319	-9.556452680172807	14.73126277860226	0	-8.095454322815309	-8.883147024039557	-6.728590655570586
1.024262400779413	1.977681423607522	5.590968889200035	-0.7174130489872028	1.244674933307551	0.8489756300757422	-0.01363817186179828	30.88840239243353	-3.008011386092998	-3.897120952357435	-14.87192240129378	-1.503457349114074	0	-16.91880827825137	9.596232368499303	-8.187435716504222	-10.38788370552036	14.18111010202043	0	-7.905065736169023	-8.361970237045606	-6.822580886302847
1.034714057930223	1.837385006192582	5.161271237785004	-0.3958780864188367	1.259557270103396	0.8476663740355592	-0.01358547432259205	30.73128546484531	-2.633755595264886	-4.128840999603639	-16.09972891909034	-2.183773528874189	0	-17.33283026138119	8.960883772059571	-8.418530793028008	-11.22509204587354	13.36024492560758	0	-7.581572819106028	-7.731121124769412	-6.875750843262026
