inDegrees=yes
nColumns=22
nRows=100
DataType=double
version=3
OpenSimVersion=4.5
endheader
time	pelvis_tilt	pelvis_list	pelvis_rotation	pelvis_tx	pelvis_ty	pelvis_tz	hip_flexion_r	hip_adduction_r	hip_rotation_r	knee_angle_r	ankle_angle_r	mtp_angle_r	hip_flexion_l	hip_adduction_l	hip_rotation_l	knee_angle_l	ankle_angle_l	mtp_angle_l	lumbar_extension	lumbar_bending	lumbar_rotation
0	-0.3777442601377552	5.35985166068325	1.088786835167884	0	0.9426517188516118	-0.04633082243253438	28.17961646878327	-5.988395860706206	-13.29571840404168	-14.26115451856608	-1.933852735304599	0	-12.52884263155026	7.106874150343797	-19.80635918770781	-9.993702567743313	8.943454879300361	0	-7.105579820703893	-5.450209365112539	-4.088872005815121
0.01146365452435376	-0.4842197429256391	5.12103409293722	1.32242573392341	0.01615225903826289	0.9429913616106513	-0.04524709100959769	27.25284818308659	-5.668405391409529	-13.08239513932438	-14.42558841645617	-1.648793548917574	0	-12.6924727746364	6.41985419537477	-19.93990749687992	-11.20260117295273	7.593735469912503	0	-6.633232286372757	-5.066477400233159	-4.124110809530766
0.02292730904870752	-0.6097246070016294	4.738465862385757	1.463798108510175	0.03206868069630275	0.9435808477112398	-0.04398724242500054	26.63128022108629	-5.228190984319027	-12.90995844392718	-14.87053373581928	-2.083358302093911	0	-12.70147139997727	5.552963404570874	-20.14995165262877	-12.60131214805592	6.181041776454336	0	-6.188139338543196	-4.495852449811794	-4.100371718102014
0.03439096357306128	-0.7555939786312269	4.212543656087933	1.493363719784307	0.04766346653539544	0.9443524894808031	-0.04254947293239357	26.36490248636595	-4.674915738943841	-12.74031433774167	-15.76662951470498	-2.782308461579007	0	-12.53629395474146	4.506590733319755	-20.44372759870463	-14.22974169744875	4.732543111941823	0	-5.782727210021212	-3.731917683811647	-4.006883358222064
0.04585461809741505	-0.9161969491661091	3.621618230446285	1.415640313721878	0.06300503889615372	0.9452402566115318	-0.04094104895574843	26.37981042558999	-4.097059609346265	-12.65044595590156	-17.15467607750653	-3.033672962702815	0	-12.18535436093936	3.349729881767503	-20.81078755774862	-16.14214121310044	3.209205265951168	0	-5.412897567306006	-2.869081122149968	-3.849281540080334
0.0573182726217688	-1.084742669231518	3.034360237099253	1.253785705831299	0.0782132368584656	0.9462315010672838	-0.03914653309799231	26.5096081388598	-3.554184095770084	-12.78595446819436	-18.77739138617812	-2.855244774196175	0	-11.62047118722595	2.124244445155362	-21.22984905080854	-18.42229980828142	1.54226467494359	0	-5.061253704744058	-2.00288281380955	-3.642180991359722
0.06878192714612257	-1.262213624612841	2.51609988547252	1.050051016146718	0.09345298911181099	0.9473466526661637	-0.0370897865056831	26.5340200372061	-3.063191711994711	-13.15966113905132	-20.20279746957964	-2.562384554350813	0	-10.81175196560284	0.8609207571134421	-21.62685254347215	-21.13297575462339	-0.3353723053946737	0	-4.685948607120602	-1.245688196733832	-3.41598317846009
0.08024558167047634	-1.454607502972534	2.084302782708196	0.8404308395130008	0.1087191270961948	0.9485444252689198	-0.03474734186216365	26.35519756327497	-2.605719456996975	-13.62037773668552	-21.2609174483702	-2.108950235544996	0	-9.697958350667633	-0.4551239036512517	-21.91277593601349	-24.38229615874663	-2.318037398417038	0	-4.2665280575318	-0.6401735918012644	-3.182673779807272
0.0917092361948301	-1.673089789851376	1.724159083790272	0.6572055138715359	0.1238456483924011	0.9497194383224998	-0.03214387352614572	25.96885263095249	-2.159070351416691	-14.08831042139785	-21.9101592462895	-1.529956581826112	0	-8.202192229516987	-1.865270651923316	-22.03871329258976	-28.35200388466981	-3.831660355363085	0	-3.808435859500082	-0.1817425652512479	-2.946823545290593
0.1031728907191838	-1.923166232836661	1.398249937290851	0.5168948401308235	0.1386681647821261	0.9507554390066911	-0.02934421528674145	25.44620916966584	-1.699050122340622	-14.52696499232589	-22.25587130577058	-0.8293775865824846	0	-6.336880272401752	-3.387745813229004	-21.97685448959423	-32.97040456762412	-4.772849050821015	0	-3.326508605481531	0.1713044437522011	-2.705931539792046
0.1146365452435376	-2.205321597379854	1.077618637746611	0.4250431943983661	0.1531132492639009	0.9515962914562801	-0.02642917660003565	24.84965880315865	-1.212569635536469	-14.93105613405353	-22.38672938706466	-0.06990646134205328	0	-4.218459326422007	-4.982147509136695	-21.70854240837127	-37.85984556074861	-5.458519478658625	0	-2.831300329749013	0.4569596461390892	-2.456195371245759
0.1261001997678914	-2.512438316517201	0.7338322789891769	0.3728126246022349	0.1671616525370608	0.9522732455028718	-0.02346942851518116	24.22336400877464	-0.6819619809158437	-15.2984526805938	-22.37834392949781	0.6939342857778851	0	-1.97001878711733	-6.608440660426153	-21.26817034337585	-42.63726071210725	-6.336905645693583	0	-2.33570639225304	0.7194399432362756	-2.190750079473115
0.1375638542922451	-2.83223844478768	0.3662667507058942	0.3436742098191859	0.1807719340597211	0.9528424609324377	-0.02053801354059565	23.60142578197222	-0.1164800158352009	-15.62471482023683	-22.2924452240513	1.393324143565135	0	0.3607710348825041	-8.213975065375827	-20.67593087730037	-47.15589524048072	-7.522796731870407	0	-1.861312819640606	0.9763795696164355	-1.903922416580111
0.1490275088165989	-3.151801268504133	0.0328856219086964	0.3092869350463233	0.193921639340177	0.9533733966942745	-0.01773441763718343	22.99443483631219	0.4203308852851274	-15.8889596296306	-22.1668857042021	2.042480474613919	0	2.735725746571754	-9.645979577572406	-19.92274026409574	-51.27554790705594	-8.963749731192779	0	-1.428741858084524	1.185318672297724	-1.583244404951728
0.1604911633409527	-3.453540731170875	-0.215773375254542	0.2368332361327808	0.2066671405232435	0.9539773941147298	-0.01516088742625455	22.36608990982332	0.8849591916774191	-16.03740172093377	-21.97626785533523	2.657320242963652	0	5.063923732081435	-10.74334956317165	-19.05028058327467	-54.76728957479632	-10.37331897566612	0	-1.054326709746217	1.316962605720786	-1.210997654271941
0.1719548178653064	-3.723879363825976	-0.4100071639969613	0.1240086153081582	0.219050000585477	0.9547249666410774	-0.01283222918134747	21.67426551435618	1.314710085496766	-16.05231571352291	-21.67226668993189	3.207884785735228	0	7.302980366833872	-11.54313658983642	-18.16452073336113	-57.60758211925435	-11.12112616037941	0	-0.750936648051323	1.413405120501258	-0.7860899277343648
0.1834184723896602	-3.953984127125961	-0.5570769723171939	-0.02412704975738835	0.2310525125832473	0.9556340509117249	-0.01070764871943662	20.90641395873748	1.714776364532518	-15.95267336467949	-21.24754345578807	3.682672933476168	0	9.472323439828516	-12.09896431009175	-17.33228402398114	-59.90548891541413	-10.85374573345718	0	-0.5339159233962898	1.473974458383355	-0.3064318128527784
0.1948821269140139	-4.139922536948161	-0.6525489696167504	-0.1981567811107201	0.2426499925043406	0.9566932186428718	-0.008740625959161001	20.06666687395466	2.073758108311553	-15.76501117513604	-20.71998775468262	4.099618658343946	0	11.62487682887518	-12.45857279004514	-16.58358841373611	-61.77645777694617	-9.995524117541189	0	-0.4117244927162819	1.480781417706558	0.2268255436885807
0.2063457814383677	-4.279286930561926	-0.6936503348594543	-0.3907835753139903	0.2538497645422877	0.9578641562503254	-0.006890658130427871	19.16308998987465	2.381740552002174	-15.51404480029135	-20.11783913407913	4.498032903587633	0	13.7927046607856	-12.66436442054158	-15.94483854278112	-63.31303339541775	-8.819495537227869	0	-0.3850053324851452	1.41977391670655	0.8107717600661455
0.2178094359627215	-4.372731138591108	-0.6812221236763835	-0.5980299480994475	0.2646838024958871	0.9590877309453875	-0.005129153993532456	18.20721657292267	2.633437650565144	-15.21809543126429	-19.47278110112173	4.92490799671774	0	15.98334160274063	-12.75080707356864	-15.43912066057122	-64.57020973913826	-7.412057737463659	0	-0.4474010691556685	1.285329163835322	1.440758365151138
0.2292730904870752	-4.424333988124186	-0.6221989831837202	-0.8190059515490352	0.2752022527924257	0.9603014326541539	-0.003438524522594954	17.21053845951721	2.83146688449445	-14.89080428865926	-18.80606088930442	5.396309695217782	0	18.18373430756466	-12.7475534359622	-15.08327294216052	-65.55093258092857	-5.871326163667265	0	-0.586639215412778	1.083280287937978	2.110540265565279
0.240736745011429	-4.439785036903648	-0.5270078243952082	-1.057325471282906	0.2854683208452333	0.9614514318859663	-0.001806317518026334	16.18772294075436	2.982693615559331	-14.5414265683077	-18.14191474147207	5.920878245798249	0	20.35732251186626	-12.67532212737244	-14.88451688823354	-66.20848643904512	-4.232598528452472	0	-0.787229134648566	0.8264474819147096	2.816532475982842
0.2522003995357828	-4.425953398264179	-0.404402677102609	-1.316847032762321	0.2955495552691747	0.9624881345864836	-0.000224071691289308	15.15449490696829	3.09246646591597	-14.17614708038287	-17.50435888945601	6.504875880788973	0	22.46340429474193	-12.54663253340214	-14.83947640388604	-66.49614411864847	-2.504972856378795	0	-1.031258030558686	0.5265121174828915	3.554800824935327
0.2636640540601365	-4.389867422971379	-0.2625143117640723	-1.599709727571153	0.30551263033708	0.9633703861437388	0.001312031224330289	14.1257638425086	3.165655093500175	-13.79928135786055	-16.91443621354513	7.144909710810728	0	24.46383841474432	-12.37036511430433	-14.93758081158004	-66.37166361894488	-0.7599444525098852	0	-1.300337367993244	0.1949508462256873	4.319514487684571
0.2751277085844903	-4.33824954005228	-0.1194725270441369	-1.908616809883194	0.3154302101101979	0.9640751715431012	0.002797367299348487	13.11201209994146	3.218232083690498	-13.41500238654522	-16.38510095499714	7.830328850593198	0	26.30837263895009	-12.15944542589035	-15.16227264481422	-65.756923703757	0.9409653534010753	0	-1.576051001418972	-0.1424183153952162	5.107202531493997
0.286591363108844	-4.277039096883167	0.005395411803861526	-2.244511220783269	0.3253782109406779	0.9645942806419262	0.004222312663548395	12.11208958212123	3.269635894855479	-13.02563545741821	-15.90677943598605	8.531420150662397	0	27.94219808234917	-11.92432372303877	-15.49434680240374	-64.55841804704279	2.502523375616381	0	-1.840904981338381	-0.4573867101375123	5.913868362090613
0.2980550176331978	-4.20995719138573	0.09742780251538008	-2.605102163968868	0.3354080002817188	0.9649093988050799	0.005581101819691247	11.12192810426413	3.335055091105298	-12.63233167306372	-15.47043735076686	9.237043224159361	0	29.343066459176	-11.6795865027761	-15.91458748522791	-62.781758718901	3.816118431111268	0	-2.083816061583164	-0.7292853895197864	6.732353310762946
0.3095186721575515	-4.13856604441542	0.1449934009547818	-2.988059642970669	0.3455670896680297	0.9650081360078721	0.006864272701196272	10.13183096042614	3.426856644187928	-12.23659956681237	-15.06103662786622	9.936402255141349	0	30.49489306043095	-11.435584988516	-16.40850902872484	-60.45894036689399	4.820231041727261	0	-2.297306717681269	-0.9403390904430451	7.556081604174374
0.3209823266819053	-4.06370273350425	0.1362015879450531	-3.388473233911011	0.3559003510940251	0.9648856828743225	0.008056198683151048	9.130294640660518	3.557204575087128	-11.8425012346348	-14.66285677954637	10.6219491700222	0	31.3823666753998	-11.19879648862924	-16.96368297396432	-57.61499732766615	5.506717429514357	0	-2.476200202941905	-1.072037535752244	8.376436415508444
0.3324459812062591	-3.986590328864403	0.06198217324924307	-3.797323765033455	0.3664369779876953	0.9645368316129008	0.009151269754169271	8.107392060557052	3.735709918845798	-11.45877533060296	-14.26132704579887	11.28950301940098	0	32.00252470267809	-10.97603452982963	-17.56828041130763	-54.27858234147715	5.821490454452405	0	-2.618488992367821	-1.112902430634261	9.181207401439066
0.3439096357306128	-3.908641900314602	-0.08005594869981848	-4.204936084678538	0.3771819254138817	0.9639473478301708	0.01014857701953893	7.061998240626248	3.964590367387465	-11.09061369976848	-13.85684786415659	11.94635864932209	0	32.37342806462595	-10.77056557559307	-18.21115801610231	-50.52227296579364	5.71506152811106	0	-2.726412299723968	-1.061354472626808	9.958257798637231
0.3553732902549666	-3.834144195412222	-0.2995756063131241	-4.603454826487669	0.3880982712921794	0.9630701263705587	0.01104744153842746	6.013896017406614	4.251862888299253	-10.74293013357017	-13.48031184346295	12.60707741056367	0	32.57898846756691	-10.61354282422826	-18.8784260068123	-46.59744690435092	5.193498647840365	0	-2.806000028259647	-0.9069832255395386	10.69848035832736
0.3668369447793204	-3.769771774739888	-0.6046262417388767	-4.979874948011223	0.3991712588727685	0.9618774401669502	0.01184549359149937	4.961346245515607	4.608954115426981	-10.42287093506689	-13.11920329623344	13.27638908426259	0	32.68809753102193	-10.52492141923037	-19.55611043592272	-42.67562101951862	4.339276556598501	0	-2.857853814743081	-0.6424545584269364	11.39011004965894
0.3783005993036741	-3.723294126741628	-0.9883483012836604	-5.324580491508624	0.4103910407077993	0.9603581963570454	0.01254470569283176	3.902938194055731	5.032568083617786	-10.13171170734724	-12.75708237539549	13.95584599163371	0	32.73987051053718	-10.49816985846276	-20.23276243244735	-38.82823754906151	3.406706642796358	0	-2.880012127853208	-0.2785427874748666	12.02401071164132
0.3897642538280279	-3.703275742080351	-1.434621571867705	-5.636557501290896	0.4217020025714737	0.9585095539462767	0.01314233530968526	2.878949740056932	5.503301225334446	-9.868201119897831	-12.44406894512144	14.6449335750532	0	32.7597095630049	-10.51521625512094	-20.89754263455412	-35.07712436191762	2.662831339583696	0	-2.876981277922385	0.1660540422813905	12.59232507594935
0.4012279083523816	-3.715763122668575	-1.918803269617401	-5.918469738646624	0.4330327925585775	0.9563413942373801	0.01363390191422725	1.933613496263591	5.991846434993825	-9.639982921379401	-12.23716015855037	15.34537503787425	0	32.77369497368588	-10.55307024959817	-21.5452757864235	-31.43987426367467	2.150853814974182	0	-2.857454707072479	0.6630479207550996	13.0933582878163
0.4126915628767354	-3.764024118784007	-2.417217229950331	-6.173167308983131	0.4443334419808127	0.9538804504899162	0.01401807031740677	1.09474515811541	6.472197073550062	-9.453841814512895	-12.16980382028347	16.05737438511593	0	32.80071797585646	-10.59298506239348	-22.16525256708524	-27.93196037975322	1.77388377948825	0	-2.828715414622128	1.184868320078181	13.52652446851226
0.4241552174010891	-3.846808339401769	-2.907293978220182	-6.405503845346848	0.4555778833864115	0.9511713373918214	0.0142941143866284	0.372293483158481	6.920629880727127	-9.316951149851915	-12.25189694641318	16.7717536081367	0	32.8447215792988	-10.61828656606768	-22.74401787032439	-24.56225103825662	1.477410338489101	0	-2.798920552625058	1.70562046097873	13.89452467980063
0.4356188719254429	-3.959413887426196	-3.375601931666096	-6.621250326396222	0.4667645438810679	0.9482766508371433	0.01446323875507664	-0.2371140174467638	7.323657567487547	-9.232532902979626	-12.4779324198066	17.46398785280192	0	32.89584910668862	-10.62224914288774	-23.24988881053909	-21.33273686883626	1.221689051847911	0	-2.776477858455106	2.210208894157022	14.20170428769736
0.4470825264497967	-4.094313935751612	-3.81892464702617	-6.827056948935609	0.4779061269312068	0.9452732218192053	0.01453059560616209	-0.7440080422761909	7.678459477609901	-9.195592795693001	-12.83731677480626	18.09785844752193	0	32.93588891573813	-10.6113647952619	-23.63734720127933	-18.24629308598449	0.9496612911095555	0	-2.771229608219898	2.694981350269878	14.45379612580113
0.4585461809741504	-4.242381036811532	-4.232122930430114	-7.029055156275804	0.489017345884416	0.9422403507585696	0.01450102131720877	-1.161930451460033	7.979747388640602	-9.195956458765306	-13.31797561919162	18.63972479586462	0	32.95013267880573	-10.59364987466715	-23.87433267886006	-15.32106517499362	0.6256013345065692	0	-2.793757593779582	3.153213859737527	14.65816805436135
0.4700098354985042	-4.393750235554211	-4.609052475319326	-7.229193366997978	0.5001152704314571	0.9392522632917655	0.01437103397285292	-1.515257400261851	8.222114286308866	-9.224837915969193	-13.89005865032232	19.06218685810509	0	32.93981259281076	-10.57752873352754	-23.96556818766456	-12.60580618764202	0.2590467417958324	0	-2.854326060760027	3.576498956695543	14.82369736828547
0.481473490022858	-4.539315027763799	-4.93081868857197	-7.424772533734573	0.5112436022369213	0.9363754566161373	0.01414066103992951	-1.847302640476613	8.389946378501126	-9.276463062602541	-14.48891584532534	19.35188149575822	0	32.9218351338486	-10.55938486101961	-23.95163638123899	-10.17975906127764	-0.112569935763021	0	-2.953957324572898	3.939181740932196	14.95855838007996
0.4929371445472118	-4.670794677943318	-5.162650973541012	-7.609482805879201	0.5224430258227732	0.9336669935168708	0.01381808903363689	-2.195940850878505	8.451559447744183	-9.349005454419299	-15.05605113382854	19.51924593357925	0	32.94321112856924	-10.52729739213899	-23.88972534223849	-8.191797576109607	-0.5024991255127257	0	-3.088250898413198	4.194314450169745	15.06626868631207
0.5044007990715655	-4.782473364401188	-5.275462293269742	-7.778424640530821	0.5337512351803653	0.9311789414630951	0.01340846789047842	-2.581413302498237	8.379272261877722	-9.439502858303362	-15.55946495145621	19.57299206279827	0	33.05022061210763	-10.47087832241699	-23.84066083868835	-6.789268775173368	-0.8330339862182988	0	-3.250298136715076	4.303359323150308	15.14799082240964
0.5158644535959193	-4.870894659074306	-5.251995875417616	-7.929048208079188	0.5452184684955679	0.9289627569534933	0.01290818656670848	-3.010966851476505	8.155385617506607	-9.544340655866131	-15.98887843017792	19.51066575462492	0	33.258592456396	-10.37725918058875	-23.85463239710573	-6.040260884539581	-1.053531426572867	0	-3.430485724911864	4.245089098121033	15.20250257553246
0.527328108120273	-4.935143677726204	-5.098325031759214	-8.061699640852122	0.5569202291884789	0.9270675490898853	0.01230362821601251	-3.48038426904093	7.783718897101748	-9.66326965170871	-16.35730531672528	19.31231214594913	0	33.53993680638405	-10.24054065239325	-23.96133937415826	-5.898384442728275	-1.183716015529335	0	-3.616071348508631	4.030099091252041	15.22609618967266
0.5387917626446268	-4.976826016091151	-4.833778358270671	-8.178019162802011	0.5689510056377733	0.9255301134052079	0.01158405854006354	-3.97192683927705	7.279792773533912	-9.800623142040562	-16.70452183916714	18.95446046521991	0	33.83240896849759	-10.057920736706	-24.16224208279096	-6.226925009272954	-1.334031670895175	0	-3.789862221572568	3.685392066483534	15.21193794786114
0.5502554171689805	-5.001559130918113	-4.489294314040038	-8.277181404646621	0.581408818510557	0.9243651003404928	0.01073688503065281	-4.456584160033082	6.670218916848373	-9.9670771182855	-17.0883410396995	18.41431631660102	0	34.06588588843935	-9.831653716432953	-24.42316541099073	-6.847975178865647	-1.660013460481875	0	-3.930738701737127	3.251954882935594	15.15127028927435
0.5617190716933343	-5.016794604374138	-4.113507023408184	-8.360632038808092	0.594401931625792	0.9235751871301889	0.009745927782088054	-4.908589235465523	5.999561916422695	-10.16589334427885	-17.56309334305615	17.66119070673812	0	34.15998410384778	-9.575977364439767	-24.65755275799181	-7.544515779128059	-2.469205130824022	0	-4.016117326950068	2.794110495050202	15.04249479388778
0.5731827262176881	-5.027333761355649	-3.724369855166616	-8.438095257515268	0.6080619412206991	0.9231507048422998	0.008612676892168578	-5.296385169473667	5.277564665330453	-10.38977154972698	-18.19540736188245	16.67495685265742	0	34.00803652392922	-9.268833892173598	-24.74984625852957	-8.055541153045981	-3.972767427983237	0	-4.016239692748075	2.338957883331091	14.88980951425567
0.5846463807420418	-5.033060255207007	-3.30766584575443	-8.512278877587232	0.6224107935554732	0.9230333121007217	0.007314741302271008	-5.5529598728093	4.473926179839986	-10.65895084966714	-19.11321226422126	15.48823126307874	0	33.5795108034126	-8.867906349529109	-24.69754686541792	-8.311616780743305	-5.940551291805444	0	-3.921964921424803	1.873524909898983	14.6982809447009
0.5961100352663956	-5.03712316918692	-2.848350355223239	-8.585362146263313	0.6374519024806919	0.9231384473797206	0.005849260631747066	-5.687195009606694	3.57513894842942	-10.93209493333163	-20.26367706455453	14.0423182315016	0	32.92687219797121	-8.359117438244219	-24.63275817085023	-8.500028403515138	-7.36121877799568	0	-3.727713671767736	1.379876387577613	14.48163951448157
0.6075736897907493	-5.041421361830996	-2.396910288011514	-8.630300495823748	0.6532653357469655	0.923447439988299	0.004279954755310228	-5.973339376290671	2.695378884174635	-11.0994075435599	-21.12957430342185	12.27228657704584	0	32.15283282009084	-7.81267605017142	-24.64505620660968	-8.842434147665724	-7.994699796376076	0	-3.434313069502837	0.8990402861656559	14.23648388453923
0.619037344315103	-5.048192272036935	-1.916022026799591	-8.642139624534718	0.6696435109535956	0.9239341143199551	0.002649291524988106	-6.36251171696416	1.797621277983145	-11.23131071634772	-21.79996959536216	10.29533665691231	0	31.41123491017842	-7.23261270278493	-24.67747105255395	-9.619702534551857	-6.750396551412037	0	-3.06722887713242	0.3682259050849364	13.97628696820509
0.6305009988394569	-5.057626318842727	-1.239493367708841	-8.577428212495867	0.6861505333873299	0.9246704497427629	0.0009013866522856851	-6.644807865707079	0.6861877763645629	-11.41853275281306	-22.58692140485829	8.181701170320228	0	30.81330452369508	-6.435804026605489	-24.56494240280873	-10.49801299056942	-5.955236119213498	0	-2.665687655188103	-0.4273288657589452	13.67559598079399
0.6419646533638107	-5.068951158787582	-0.3331382857865481	-8.413557778088332	0.7025688086287432	0.9256923489705197	-0.001004868769018099	-6.698697659065865	-0.6930817564140758	-11.71151442290613	-23.69696907818335	5.929284804144058	0	30.38097586597612	-5.382974985241058	-24.29104137177328	-11.37519268895234	-5.967148839290383	0	-2.260361917440596	-1.534101141986871	13.32161680989814
0.6534283078881644	-5.071472814508734	0.6535405859806066	-8.149358674525695	0.7188520283659057	0.9269990517113039	-0.003091873953204253	-6.48332570566775	-2.205070151227878	-12.1177691347559	-25.26040028396691	3.447322591445377	0	30.09162202043418	-4.254636691532613	-23.9853876391137	-12.51296670255241	-5.701853224011997	0	-1.895031971645919	-2.770602999648413	12.91893679721391
0.6648919624125181	-5.05382683528377	1.509006692953272	-7.821579223029687	0.7351025826875508	0.9286254003260541	-0.005407435423307124	-5.990538653394195	-3.655666605622117	-12.54880941867806	-27.3510899137558	0.6350036351177762	0	29.76185973963681	-3.243209831525121	-23.86928584867577	-13.69557128900244	-5.09914378001794	0	-1.587542662591945	-3.854650618225006	12.50325854978376
0.676355616936872	-5.019894692915419	2.129830961286315	-7.456706214436862	0.751243762560136	0.9305138122623553	-0.00802755854735307	-5.143706130894971	-4.958171054424124	-12.84276463150687	-30.12647136565696	-2.287530170879771	0	29.30961004347036	-2.422949081647001	-23.94684771321833	-14.74759020972349	-4.263339587614968	0	-1.345363923303412	-4.628255894066551	12.07633990852605
0.6878192714612257	-4.97951290086566	2.573520084322804	-7.09042302080838	0.7670923206116707	0.9325292670895011	-0.01092605855338179	-3.840322520699674	-6.182278829180184	-12.89051308372613	-33.79473394974745	-4.715592511423685	0	28.73246507056225	-1.723954672202557	-24.08488395438468	-15.61009384503651	-3.216390710971095	0	-1.161426891725639	-5.144373536180248	11.64595741432826
0.6992829259855795	-4.938583473783652	2.928303649368027	-6.732890179311494	0.7825583099631563	0.9345415743991274	-0.01398358145103821	-2.13123842309993	-7.381966711909917	-12.70844458257361	-38.1575871377298	-6.640270922076883	0	28.01018389898145	-1.049923112405375	-24.23850400461689	-16.1631831836746	-2.186268802394985	0	-1.021665322312694	-5.51968507944107	11.20961240607081
0.7107465805099332	-4.903192875707528	3.266705149636071	-6.387154969099309	0.7976300054170076	0.9364636690337315	-0.01707642656481889	-0.1532886480892881	-8.580945723530869	-12.34908980142413	-42.81018837840098	-8.328015225851862	0	27.1644951532772	-0.3409499926090087	-24.39844206181312	-16.43294338322955	-1.138785865373019	0	-0.9073809795288643	-5.855531940592972	10.76568075481631
0.7222102350342869	-4.870812794978777	3.612515450366337	-6.059258120571881	0.8123391817264562	0.938307747071109	-0.02009793384948022	1.969880181799395	-9.752682371984585	-11.84117368128151	-47.3689768558412	-10.21824191348317	0	26.19642526467484	0.4188975987238563	-24.55837569934163	-16.4150538725071	-0.1396118345028439	0	-0.8119103978397261	-6.193794100174379	10.31788051546677
0.7336738895586408	-4.837388674823962	3.939375536264048	-5.746536033511337	0.8266943078377003	0.940107702976883	-0.02293699955566677	4.131940668876138	-10.79670510805891	-11.1974414060855	-51.57847330831519	-11.82579205276893	0	25.13090016891185	1.186635728482517	-24.69039233432124	-16.17763370434633	0.8284542935870316	0	-0.7424359020450704	-6.521061208642654	9.862728107375309
0.7451375440829945	-4.792790703416144	4.211173476233855	-5.445180742100476	0.84069876702265	0.9419286556623349	-0.02550547442878462	6.234068258712893	-11.60441677031845	-10.46416853201746	-55.24410032524435	-11.89150537541113	0	23.98172605195579	1.913485947054704	-24.7622270042587	-15.7646845094422	1.706662979867514	0	-0.7170186534187216	-6.809301133569201	9.394934275197569
0.7566011986073482	-4.722754944564902	4.415588854476438	-5.165871851643343	0.8543284691302628	0.9438718530536155	-0.02780642657677329	8.304462464233838	-12.18432288719499	-9.694346527497801	-58.32445122858924	-11.55769367871485	0	22.74895566540237	2.580076354588675	-24.7645333397369	-15.19378509258545	2.435692820936656	0	-0.7582986395858424	-7.041346121214874	8.918016790429286
0.768064853131702	-4.613730404061972	4.536819181767784	-4.913270815334263	0.8675814405924391	0.9459766641751098	-0.0298793838124881	10.35768346444035	-12.54910687601935	-8.933474966943095	-60.89888845347701	-10.77188093386168	0	21.42394225284237	3.16839203700694	-24.70629481772377	-14.4781209595952	3.022808385611866	0	-0.884706282816321	-7.188307367863844	8.427727721086336
0.7795285076560557	-4.455025687034872	4.563421703720826	-4.688565844891672	0.8804772855153971	0.9482525211285826	-0.03177502577398882	12.39545967987129	-12.71419358525037	-8.218557282709313	-63.03148574929762	-9.544078801736859	0	19.99862856666152	3.667026920080164	-24.59152177322459	-13.63588291123076	3.519122419651265	0	-1.107748748776881	-7.225093279744107	7.920637587677695
0.7909921621804095	-4.24047159649904	4.494441774242897	-4.489514682733561	0.893035382659914	0.9506840594678891	-0.03354554744840633	14.41694314132883	-12.70611534461986	-7.588416792500479	-64.75475505167203	-8.077810624679563	0	18.47580756975762	4.073561519711729	-24.42077046884728	-12.68871101426509	3.941599802852641	0	-1.433582499388766	-7.140883719320145	7.398519624015018
0.8024558167047633	-3.969955039380649	4.340043914733445	-4.309852692373933	0.9052744522466785	0.9532249783785809	-0.03523048538955324	16.41464152162999	-12.55888945115906	-7.078915036327267	-66.09168056435347	-6.41952728183674	0	16.87660043869187	4.39047390370242	-24.2013240145808	-11.68171437919878	4.315036633099887	0	-1.861051261488565	-6.942207720327755	6.8643774584423
0.813919471229117	-3.649026017856754	4.117922915739143	-4.140524560445547	0.9172183708158013	0.9558107706501552	-0.03685199616644052	18.37382118918275	-12.3080014965847	-6.716260181073684	-67.03547932335057	-4.664504144759184	0	15.23417521232965	4.624139572479929	-23.94498060029127	-10.66959913406771	4.655005523677974	0	-2.38146872677388	-6.64896501856345	6.319437258957378
0.8253831257534707	-3.287827549195429	3.856736725656074	-3.97250793761288	0.9289184115274838	0.958367700770272	-0.03841988742036231	20.26941720909357	-11.99635820312426	-6.516253515084968	-67.55663829796192	-2.858266214502557	0	13.57477125327942	4.796404038832578	-23.66646806962545	-9.684804961635706	4.972631245907301	0	-2.975269903317949	-6.296118154759278	5.762315339285298
0.8368467802778246	-2.899615989859302	3.580892735119783	-3.800160773552546	0.9404430867094116	0.9608161423263883	-0.03993555993629314	22.07626295021406	-11.65803079672673	-6.483490321804656	-67.6338007276311	-1.024426953150403	0	11.91738715734892	4.928452865478064	-23.37423860883286	-8.745395891278202	5.294604319059778	0	-3.61583470157931	-5.913715626235847	5.193371866081445
0.8483104348021783	-2.499277650040787	3.307620752587972	-3.621015526320897	0.9518661465188145	0.9630825716676353	-0.041392896470849	23.76439542398951	-11.31412686927658	-6.614757790215409	-67.23577248992991	0.831809246747287	0	10.27548234072653	5.036335209250002	-23.07524289627698	-7.856119989577301	5.640060954896326	0	-4.274301897476803	-5.523826971366136	4.615366024052397
0.8597740893265321	-2.101518566130917	3.043364788858204	-3.431709219184128	0.9632743820332221	0.9651279152142849	-0.04278567351724195	25.27343739025837	-10.96870169788742	-6.909788009518593	-66.24394905801627	2.597440778646706	0	8.654280659820699	5.127922768835552	-22.77298676946864	-7.000312455207526	5.977301684551694	0	-4.921617016387835	-5.136418463267977	4.030967724719535
0.8712377438508858	-1.719196321136736	2.796477674588171	-3.230539761330647	0.9747274584202972	0.9669150499827871	-0.04409918657683762	26.56703967482153	-10.62525402368654	-7.359404884214096	-64.61063973550569	4.123991606206986	0	7.064345601831557	5.210492094117673	-22.46673397131622	-6.174883581393521	6.286855401116983	0	-5.534044643532536	-4.765012601783571	3.442391453763647
0.8827013983752395	-1.362277759630527	2.573288107461258	-3.014544934418829	0.986262280751381	0.9684085745407424	-0.04529250875583378	27.62787890065342	-10.2684930916989	-7.936537706028137	-62.35679176961006	5.329896027190824	0	5.52087707970595	5.28536752409443	-22.14834613980116	-5.39506877911511	6.58000478982101	0	-6.094349974243661	-4.425741892840647	2.846968588048564
0.8941650528995934	-1.036564683326195	2.378208657035591	-2.783174982888029	0.9979050147249851	0.969584493949312	-0.04634231735210814	28.4446994350448	-9.886689479887083	-8.613537443624489	-59.51145204558102	6.147824355288596	0	4.033804001684145	5.353545820214858	-21.81354895945774	-4.674493727459426	6.874327091728964	0	-6.592468889873851	-4.128514920442871	2.245025218728897
0.9056287074239471	-0.7448860488366963	2.220710289824339	-2.53767408054221	1.009670560035892	0.9704287826815987	-0.04724541908188081	29.01246447667911	-9.481689236179214	-9.361037333834904	-56.09949388469588	6.489365637828329	0	2.611006011233388	5.422766492121085	-21.46233466719222	-4.024694187961921	7.173813284011327	0	-7.024038397310569	-3.885153273517404	1.638709598766479
0.9170923619483008	-0.489351658663399	2.114974068202994	-2.28462779735389	1.021553803486839	0.9709271766083893	-0.04800920179893432	29.34416581863669	-9.064058337181157	-10.14036412709367	-52.16534964232388	6.278515433182057	0	1.262357631077018	5.506526045813691	-21.09800962608606	-3.459070456820188	7.477578884657291	0	-7.389173252280666	-3.709763736320053	1.03657970739317
0.9285560164726547	-0.2705247546996371	2.081145593572224	-2.033736297841398	1.033546908885784	0.9710598006306455	-0.04864396964031019	29.48267507401632	-8.654470646388397	-10.90329951746277	-47.82974420507394	5.432986433213698	0	-0.01111631627970537	5.628713555606532	-20.72919371048509	-2.977093812099591	7.788189058740604	0	-7.689859474571233	-3.622052436794672	0.4473718383052919
0.9400196709970084	-0.08598305363502017	2.142432760993885	-1.79609697168328	1.04565025138546	0.9707915818957457	-0.04916863612953284	29.51845386480325	-8.292101818536706	-11.60198235155454	-43.38138122058491	4.046219159659496	0	-1.216701120318163	5.819836435188475	-20.36838456688963	-2.57352499133565	8.129546764418009	0	-7.928842637709465	-3.643505837799502	-0.1200069800909713
0.9514833255213623	0.0666233088913164	2.314558484095746	-1.581465164985846	1.057858677335246	0.9701122391710089	-0.04959992150691603	29.50846292990206	-8.004518078855801	-12.19804169160292	-38.99992569170816	2.513768654474812	0	-2.36520061877989	6.103844308333371	-20.02923347195112	-2.23150300852882	8.499406281557709	0	-8.112698988217049	-3.78794612005217	-0.6560114056241313
0.962946980045716	0.187856093726495	2.5979018062344	-1.395909530135033	1.070161887727589	0.9690232360848834	-0.04994080069673727	29.4772989670146	-7.792704932029817	-12.66319832829757	-34.76599635521812	1.585851504356773	0	-3.461137581269957	6.485525464422488	-19.7209231790818	-1.944490078698587	8.899590228831078	0	-8.249193096354039	-4.054187749010528	-1.152443655153094
0.9744106345700697	0.2775676633828875	2.97730271845208	-1.243339782482856	1.082538601744189	0.9675494990830315	-0.05019922415602494	29.45202161666136	-7.650355319666834	-12.99564344143222	-30.7352642731538	1.310227534971979	0	-4.506475282643412	6.952836776516444	-19.45350563801578	-1.704325199227773	9.312050634057041	0	-8.346402562443771	-4.422871697634417	-1.601271599109874
0.9858742890944235	0.3361155114528427	3.423500543952788	-1.122459627409792	1.094955969750978	0.9657431463502062	-0.05039069558793775	29.44508654053112	-7.561680385029392	-13.21097705415705	-26.92253300019571	1.285129001551146	0	-5.491322901995223	7.47439405430433	-19.2354458791764	-1.526033412899216	9.72775949717826	0	-8.414469753445657	-4.857869002753414	-1.995844187644221
0.9973379436187773	0.3651368737413381	3.910831259867176	-1.027167395104797	1.107396991169181	0.9636717039118926	-0.0505226348025407	29.43985051443081	-7.511545150680584	-13.33965291736657	-23.29629091744946	1.220521889399673	0	-6.400750581802816	8.018742157937345	-19.06945655185939	-1.441224601026358	10.15188214434594	0	-8.461892596202196	-5.329955145829912	-2.333142315100833
1.008801598143131	0.367805246114807	4.411067220636372	-0.94846664273953	1.119855935283107	0.9614066196716508	-0.05059943684408455	29.41663985524004	-7.482359781088308	-13.42113033295883	-19.84495010570948	0.9527749455745241	0	-7.22454653852336	8.551611598904438	-18.95675559853349	-1.474079191215871	10.57947296416197	0	-8.496767388231167	-5.807740968675314	-2.614285517066492
1.020265252667485	0.3493825573710241	4.901192328752275	-0.8762835473642545	1.132354207503141	0.9590183696755473	-0.05061929923407393	29.36193021620015	-7.463574483087853	-13.50563804527339	-16.6058405883276	0.502758830328665	0	-7.964137637099362	9.045585464497124	-18.89353041880866	-1.635819188907535	11.00797061651152	0	-8.523632626467057	-6.267357572156913	-2.845120984392921
1.031728907191839	0.3147175126472794	5.351529386900448	-0.8004428295576099	1.144921336836773	0.9565724202300219	-0.0505809541441454	29.29556573923945	-7.440628937748182	-13.63099942809937	-13.71260824307687	-0.04561454826579967	0	-8.632219947089167	9.469171596850499	-18.86939690348375	-1.912196108829092	11.40988655964261	0	-8.543611753571719	-6.676264730956135	-3.037176964652316
1.043192561716192	0.2705502569319357	5.747929545059964	-0.7148079618823947	1.157584180686256	0.9541409307392927	-0.05048100723060988	29.25879754418618	-7.418332527396046	-13.8050235382999	-11.35391390073975	-0.6878084317122626	0	-9.244437734757167	9.808146687163413	-18.87552045970319	-2.285936897017202	11.75440710410257	0	-8.558397148883	-7.020184737947027	-3.200270662326381
1.054656216240546	0.2210215843226829	6.065592163400618	-0.612201257448073	1.170361580525091	0.9517938580445257	-0.05032475831994816	29.30991034904668	-7.396090976100473	-14.02839762888927	-9.773021852813066	-1.266847806194153	0	-9.802338949333578	10.03369421641343	-18.90710795397876	-2.761111593419432	12.02099820803529	0	-8.567065900034988	-7.27028552122671	-3.342218487935015
1.0661198707649	0.1686768514941825	6.291299876550289	-0.4877311340843337	1.183285147482227	0.9496026343504739	-0.05011574846939788	29.47385442335963	-7.377574390382238	-14.24822431506798	-9.107033313857597	-1.640478634267839	0	-10.30127127175888	10.12806242500143	-18.96517115062994	-3.35291969744754	12.2008575260732	0	-8.564771076011775	-7.410755870213237	-3.468450236473345
1.077583525289254	0.1121605278760601	6.410425132078327	-0.3402735696794166	1.196380409872163	0.9476235703188073	-0.04985102286368132	29.74625680963049	-7.348845618607544	-14.3959458730627	-9.346791065135058	-1.749520122273407	0	-10.73877526331494	10.07449023709106	-19.05014510443669	-4.060806150313574	12.27406186378224	0	-8.545460086801091	-7.422830673777154	-3.58541950551776
1.089047179813607	0.04791486977119332	6.399851921286293	-0.1665170570965293	1.209725632950452	0.9459084957106662	-0.04952874152224969	30.06019278487773	-7.270623031536247	-14.44514180003515	-10.29794743357853	-1.71029069405345	0	-11.12350721348876	9.849603862426525	-19.15465649948779	-4.866198924546677	12.22799707554495	0	-8.492073977895254	-7.277849487096971	-3.693758156434899
1.100510834337961	-0.02508786851241136	6.268998423499991	0.03429107710507034	1.22343018523012	0.9445084301669129	-0.04913245435894802	30.3104900125627	-7.123915148239198	-14.38346491114297	-11.6683939314584	-1.736135711357425	0	-11.46421183162729	9.463092646217616	-19.27719182144597	-5.755371641116994	12.03433900071748	0	-8.384297632674459	-6.989032211895145	-3.790070026717705
1.111974488862315	-0.105315911891004	6.051802633331602	0.2631552864580124	1.237629880486052	0.9434723828643358	-0.04864426326916342	30.34653452594688	-6.904868171778074	-14.20743078129714	-13.05990274858353	-1.941102098733228	0	-11.76962558173368	8.948781883307122	-19.41876911269939	-6.720360964166548	11.64814684078987	0	-8.20073140160371	-6.599596686374996	-3.872076951251237
1.123438143386669	-0.1925091938704095	5.80105788539924	0.5243741971205739	1.252455573090056	0.9428448374855126	-0.04802162751482111	29.96525660918093	-6.611416330545356	-13.92628657886433	-13.89493684147874	-2.368458832989579	0	-12.04260798615772	8.354385309421236	-19.56490827589663	-7.76172991934915	11.01536706096921	0	-7.922849355222367	-6.181088537969344	-3.949534895383565
1.134901797911022	-0.28324705552306	5.561840740870545	0.8079516495370115	1.267925523882834	0.9425975932271506	-0.04725100074180993	29.17790926912826	-6.28649712798563	-13.59455781662486	-14.16183795871439	-2.570344660310801	0	-12.29171901107805	7.727523316416	-19.69663240915898	-8.865885379527761	10.11155888723734	0	-7.552194708019168	-5.789007237980981	-4.023752941041784
