inDegrees=no
nColumns=24
nRows=122
DataType=double
version=3
OpenSimVersion=4.5
endheader
time	pelvis_tilt	pelvis_list	pelvis_rotation	pelvis_tz	pelvis_ty	pelvis_tx	hip_flexion_r	hip_adduction_r	hip_rotation_r	knee_angle_r	ankle_angle_r	subtalar_angle_r	mtp_angle_r	hip_flexion_l	hip_adduction_l	hip_rotation_l	knee_angle_l	ankle_angle_l	subtalar_angle_l	mtp_angle_l	lumbar_extension	lumbar_bending	lumbar_rotation
0	0.0003160652716356741	-0.05915542348676985	-0.03767662165050623	0	0.9845592200000001	-0	-0.2584729743770843	0.09826767936221951	-0.2455819233035693	-0.2073892564335715	0.3250682744572373	0.07850981430443597	0	0.4724413394850379	-0.06182665896344361	-0.343351361255294	-0.1473984326903465	-0.05732341697611561	0.1040716600886545	0	-0.2155342031288764	0.0753029880501907	0.1586574249840582
0.01000000000000001	-0.005238412896211243	-0.05383864856222282	-0.04627749111696192	0.0003655399999999975	0.98337398	0.01352532000000001	-0.2545024578410792	0.08515911296548327	-0.2440780614007859	-0.2318897592966048	0.312666731690239	0.09674504138187613	0	0.4800166091416955	-0.06057436637558176	-0.3417819102282865	-0.1804053648949811	-0.05600280836160634	0.09202981536879232	0	-0.2060195642735742	0.06572058416868597	0.1671107619334126
0.02000000000000002	-0.009104205739805638	-0.04767821151410707	-0.0546141497350525	0.0007185399999999897	0.98293652	0.02691032000000002	-0.2529195096593672	0.07183395487376597	-0.2367390258981101	-0.2536658897656059	0.3011519908907118	0.1093416143953423	0	0.4828699557823964	-0.05724131057944941	-0.3389050955413972	-0.1980436958259574	-0.09347223470058849	0.07468429658109382	0	-0.1992339365483902	0.05539764738300262	0.1736481771354254
0.03000000000000003	-0.008322067573891588	-0.04201978778058477	-0.05661104363080788	0.0007859500000000075	0.98320937	0.04021051	-0.2578443736266263	0.06177620515995989	-0.2274974127374217	-0.2708160952144319	0.2880160198576595	0.11288257904796	0	0.4835877056821183	-0.05344825214047001	-0.3277937362857886	-0.2191232048275626	-0.09808721720448522	0.07121523059247914	0	-0.1986020404417715	0.04564174136775467	0.1718593589908604
0.04000000000000004	-0.01512172652488182	-0.02935055751580357	-0.06182336630710939	0.0001690099999999972	0.98336937	0.0534314	-0.2432229385555018	0.03860676874978084	-0.2329348711793453	-0.3086426515230888	0.2640904785411827	0.1368658389263991	0	0.4886644892161234	-0.04009299567126913	-0.3046468214297445	-0.2353091677009405	-0.1076063104891043	0.002060344077752636	0	-0.1886498047824277	0.02980022672717357	0.1711257258968137
0.05000000000000004	-0.01220927327703791	-0.01912002338208164	-0.06400343495616521	-2.303000000000721e-05	0.9848179500000001	0.06707552000000001	-0.244242811580995	0.02156908363063332	-0.2290654006549172	-0.3351946320167417	0.2292476320529143	0.1437682941047896	0	0.4858129969877527	-0.0319941329985997	-0.2933245660121027	-0.2627652591158555	-0.1063066074283755	-0.009143154599727303	0	-0.1896261854246917	0.01476537045467432	0.1710627153220265
0.05999999999999983	-0.01035274961629459	-0.01249959541188276	-0.06273630419350779	-0.0003468900000000164	0.98643007	0.08108448000000001	-0.2429425397174629	0.009660406660033649	-0.2261272343286948	-0.362653774790788	0.1873997254465903	0.1510483140913361	0	0.4827729819730301	-0.02506650615813808	-0.2750093932556104	-0.2897102987526318	-0.1114941631702802	-0.03461048103110657	0	-0.1890687750836262	0.004520749210521834	0.1673497343344579
0.06999999999999984	-0.007627510786536206	-0.007747545475713173	-0.06112218746699317	-0.0007554300000000014	0.9881951600000001	0.09509426000000001	-0.2381497118279794	-0.0004806565201493052	-0.2218539654757229	-0.3971327032003218	0.1422044523914651	0.1575914628744747	0	0.4784463604992198	-0.01859820896156395	-0.2547846690290133	-0.314854020894872	-0.1171714864000956	-0.06938147929538735	0	-0.1897633421239596	-0.003645415103433744	0.1643683482454354
0.07999999999999985	-0.002324067492640412	-0.003397725729683913	-0.06094363683080626	-0.001243960000000016	0.99031	0.10844222	-0.2281101297699561	-0.01125919108671353	-0.215346976947626	-0.4434330332166764	0.1008889457325585	0.155895586654171	0	0.4679573373092521	-0.01215767175034157	-0.2436549356451713	-0.330193370101201	-0.1017210553644576	-0.08226162049028107	0	-0.1957187943911216	-0.01113113174163865	0.1608881966235438
0.08999999999999986	-0.002453335539331085	0.005035531311386335	-0.06130675606607881	-0.001622289999999998	0.9920978300000001	0.12225762	-0.2115434519436553	-0.02491145459804941	-0.205842051198677	-0.4871317881909117	0.03402002410238505	0.1553301746766168	0	0.4602128131266518	-0.001371379020719304	-0.2363541766092551	-0.3437861857783518	-0.08590683994230568	-0.09696441687701414	0	-0.192519403064957	-0.02352564589320632	0.1595506406874647
0.09999999999999987	-0.004805255352789021	0.01325914084011502	-0.06312684584563817	-0.001943830000000007	0.99378269	0.13583386	-0.186410540370802	-0.03951323883259281	-0.1939654539033278	-0.5415603331291641	-0.02501678050601829	0.1515580390701774	0	0.4494033623213165	0.008756972577455526	-0.2354761361946289	-0.3471966333132419	-0.07425150274862075	-0.1048969390254601	0	-0.1872039050895701	-0.03495028878248822	0.1568673334472709
0.1099999999999999	-0.003146692346944167	0.01940127907149314	-0.06345561278132257	-0.002333680000000005	0.99562852	0.14910791	-0.1635588695998153	-0.05247107527900124	-0.1864389253585588	-0.5989584821367904	-0.07257679632494618	0.1430402348942421	0	0.4359862997290453	0.01625809802949459	-0.2389907744753424	-0.3533407771400943	-0.05723231026556272	-0.1074897130702932	0	-0.1875768323833706	-0.04478203860398037	0.1555304756428927
0.1199999999999999	-0.01191791978992773	0.0280012307695643	-0.06827272418198231	-0.002351710000000007	0.9963434800000001	0.1617008	-0.1224767979358361	-0.0671913329867688	-0.1708075967055381	-0.6667607671046211	-0.1053272677548976	0.1260391383339346	0	0.4312168840352139	0.02379102826742689	-0.2501737260896703	-0.3524482777198129	-0.04741377991689104	-0.106738149685242	0	-0.1756022781346873	-0.05623419154746515	0.1560953664651323
0.1299999999999999	-0.01139937950394509	0.0337841160040804	-0.06788318410286191	-0.002817089999999994	0.9979539000000001	0.1743388	-0.0934093545018964	-0.07940933954762133	-0.1646040902165682	-0.729239825779137	-0.1453997640105033	0.1138687890355053	0	0.4188837196031172	0.03068858133954739	-0.257434381473633	-0.3570351789232425	-0.02843606202491739	-0.1064812958624113	0	-0.1754856540123385	-0.06399744101854421	0.1509379092752439
0.1399999999999999	-0.01298628353079833	0.04224692171485592	-0.07049381783891076	-0.003111790000000003	0.9992773	0.18657306	-0.05870042066941532	-0.09367792873425301	-0.153409075933648	-0.7930090705830366	-0.180250456800957	0.08933928717788427	0	0.4075289411965949	0.03933336519988227	-0.2656052632380238	-0.3588401945959307	-0.01038265497136959	-0.1030381059507537	0	-0.1730734882092981	-0.07491661997582066	0.1476895710628717
0.1499999999999999	-0.01619317558243165	0.048881674155302	-0.07070067502906049	-0.003366819999999993	1.00044919	0.19854468	-0.02250922181284797	-0.104650165875323	-0.1438789010300092	-0.8524317711542474	-0.2119578201606822	0.06821259756327464	0	0.3980217644965097	0.04659846035239618	-0.2707510848413878	-0.3600850307881622	0.003179826708848607	-0.09943854658088931	0	-0.1692334126946651	-0.08313651163280501	0.1420624033597709
0.1599999999999999	-0.02308211147238088	0.05335747168042464	-0.0700817562767171	-0.003759010000000007	1.00146241	0.21027308	0.01789121954027942	-0.1104600580319346	-0.1315293669803252	-0.9076527962784029	-0.2286574756698899	0.03683924938167666	0	0.3918775196150937	0.05195984949153619	-0.2728296717986139	-0.3594546719675487	0.01405167006788295	-0.09494469725746385	0	-0.161399921226109	-0.08839478357814455	0.1371157051490365
0.1699999999999999	-0.02272096582281787	0.05750986115229339	-0.06645429842777843	-0.004552890000000004	1.00301364	0.22203526	0.04754492290968836	-0.1181440959094448	-0.1274447263315918	-0.9563438428739555	-0.2270628660707808	0.01223476660859358	0	0.377955263616851	0.05864767245609692	-0.2736575898477814	-0.3596521273490121	0.03135485449831092	-0.09220726247024381	0	-0.1627516696560665	-0.09245361429789942	0.1263464913388096
0.1799999999999999	-0.02450036007002643	0.05954552315242966	-0.06218937666055454	-0.005302390000000018	1.00459783	0.23385298	0.07829107149115183	-0.1217326375393401	-0.1222723813086511	-0.9994766769326268	-0.2088550190205143	-0.01167231540758249	0	0.3649271706867329	0.06357220149467253	-0.2713627588651611	-0.3569856340872332	0.04281642646016993	-0.08766329671547902	0	-0.161079732895382	-0.09391655259304663	0.1165066227692359
0.1899999999999999	-0.02435431524125219	0.05933272038894812	-0.05824852867035372	-0.006063819999999998	1.00636663	0.24545674	0.1070150002689115	-0.1230801469136104	-0.1181623239536197	-1.037916868840604	-0.1816275611997545	-0.03788254943812062	0	0.3486463989103926	0.06644530246997934	-0.2682456079769492	-0.3526195531624963	0.04508325712560043	-0.08423906282482738	0	-0.1618803018097036	-0.09279254903558921	0.1073584639614773
0.2	-0.02564695615845898	0.05882410664450522	-0.05232687009633873	-0.007033440000000002	1.00816247	0.25737242	0.1355591957384326	-0.124307875039448	-0.1173647584018749	-1.069367385707881	-0.1549922745701076	-0.065814005185827	0	0.3335074796501712	0.06930302360391755	-0.2655842311478726	-0.3471305774879758	0.06457411804922246	-0.07832081137800702	0	-0.1602060990880512	-0.09082660911894526	0.09771537253841979
0.21	-0.02365669798627314	0.05725662036581887	-0.04908933737060478	-0.00787699	1.00999322	0.26887059	0.1615563858047601	-0.1242295118504285	-0.1137832722654807	-1.096431121696427	-0.1309200543870297	-0.08467949596343646	0	0.3145196920810782	0.07077760394330729	-0.2640579581702961	-0.3410702537965821	0.06709277529110623	-0.07398470456331095	0	-0.1629918863023355	-0.08777015624426163	0.08918127903004272
0.22	-0.0226802247718815	0.05612050067220344	-0.04350356347082024	-0.008841320000000014	1.01192317	0.28058685	0.1867343404858831	-0.12471782355921	-0.1128016846079263	-1.116421400556992	-0.1088282668111056	-0.1033793803023058	0	0.2954110479662003	0.07364914424519695	-0.2591092458496048	-0.3319130505181068	0.08309006021836196	-0.06897392397109565	0	-0.16390615538891	-0.0849367428344147	0.08040412625764394
0.23	-0.02105253478962226	0.05389083144025625	-0.03906516191148771	-0.009906650000000017	1.01376046	0.29198303	0.2108028057676082	-0.1241589691327214	-0.111232018556355	-1.130397215823057	-0.0920129273884171	-0.1153254584570453	0	0.2754634989545137	0.07499503657191522	-0.2556298991735642	-0.3223548030406472	0.0915877805415287	-0.06305376261047484	0	-0.1660115980764025	-0.08053336230370052	0.07241279105126185
0.24	-0.0189656605188371	0.05206660494161443	-0.03467230496440153	-0.01078582	1.01555039	0.30347108	0.2333254160011482	-0.1228995585685711	-0.1089438028951986	-1.138767836557704	-0.07439653384987495	-0.1290622107394763	0	0.2540874590365935	0.07650755356245922	-0.2520279281077394	-0.3111579922903279	0.09774377689933138	-0.05678279059380192	0	-0.1684749769011513	-0.07689402914911118	0.0657151397886173
0.25	-0.01862227345743812	0.04990908999542887	-0.02986109406312187	-0.01148805999999999	1.01724743	0.31493243	0.2566007511363567	-0.1207478730334812	-0.106765470371221	-1.141264165453401	-0.06507721810728902	-0.1342438002478661	0	0.2345482451623084	0.07701347756325552	-0.2499173229108524	-0.2993665058014193	0.1041945698397714	-0.05231838811645025	0	-0.1684492268369661	-0.07324068309502346	0.05743905812902961
0.26	-0.01782912927773706	0.0471550418514952	-0.02621858537042623	-0.01240286000000002	1.01872126	0.32633115	0.2788679460474354	-0.1184081612582118	-0.1040762717721371	-1.139443452114888	-0.05111403501075171	-0.1404090669219907	0	0.2142525371733023	0.07732080473725755	-0.2446620801589627	-0.287807350910285	0.1062022290596575	-0.04848846343674681	0	-0.1690452775459403	-0.06788983242843992	0.05118831953984216
0.27	-0.01490963406915802	0.04624606810741158	-0.02076168009959379	-0.01350892000000001	1.02033491	0.33768575	0.297059959296195	-0.1186329586186711	-0.1040447628195521	-1.132519178400985	-0.02895512468978975	-0.1470155428826428	0	0.1909583537039028	0.07949648488437096	-0.2423183012429373	-0.273508513422387	0.1131482607461472	-0.03845946330997838	0	-0.1717812076848122	-0.06549646120344962	0.04671868857965029
0.28	-0.01459400586667378	0.04372258656905914	-0.01518761230421598	-0.01429329000000001	1.02170594	0.34917267	0.3158594776752767	-0.1162458361960017	-0.1043102998299444	-1.118835719398198	-0.01110230274212006	-0.150875303965909	0	0.1706221326087006	0.07940692156847562	-0.2392357853665337	-0.2606189067833609	0.1181591947528038	-0.03031650454469146	0	-0.1713341386298541	-0.06090914129553236	0.03948524811471395
0.29	-0.01264164794908753	0.04155406473931152	-0.01147205490911167	-0.01523666000000001	1.02274235	0.36030834	0.3337233941574025	-0.1145134314561843	-0.1035859442080695	-1.102948974026453	0.008288699342882046	-0.1528522947837779	0	0.1488145076733472	0.07930689098945728	-0.2383591515127516	-0.247666680697833	0.1263865220360004	-0.02142747110578501	0	-0.1735288770742676	-0.05657870680090528	0.03458349300488298
0.3	-0.01150734616030254	0.03859708109575646	-0.004947350225231063	-0.01601655000000002	1.02379197	0.37164261	0.3487373150309911	-0.1115860936762401	-0.1055160759025821	-1.079149470265645	0.02737380507480288	-0.1535753333801991	0	0.1291580921472639	0.07762181451749908	-0.237114474320015	-0.2374416952804301	0.1307705147512518	-0.009576886546673338	0	-0.1740856102275833	-0.05211582764692475	0.02759449270847253
0.3099999999999998	-0.01024435645205083	0.03593164604882049	-7.935872787213321e-05	-0.01692065000000001	1.02461035	0.38282588	0.3632008754719619	-0.1094180512644663	-0.1071928295974692	-1.051329548038458	0.04014994262316905	-0.1537980188922635	0	0.1086919415866932	0.07652421971148653	-0.2362371266265689	-0.2251434390041696	0.1372269662236597	0.0004916479056466647	0	-0.1755773204499825	-0.0470313679803365	0.02168004084343376
0.3199999999999998	-0.008131411043378401	0.03266665034039724	0.006300728395353688	-0.01780601000000001	1.02532278	0.39418257	0.3748804313779463	-0.1065034112784291	-0.1093126616519797	-1.019215157840139	0.05179689787312129	-0.1504844488245651	0	0.08751741947860346	0.07443544264942258	-0.23546676761627	-0.2130764718405213	0.1518525466262906	0.01180115945268907	0	-0.1773270067419216	-0.04157583037082324	0.01511146802361432
0.3299999999999998	-0.009416556982975168	0.03194777769577604	0.01094769970660455	-0.01847425999999999	1.02543756	0.40516942	0.390351827832158	-0.1057706133244295	-0.1102416812141945	-0.9836858339126201	0.05800987835833695	-0.1481326124215149	0	0.07182793156798441	0.07426252659724218	-0.2389448510229981	-0.2040551312742064	0.1579467635645604	0.01763504046173755	0	-0.1764524959066416	-0.03871764009238209	0.007396415296230287
0.3399999999999999	-0.001493247439948296	0.02801251671886504	0.01708475383854562	-0.01937211	1.02624202	0.4162886100000001	0.3917319158713119	-0.1028222642237522	-0.1157245813975889	-0.9411352635090298	0.07283397146289218	-0.1359057483147085	0	0.0457852960949946	0.07007472093268685	-0.2425712690901885	-0.1951345611319798	0.1664325428685838	0.0417715898158525	0	-0.1862049620524668	-0.0321061925613557	0.001894847071156629
0.3499999999999999	-0.004456138675092186	0.02863770947343642	0.02175550015258973	-0.02000030999999999	1.02577494	0.4271979	0.4064507813299351	-0.1032458591238697	-0.1163301523540339	-0.8983721849573091	0.07651120461672148	-0.1338812241527934	0	0.03216635667866583	0.07151625032109742	-0.2405408047001641	-0.1865614909307472	0.1742602476980049	0.04649461361096837	0	-0.1832257867720079	-0.03153155948576446	-0.002656466868824906
0.3599999999999999	-0.005514846996785602	0.02874093669650464	0.02641214383879796	-0.02062158	1.02530329	0.43811965	0.4171727728137883	-0.1033997821540641	-0.118467760586976	-0.8512426549474517	0.07990281219500095	-0.1292395560882324	0	0.0160692748719786	0.07235483111026407	-0.2380052045000337	-0.1775026437624058	0.1829603604154902	0.0521510976095149	0	-0.182740096198697	-0.02978040310299649	-0.007259819894849754
0.3699999999999999	-0.004990946386604355	0.02741478045323668	0.031243855715033	-0.02139452	1.02469585	0.44907586	0.4235384720520144	-0.1026850504522177	-0.1230260816748384	-0.7992136862287462	0.08315531947535743	-0.1235834892233771	0	-0.001618167529753751	0.07156253750005785	-0.23485773637005	-0.1690014462197703	0.1842120794881598	0.05814590652771059	0	-0.1840883066717279	-0.02659010476770177	-0.01121778838619772
0.3799999999999999	0.00299819339987818	0.02609346178945089	0.03928226441103268	-0.02218407	1.02485495	0.4600973	0.4182988534875886	-0.1025315911560056	-0.1314429995368231	-0.7407997905030441	0.08318422980721916	-0.1176799500294864	0	-0.02556002016982098	0.06943147652073875	-0.2320470954926843	-0.1634974347082768	0.1855044989408543	0.0657243479712179	0	-0.1951588180669899	-0.02259644673661148	-0.01580740602007522
0.3899999999999999	0.001772137994758242	0.0297990336310235	0.0423263322309074	-0.02261397000000001	1.0235929	0.47101339	0.4256714281098354	-0.1055636963385581	-0.1321395131428713	-0.6861063969122565	0.08314460437548067	-0.1145724944452693	0	-0.04128691659496266	0.07384685531739578	-0.2313333322740399	-0.1552015189525365	0.1956757271700982	0.06926683542360793	0	-0.1951489154178799	-0.02513693996729987	-0.02014435268720735
0.3999999999999999	0.001192065124531114	0.03391666413917498	0.04687183554317611	-0.0232127	1.02223498	0.48176226	0.4305510822898813	-0.1104063586141738	-0.1372776289430549	-0.628406514336348	0.07969411410062786	-0.1088412106964372	0	-0.05674076481074315	0.07847805768963008	-0.2275884862867188	-0.1480218665680869	0.2058976348738982	0.07420978850683346	0	-0.1966658810781543	-0.02854709847566587	-0.02300686824060081
0.4099999999999999	0.0009643756650478971	0.03700389597659505	0.0530572782893051	-0.02386090000000002	1.02081015	0.49277779	0.4316804279511132	-0.1146383282646545	-0.1460166321341306	-0.5656183709412732	0.07526619895301963	-0.1004153087521278	0	-0.07317548457548596	0.08151751158099807	-0.2220517098837105	-0.1409596360959872	0.2113442501857423	0.0796956185744431	0	-0.1981002535694342	-0.02976929425684048	-0.02721956177669081
0.4199999999999999	0.001553011054367541	0.04412990636169301	0.0563169047771708	-0.02429798999999999	1.01915742	0.50378005	0.4327585773457975	-0.1223920688329029	-0.155466983182699	-0.5037776622518839	0.06932040533793817	-0.09354350277713272	0	-0.09062400187459581	0.08907883326440549	-0.2201711146476269	-0.1333700470600144	0.2292957684082172	0.08365218923159315	0	-0.2013738995795591	-0.03661774126872564	-0.02896442677110411
0.4299999999999999	0.004170762308976166	0.04862809247886151	0.06131463536734934	-0.02499824	1.01743406	0.5149342	0.4299408652669674	-0.1287621205732176	-0.1741204438578604	-0.4400699951074557	0.05960213420641683	-0.08275507446263772	0	-0.110759159294639	0.09331216863502591	-0.2178501084386157	-0.1256936079970015	0.2240469231607006	0.08627296743334036	0	-0.2067726412081528	-0.03946340601725695	-0.03151807629369403
0.4399999999999997	0.002400781490323941	0.05657596834638509	0.06596246217174093	-0.02546714999999999	1.01526726	0.5261160500000001	0.4317868755821924	-0.1372280895175663	-0.1905476327014138	-0.3774773408059091	0.05220451026967953	-0.07123767255960006	0	-0.1262826852429493	0.1013900353458597	-0.2129808246559193	-0.118239880102393	0.2326286133685759	0.08891421031869887	0	-0.2070768150957952	-0.04666223974471888	-0.0336767119043983
0.45	-0.001829773015936986	0.06518889012125682	0.06758220904892935	-0.02560238000000001	1.01253376	0.53726934	0.4379681272033372	-0.1441066984369198	-0.2024192327700487	-0.3180603659618425	0.04775603060562673	-0.06003622359679366	0	-0.138295483844334	0.1101641657315928	-0.2102463808394384	-0.1132990315371796	0.2401935817429224	0.09147395016771362	0	-0.2047360336082272	-0.05578618909042309	-0.03291127105739863
0.4599999999999997	-0.003327004170592684	0.0721168308697161	0.07201967754983231	-0.02604796000000001	1.0101745	0.54863709	0.4396062572854765	-0.1506544786257614	-0.2288415183705847	-0.2582823395678048	0.03551242442797056	-0.03786805796934132	0	-0.1543717826193543	0.1166408167720987	-0.2081985921367259	-0.1060806942789254	0.2486754836234796	0.09745851714479276	0	-0.2057438722394621	-0.06159395543600568	-0.03469540020039528
0.47	-0.005809327846459965	0.08149558773166565	0.0720485836029177	-0.02582290000000001	1.00728034	0.55994762	0.4442672171723915	-0.1555250405130691	-0.2427468071505041	-0.2036756277543174	0.03597646663537137	-0.02020042679994835	0	-0.1686143747777117	0.1256993352949419	-0.2087553162143294	-0.1006260497543903	0.2584708799819819	0.1027273821914943	0	-0.2057951891082609	-0.07237877004628442	-0.03095339840162324
0.4799999999999998	-0.008106311305515274	0.08914390085082403	0.07481589354310873	-0.02573229000000002	1.00447173	0.57149102	0.4472821207389021	-0.1593078062218507	-0.2622186139656163	-0.1509167270867771	0.02884957590327539	0.007033090629441402	0	-0.1831221283516064	0.1320224924817165	-0.2095153877304183	-0.09575796274396203	0.2641530768692005	0.1124629130585216	0	-0.2058449559501511	-0.0804615500334955	-0.02981961750969616
0.49	-0.003560095897925877	0.09303623982526461	0.07982954962253576	-0.0260454	1.00218622	0.58302058	0.4447867121553195	-0.162097226513506	-0.3033242308193366	-0.1073129541521657	0.03049044423247814	0.06915995058755116	0	-0.2021822441102313	0.1324595196102903	-0.2171444084665826	-0.0960896822905241	0.273131366446054	0.131753708111718	0	-0.2142251929253783	-0.08183685133264282	-0.02978016783261333
0.4999999999999998	-0.007672919162875488	0.1008788885317038	0.08268270384435752	-0.02547410999999999	0.99898304	0.59452176	0.451691843796118	-0.1649518554476084	-0.3076019912771386	-0.06736758715567653	0.03009157279387974	0.08666725511372424	0	-0.2125408835256264	0.1379745745180929	-0.2180221003389572	-0.09534559135813239	0.2823103386926907	0.1386915309911368	0	-0.2131243189947671	-0.09096793279180238	-0.02964302352518304
0.51	-0.008041181068702715	0.1057055766365013	0.08741220459414256	-0.02513156999999999	0.9963657300000001	0.60633374	0.4543381551176244	-0.1664399163610747	-0.3182714397983933	-0.03394013776452739	0.02531485481699089	0.1137876418717961	0	-0.2246113952784526	0.138933184566979	-0.2212957809066013	-0.09955468201104749	0.2903483701832099	0.1501160674153344	0	-0.2156909150206825	-0.09566704819415979	-0.03005868642744903
0.5199999999999998	-0.0002913576920680658	0.105943030985288	0.09389001434719468	-0.02507313999999999	0.99443124	0.61841602	0.4528266244126407	-0.1660801320946735	-0.3396077602113283	-0.02109064751835841	0.0332897615881898	0.1353880600966221	0	-0.2452775937325575	0.1331154103289325	-0.2308606217143761	-0.1035720177023691	0.2995751127896054	0.172687981280381	0	-0.2270471713720152	-0.09252756477097103	-0.03254404523066569
0.53	-0.001844459984816717	0.1074663765635355	0.09659565319089959	-0.02474914	0.9917210200000001	0.63042951	0.4624615009199749	-0.1658616646943453	-0.339351545004471	-0.01680900178310864	0.03343632788105405	0.1353956081220382	0	-0.2552924374937631	0.1314078669316451	-0.2309975185341185	-0.1081405985337065	0.299482294783721	0.172633671171915	0	-0.2282559090938606	-0.09215735896907325	-0.03221960597601247
0.5399999999999998	0.0008823707339472795	0.1100275123091143	0.1015018671645578	-0.02468951999999999	0.98957994	0.6427234900000001	0.4695421503752698	-0.1700055189540782	-0.3483731435304492	-0.02713288436271365	0.03105912538625423	0.1271338407803108	0	-0.2700418711725045	0.1294971911204363	-0.2266723559810299	-0.1137591879435337	0.3083682752926998	0.1783885646876706	0	-0.2320928946775859	-0.09313396039548763	-0.02769930426791084
0.55	0.00552816408327399	0.1098746174636247	0.1075013600671384	-0.02441096000000001	0.98773316	0.65507665	0.4745128407545667	-0.1729318114563334	-0.3497984005161117	-0.04710046678715343	0.03218919466099402	0.1153573690098912	0	-0.28435681455874	0.1228910123893558	-0.2247818085284856	-0.1236392233459798	0.3124771765416347	0.1850238841340741	0	-0.239401538238398	-0.08960774569491148	-0.03111291730646532
0.5599999999999998	0.007564279397668195	0.1077487605914891	0.1117254030216404	-0.02408866000000001	0.98589813	0.66771937	0.479959887511802	-0.1733825533821693	-0.3441810928760872	-0.06908104617193069	0.02794718238599731	0.111192100258368	0	-0.2957339689589373	0.1154117768567953	-0.2187387847151707	-0.1334245128518497	0.3111006760267583	0.1885454482303254	0	-0.2427228809553873	-0.08412998917135571	-0.03087318132387233
0.5700000000000001	0.01038658603166959	0.1046864019472282	0.1176800987516683	-0.02372741	0.98425027	0.6808748	0.486095191245993	-0.1746878893185261	-0.3442550679583012	-0.1018896225797407	0.0305416905899752	0.09544309295506456	0	-0.3076185317624596	0.1052380018431068	-0.2177624082616969	-0.1441509627792771	0.3083420264134145	0.1933681118252401	0	-0.2456048553591442	-0.07749387734547185	-0.03141225767927731
0.5799999999999998	0.01322722866668137	0.1019478399812914	0.1216291279740551	-0.02334593000000001	0.98279614	0.6943440400000001	0.4895642724189722	-0.1745567779161883	-0.338311320392702	-0.1339686899319937	0.03018723865350468	0.08491798263935087	0	-0.319083259977738	0.09619931235496132	-0.2146799471886317	-0.1557499986183525	0.3064117479367118	0.1998531722111479	0	-0.2476984760589483	-0.07067706512441077	-0.03036299296011466
0.5900000000000001	0.0146828806927603	0.09925266985632011	0.1254337535372278	-0.02266242000000002	0.98148861	0.70808691	0.4921543204340466	-0.1736366136309993	-0.3337153160754926	-0.1645224349875136	0.02771032637120304	0.07765203175190472	0	-0.3279875847698199	0.08648292443370287	-0.2126473149251435	-0.1692648136113694	0.2976179813751634	0.2063934600505766	0	-0.2478574610675722	-0.06488127086483224	-0.02951031165592112
0.5999999999999999	0.01506980557044905	0.09431726231770884	0.1305110633752374	-0.02219109	0.98037957	0.7222883800000001	0.4928899664163196	-0.1703410358134938	-0.3246878673803945	-0.1946217797325525	0.02291822052443106	0.07493270789726679	0	-0.3359635898767171	0.07442213224494809	-0.2054558817427758	-0.1820336914627119	0.2870347851056799	0.2113515442657523	0	-0.2457429391773108	-0.05562194400849954	-0.02860423811191521
0.6100000000000001	0.01091897765127268	0.08635987481561931	0.1398574152317912	-0.02160058000000001	0.97897542	0.7369164	0.4980165057966405	-0.1648156743873923	-0.3264645827137946	-0.2227088970329211	-0.007864668110451519	0.0430693377587533	0	-0.3316675734494722	0.05463969434755985	-0.2145086673826251	-0.2093997038169376	0.2840210891324786	0.2481400539590137	0	-0.2361149061059736	-0.04412049319309463	-0.03011829553005702
0.6199999999999999	0.01177376866469318	0.08132650586376049	0.1467598135083903	-0.02133743000000002	0.97877837	0.7513155300000001	0.4974694122713165	-0.1622974316612059	-0.3260073834187921	-0.2424587187408468	-0.05011387704995608	0.03073647387235382	0	-0.3362242090728761	0.04087558647256475	-0.2070314082609095	-0.2274927635293602	0.2642705760996362	0.2569454016528138	0	-0.2340246985720547	-0.03382543175902659	-0.03116350829282825
0.6300000000000001	0.01423233458836901	0.07431088986646041	0.1511315323239231	-0.0206905	0.9788416600000001	0.7656014600000001	0.4991269477967441	-0.1572313421085937	-0.3167503980961838	-0.2710562528685722	-0.05991111350908881	0.02049391927256862	0	-0.3376837261736235	0.02461529404060163	-0.2020257744701254	-0.2535009376508023	0.2355528818124976	0.2598825214796167	0	-0.234068148892849	-0.02188394067862725	-0.02816019493428132
0.6399999999999999	0.0162570628450889	0.06616539757233898	0.1548353381038333	-0.01980488999999999	0.9794778900000001	0.78016726	0.4990535764239183	-0.1494553077516779	-0.3022643033601747	-0.2982298438944959	-0.07488899246095916	0.007705088293618548	0	-0.3358633046541609	0.007444522155468858	-0.1960565395123933	-0.2833236574832439	0.2052925828038398	0.2649225379075992	0	-0.2329742962472857	-0.009409754166568213	-0.02474123891928771
0.6500000000000001	0.0148100784749468	0.05246449189080209	0.1572234153338652	-0.01841846	0.9801009000000001	0.79472597	0.4988846494962763	-0.1307496322358175	-0.2739048014246265	-0.3183924797782826	-0.09902008993008964	-0.05081034126318646	0	-0.3240236449835021	-0.01618321520153655	-0.1952670099801235	-0.3224200254711955	0.1811575044132184	0.2848520201435339	0	-0.2268836996454832	0.008662545901599502	-0.01893715836001949
0.6599999999999999	0.02059956412597441	0.04758318586203453	0.1578145194552543	-0.01733385000000001	0.98165451	0.8095937400000001	0.4937911066126618	-0.1230228730615416	-0.2570503476026045	-0.3492087930391372	-0.1048175914707425	-0.05546108643612118	0	-0.3206740635373472	-0.02930434116210307	-0.187954953602492	-0.3603971097955857	0.1393378100070554	0.2830959906269614	0	-0.230697350875241	0.01759223695996409	-0.01580472781233803
0.6700000000000002	0.02157897843445797	0.03986349801667635	0.1574941192023138	-0.01610975000000001	0.98308872	0.8246883100000001	0.4908445082517573	-0.1103654285488194	-0.2372043680267377	-0.3727076125236086	-0.1073433312587308	-0.08207406182380816	0	-0.3088051051990681	-0.0436992073635775	-0.1803370593403092	-0.401322359437483	0.08453154178475103	0.2771730025310841	0	-0.2269883949659933	0.02940278034990943	-0.01297925390525844
0.6799999999999999	0.01950138534765143	0.03367515317861782	0.1574392637577584	-0.01472124	0.98430439	0.8389992000000001	0.4883484617503331	-0.0982377696548281	-0.2173694524420652	-0.3885229110970943	-0.1110899897704801	-0.1348150313276793	0	-0.2834863879684426	-0.05589431555370972	-0.1691482085131096	-0.4593252768991642	0.04070909689722313	0.2595702681138009	0	-0.2219626893652125	0.03770893944302965	-0.009253397449264898
0.6899999999999997	0.0203784404200734	0.02616511123100847	0.1578413031165173	-0.01347217000000001	0.98588937	0.8533537	0.4813423800910662	-0.08666746123710889	-0.2111699848195172	-0.4061455845048181	-0.09052365748537798	-0.1473072200383081	0	-0.260939153408085	-0.06831564476937212	-0.154210458345934	-0.5140445064243362	-0.02815924093731218	0.2447368088743478	0	-0.2195300511991121	0.04842915906862623	-0.006271668403044451
0.7	0.0134155080725157	0.01702281878749014	0.1615680423977716	-0.01247676	0.98671962	0.86686476	0.4799290992056652	-0.0759764266581983	-0.2120526763620671	-0.4160139876368655	-0.07749350332141314	-0.1554206612716865	0	-0.2200684055118055	-0.08045121838245541	-0.1326256339398428	-0.5849323518209177	-0.06926719408876922	0.2097239976856642	0	-0.2086484723935101	0.05994753469085357	-0.006095323651548523
0.7099999999999997	0.01837378232345484	0.01203761027558219	0.1603830202174008	-0.01120119999999999	0.9883664	0.88021689	0.4673477543644556	-0.06647682957398858	-0.2135856133557936	-0.4303178925137137	-0.05408605636113963	-0.1603545618556807	0	-0.195375608031374	-0.0886321139734295	-0.1179829082953049	-0.6490838959876351	-0.1088182690415514	0.1903544439518398	0	-0.2140518117429523	0.0681189534930552	-0.004060101319450318
0.72	0.01273823172395387	0.001177786484309274	0.1679677145795878	-0.01067148000000001	0.9895155	0.8932875	0.4615043080784415	-0.05684175601898177	-0.2270748032501999	-0.4356146746253997	-0.03082122234844168	-0.164140732352767	0	-0.1507139842303448	-0.1010891528001206	-0.09461459842364517	-0.7225141178251678	-0.1404669289500174	0.1465871176092874	0	-0.203529183110902	0.08185678805415542	-0.004661495528462385
0.7299999999999998	0.006423985240557331	-0.007044185901989963	0.1732687753385326	-0.01014407000000001	0.99045085	0.90563024	0.45892278163344	-0.05014363142304408	-0.2385177508036108	-0.4445374630811056	-0.01374712931203171	-0.1627408182459752	0	-0.1040517156876932	-0.1076431666069187	-0.07108863732397594	-0.7949683876733009	-0.1756020236656823	0.1054871221120219	0	-0.1949544265725461	0.09211664497548028	-0.005267257249394644
0.74	-0.0009525656133545963	-0.0140271927923331	0.1774055001132248	-0.009627479999999994	0.99148419	0.9174907600000001	0.4547934743439566	-0.04383397749962629	-0.2473384455265896	-0.4475623645917034	0.002759945171247622	-0.1584904596319625	0	-0.05551311417752436	-0.1096974929639434	-0.04734761361228331	-0.8640226947029593	-0.2034571449950918	0.05985525372277996	0	-0.1862323125835761	0.1002343338166593	-0.00343156060831858
0.7499999999999998	-0.007050814799666727	-0.02122441706793142	0.1806144263799566	-0.009023599999999993	0.9926636400000001	0.9292476900000001	0.4489724094621385	-0.03631538583963083	-0.2535677610718735	-0.4491956655223353	0.01914465339893916	-0.1584376875076334	0	-0.008804725134855942	-0.1117647262053195	-0.02790081474735836	-0.9281410587643329	-0.2231291208295884	0.00806465701185714	0	-0.1794183208145862	0.1082878859966177	-0.0002615175171249524
0.76	-0.01287246131689899	-0.02576940329394151	0.1799822197287688	-0.008259359999999993	0.99404431	0.94080938	0.4417712343754849	-0.0301149708523649	-0.2579028653694472	-0.4480231119665423	0.03076478730161137	-0.1547597015932977	0	0.03495395414845034	-0.1096576851452981	-0.01425089608587252	-0.9864510005853909	-0.2191148321340749	-0.04558922720308897	0	-0.1737870037657217	0.1128740173353143	0.006809077096349156
0.7699999999999998	-0.01400758648760417	-0.03041832108209967	0.1820627537709299	-0.007128930000000006	0.99622877	0.9529033100000001	0.4274511482020756	-0.02128992362729751	-0.256934980815449	-0.4443060303278961	0.04438652989125178	-0.1574650059161861	0	0.07230135736357562	-0.1099371619258931	-0.0003893182044046859	-1.037723391064505	-0.2042185244609221	-0.08765023170429738	0	-0.1724942715500253	0.1170608136759632	0.01061891129103288
0.78	-0.01532241761585173	-0.03443509298427728	0.1809131873543861	-0.005999100000000007	0.9983556	0.9646313900000001	0.4133469648421916	-0.013175145646245	-0.2575199197112074	-0.4390893240968245	0.05161145070597743	-0.1559742585919351	0	0.109470868767356	-0.110520445376856	0.005903655956417635	-1.084038225988674	-0.1864783289589494	-0.1264023589791001	0	-0.1715847427776993	0.1203094501651046	0.01901165756460794
0.7899999999999998	-0.01853769118478982	-0.0365160440301636	0.1793815872710326	-0.004842180000000001	1.00047698	0.97625012	0.3994715438817615	-0.007551131229503801	-0.2610252403771762	-0.4307624521342733	0.06068726160198361	-0.1517838668730271	0	0.1482401880588896	-0.1066018464519782	0.01376222990071997	-1.123433995610495	-0.1795172668460073	-0.1634580848640272	0	-0.1684322967941559	0.1206549808511036	0.02769779927049685
0.8	-0.01926382958557638	-0.03573475363550637	0.1771925399910538	-0.003392069999999997	1.00301313	0.9879530900000001	0.3813857159410946	-0.003184250769436562	-0.2612641159124479	-0.4203288187134469	0.0707558707543956	-0.1486708609672557	0	0.1815024769429225	-0.1036225126956232	0.01444883143288025	-1.153964189542154	-0.1633357852800168	-0.1841745559564395	0	-0.1684816147373625	0.1173758066851059	0.03496013907172063
0.8099999999999998	-0.02052917793911275	-0.035594270729052	0.1733643265620516	-0.002021780000000001	1.00542596	0.99954036	0.3633447593682987	0.001309643932549461	-0.2651756822076378	-0.4080898957777725	0.07785910075595398	-0.1425108925891413	0	0.2145367972032453	-0.09924476982989031	0.01647599261276227	-1.178998646393771	-0.1504848396037846	-0.2027182397849736	0	-0.1680183605461189	0.1150852779390918	0.04437959534906775
0.8200000000000001	-0.02003302672152066	-0.03491719166974581	0.1684497750621418	-0.0006860100000000147	1.00785287	1.01110194	0.3435127132794494	0.005717317275091862	-0.2668101240600017	-0.396118438441314	0.08598160688040139	-0.1339133643909688	0	0.2442321814786528	-0.09539908709596941	0.0155100317606656	-1.198350920844401	-0.1324607736293579	-0.216997793828098	0	-0.1695808550397938	0.1124527304585996	0.05378965425012337
0.8299999999999998	-0.0198311244897474	-0.03236387242717264	0.163475572814916	0.0005760099999999879	1.01032154	1.02264388	0.3226548349129088	0.008043711664569806	-0.2690222533141479	-0.3820018449177837	0.0923791362117949	-0.1283989065603034	0	0.272376724823801	-0.08888525652813876	0.01468573701502528	-1.210628974236438	-0.1238931867290363	-0.2229520788190563	0	-0.1705865474396475	0.1077347164565687	0.06390935948718382
0.8400000000000001	-0.02157676845508148	-0.03294240288835761	0.158395580755907	0.002189289999999983	1.01247287	1.03403685	0.3036946313999789	0.01390373002636445	-0.2713338420755812	-0.3660167003262719	0.1003523353528537	-0.1143032231284094	0	0.3026862073853129	-0.08760324168124714	0.01135340186534108	-1.218363522640633	-0.09953287551830722	-0.2339298446395978	0	-0.1694446415164536	0.1058387736677076	0.07063483059997347
0.8499999999999999	-0.02137570405293506	-0.02994856712370661	0.1515843759856613	0.003598080000000003	1.01485686	1.04596392	0.2823499084484261	0.01583169855980203	-0.2731819975749897	-0.3510726062363312	0.1060591152025866	-0.1086889198981593	0	0.3263723921537762	-0.08226374822117218	0.006266383371536487	-1.217018641383151	-0.08868623645900092	-0.2377288167776818	0	-0.1692524732608932	0.09994269767623142	0.0805548171125965
0.8600000000000001	-0.01738124554301376	-0.02859253188468421	0.1404200770229419	0.00532516999999999	1.01720133	1.05770116	0.2571381758866905	0.02090451094616001	-0.2711591068667215	-0.3361847864483967	0.1136478190075627	-0.08839189558183128	0	0.344087030450446	-0.08131908876353025	-0.004076843913898848	-1.210428998774068	-0.07284568209857428	-0.2480555171913641	0	-0.1741276770258794	0.0966786258442512	0.09330233998787622
0.8699999999999999	-0.01592975055927737	-0.02627298723155948	0.1329438327676063	0.006754280000000001	1.01922458	1.06926015	0.2339907067140758	0.02407112778149905	-0.2692757660531915	-0.3194463390767011	0.122497940330796	-0.0787959128642131	0	0.3649069398772412	-0.0765671736606415	-0.00943167986529639	-1.199706170230306	-0.06088821706672898	-0.2547923605204939	0	-0.1763244262641242	0.09239755973284604	0.1005864155960056
0.8800000000000001	-0.01438884041020675	-0.0236101734589725	0.1218481279074145	0.008395070000000004	1.02106972	1.08081153	0.2118432576212459	0.02653797195747763	-0.267946156252131	-0.3050515576982283	0.129790878546334	-0.06372801907976991	0	0.382822984806268	-0.07473671248372264	-0.02184914945985092	-1.182605923085989	-0.04745049571023355	-0.2591873987264494	0	-0.1785361174406281	0.08720347733220343	0.1120788107705865
0.8899999999999999	-0.01221133033588088	-0.0208005820453233	0.1121736636414222	0.009895639999999983	1.0227782	1.0923389	0.1892916590396266	0.02829210395208732	-0.2669856828897355	-0.290946593303504	0.135282774331226	-0.04856427879412421	0	0.3985513108306001	-0.07236591901246907	-0.03291711127814166	-1.160133853398796	-0.03162155930850573	-0.2601913546982303	0	-0.1815249587035505	0.08238810589743652	0.121529205801452
0.9000000000000001	-0.01527565172924682	-0.01797452126224232	0.1067633685906136	0.01123136999999999	1.02386961	1.10391636	0.1709637167561949	0.02949744962653148	-0.2684860111989152	-0.2741726215002134	0.143109791151856	-0.04435737399156429	0	0.4193420215971411	-0.06790383642675915	-0.04029109542829239	-1.132877510204383	-0.01865790253810774	-0.260965151134491	0	-0.1774251001800031	0.07673086163346782	0.125890906822431
0.9099999999999999	-0.01830056413500377	-0.01599772029815	0.09952532857733219	0.01267967	1.02462757	1.11520692	0.1539327125828911	0.03171097514407927	-0.2666042303606708	-0.2592250309921821	0.1494668243067472	-0.03690418854528731	0	0.4378726894582455	-0.0653332676824004	-0.04967355945214349	-1.099836554202244	-0.008301653700189123	-0.2606219447034569	0	-0.1745669846016539	0.07242120790157959	0.1303211626310991
0.9200000000000002	-0.02005922253456432	-0.0122944474607639	0.09152788876979884	0.01395610999999999	1.02540769	1.12684458	0.1345279312979774	0.03189860467091982	-0.2634161283477068	-0.2431339253673866	0.1562068717113178	-0.02809618358770102	0	0.4529053830932686	-0.06106233687249447	-0.06030224441245461	-1.062055809993925	0.009913494411404395	-0.2572656095312285	0	-0.1716919180365435	0.06618458239378962	0.1375608424735784
0.9299999999999999	-0.01425929800697404	-0.006909704743604072	0.07819051871218316	0.01547879999999999	1.0265054	1.13802162	0.1108534856140631	0.03008193875094165	-0.2531518794798522	-0.2342663041513425	0.1611379939056757	-0.008137266722997383	0	0.455254563628796	-0.0576868435701328	-0.07567448487213621	-1.016599098659623	0.02781305365844862	-0.2446181732600362	0	-0.1806315428108788	0.05869589695052707	0.1481171854562566
0.9399999999999997	-0.0162912722630702	-0.007178731264721574	0.07312546405297732	0.01646993999999999	1.02647189	1.14937802	0.09392083301303715	0.03300270100292899	-0.2565943609623663	-0.2213051503576248	0.1701405076053493	-0.004372134773780368	0	0.468139480393589	-0.0572254207528734	-0.08490890727630634	-0.9693971753594527	0.02585865961840538	-0.2403406648277782	0	-0.1778299088796509	0.05781209694936925	0.1515776558728381
0.95	-0.01762953429966273	-0.004862012999199743	0.06669793593550752	0.01746648000000001	1.02654666	1.16067696	0.07508170979710219	0.03369041396075694	-0.2515354448875127	-0.2064215602005995	0.1778737895986387	0.003913759126862022	0	0.4757004081561843	-0.05334719705318076	-0.09318419812720996	-0.9142051448665617	0.02765612010982753	-0.2313830216233112	0	-0.176901440317881	0.05400848328267256	0.1547160720271893
0.9599999999999997	-0.007543372085347646	0.001104825512131384	0.05510402066463115	0.01855845	1.02750386	1.17209642	0.04595040895462225	0.02977868465181498	-0.2449833638583283	-0.1964007610269204	0.1833130322906566	0.02120667892689317	0	0.4657804733053071	-0.04879297818719221	-0.1090179713598938	-0.8506439712347679	0.02881053847296189	-0.2161619490170668	0	-0.1907426254233027	0.04711205280632694	0.1611803183145695
0.97	-0.01053763158385057	-0.002793477541216973	0.05166431489103455	0.01928811999999999	1.02665333	1.18343485	0.03056587893354566	0.03599882395402355	-0.2485838637861266	-0.184798379217136	0.1928067788566807	0.02466156586066465	0	0.473834714715787	-0.04997182121147776	-0.1135433566885077	-0.7902017826576969	0.03189837009866835	-0.2091602861824002	0	-0.1867702637252123	0.05035987038698331	0.1642586270748113
0.9799999999999998	-0.001788464034308499	-0.001176986904130185	0.04500444926779302	0.02012148999999999	1.02682973	1.19478842	0.001987926701895963	0.03656076377356381	-0.2491005772378258	-0.1723792239835899	0.1978217873344761	0.03795129708469205	0	0.4629568173331763	-0.04839864565184655	-0.1269795171970531	-0.7196406428258023	0.0311089208515441	-0.1853262149540265	0	-0.1984508380308152	0.04818656894910746	0.1665500621703059
0.99	-0.005039257986162024	-0.007756068972203597	0.04011237017950216	0.02066746	1.02529074	1.20632173	-0.01344982521485802	0.04553542097117801	-0.247152862398297	-0.1602850626703333	0.2094869758645909	0.04261111709707253	0	0.467101826826341	-0.05271521751982382	-0.1330064862501777	-0.6536602082784929	0.01911962049054365	-0.1794715877397583	0	-0.1940204757570627	0.05513420092798836	0.1691121292413453
0.9999999999999998	-0.001388748898230548	-0.009605415163220265	0.03291085555826951	0.02147299999999999	1.02436112	1.2177904	-0.03621746169848674	0.04941450581632358	-0.2438129033013743	-0.1488817826110958	0.2135672776248038	0.04970897008827135	0	0.459435222868196	-0.05453532173842842	-0.149367208767025	-0.5791618547125834	0.002174673092135001	-0.1669936517368672	0	-0.1992197044355378	0.05676616144575478	0.1700082976927803
1.01	-0.004908935523076188	-0.02044945485576729	0.02921807904372153	0.02182187999999999	1.02199867	1.22939259	-0.0466211246744638	0.06134838394505866	-0.2482865143103923	-0.1467266490035357	0.2225828320755824	0.04958626541334159	0	0.4642808045560516	-0.0625555129969325	-0.1571623591916391	-0.513454223854007	0.002116574397461689	-0.1635880542974354	0	-0.1949904002518907	0.06928388083268168	0.1693582089721705
1.02	0.0007195952083147336	-0.02439574834528148	0.02312433067007224	0.02261652	1.02076108	1.24106325	-0.07578680309268736	0.06831469286679807	-0.2388748469138981	-0.1270299369666164	0.229802993202905	0.05782030366204505	0	0.4526649634652076	-0.06599274522718836	-0.1782243759798819	-0.4365184905860182	-0.02710537727557051	-0.1423194510886815	0	-0.2022231331603483	0.0730190852721489	0.1728709746891295
1.03	-0.001392622675505811	-0.03487603434058405	0.02136104587530617	0.02291672	1.01821259	1.25269927	-0.09051774448440512	0.08064561612160225	-0.2379176104391334	-0.1200608013096205	0.2401337644225347	0.05906816992039093	0	0.4540979362024274	-0.07210074764855508	-0.1874336445243394	-0.3703238013395961	-0.02518310479867975	-0.1319310429884986	0	-0.1992464095438896	0.08429631590747812	0.1749465013860453
1.04	0.0006597483968594842	-0.04091701623186449	0.0160617712577397	0.02373584000000001	1.01610262	1.2643345	-0.1106695593268294	0.08827736236392643	-0.2331257662172163	-0.1111109860813816	0.2468108387768971	0.05976713606310403	0	0.4500483126180755	-0.0774377613448288	-0.2201495221322529	-0.3032290838460983	-0.03201848051619795	-0.1016150805430728	0	-0.2027235904408614	0.09013714961013485	0.1743539324343959
1.05	-0.002006580648195108	-0.04887553769442996	0.01400065299675147	0.02405915	1.01327399	1.27576291	-0.1232292249098012	0.09748066258047378	-0.2306191273125618	-0.1068917433718064	0.2569245201845772	0.05917144419382409	0	0.4530589369863262	-0.08086401493049084	-0.2440352086807276	-0.2400199776819509	-0.03347991538472751	-0.07112333900736163	0	-0.2004398204823757	0.09878820356580752	0.1730318289453823
1.06	-0.003905596484282595	-0.05823315048021021	0.009536633692270143	0.02439317999999999	1.01037942	1.28721989	-0.1346414199363249	0.1070835267822667	-0.2251118345820745	-0.1069608084937688	0.2692029308455119	0.05961011769148129	0	0.4552499639880853	-0.08643334120045004	-0.2730765069079394	-0.1848269150013403	-0.03542575591517257	-0.03360137546536767	0	-0.1995871808915513	0.1090176322424202	0.1746797098329866
1.07	-0.007811238854825912	-0.06558255828817618	0.008259001888467583	0.02439426	1.0071389	1.29868431	-0.1424196794135041	0.1145657490967762	-0.2238942656687469	-0.1099461449610202	0.2814325942859056	0.05759139657479606	0	0.4603504735279419	-0.08754494942955979	-0.296272257123652	-0.1335350820779574	-0.04232919842632102	0.006855877576642607	0	-0.1959547417875074	0.117211037306275	0.1721847410723756
1.08	-0.009820402880074275	-0.07243538531604871	0.006038755479352716	0.02439671999999998	1.00406061	1.31008247	-0.1514001572841737	0.1210657652090444	-0.2228228734907945	-0.1146713704889874	0.2946236355183132	0.05829360327033135	0	0.4637784007098237	-0.08852473206760178	-0.317869637602915	-0.08741789452146943	-0.04824031357089582	0.0487899673196996	0	-0.1952872172276701	0.1244881066391881	0.1710868006911711
1.09	-0.01347548356863093	-0.07894240017311274	0.004434883329020458	0.02379956	1.00078748	1.32163646	-0.1577915889587595	0.1263748560807472	-0.222308617811748	-0.1210560262718183	0.3059417702135909	0.05808458438444176	0	0.4688486643918749	-0.08776778416727525	-0.3247008367475332	-0.0470163377284171	-0.04522232653119567	0.07023552963584616	0	-0.1921308007946115	0.1325083050535421	0.1714056486090327
1.1	-0.01403550823476314	-0.08238794858505123	0.004187801841606733	0.02346381	0.99789191	1.33302751	-0.1649037496355674	0.1285680888296149	-0.2251584783318011	-0.1327843039165367	0.3230056157238307	0.05621645952586365	0	0.4744087528086363	-0.08572174271367684	-0.334600281258459	-0.02019809818166034	-0.04803459178649617	0.09429345766674528	0	-0.193527390572777	0.1364229234059949	0.1673152366800617
1.11	-0.01440120695055245	-0.08477103753972083	0.00428412445772288	0.02315223	0.99522572	1.3447529	-0.1749197311769123	0.1304441254402253	-0.2257063762793773	-0.139148157120013	0.3243984099344719	0.0562974201138759	0	0.4842323144179427	-0.08451236428146304	-0.3384708665246803	-0.01121594008251986	-0.04531647185997627	0.09471445359707367	0	-0.1943081379573167	0.1378494618123942	0.1659763071698613
1.12	-0.01034064928010465	-0.08728259000319881	0.002397111757590892	0.02298171999999998	0.99302521	1.35637943	-0.1861239761571804	0.1309580315298226	-0.2276450417612675	-0.1530994819260135	0.3406542711499972	0.0572835033905176	0	0.4884030142850322	-0.08523669145447102	-0.3418098628979877	-0.009265931531288095	-0.03653909079851132	0.09996629627304762	0	-0.2015677133315383	0.1404456214469103	0.1632356854114272
1.13	-0.01115923181393708	-0.08815758461786093	0.001051723564361793	0.02274916999999999	0.9907974900000001	1.36844211	-0.1960007984084736	0.130605605047949	-0.2273670094151614	-0.1590910544801772	0.3406948413284598	0.05735413669081288	0	0.4944395554219064	-0.08388068651553376	-0.3420692121925829	-0.009285511507501596	-0.03706364165121659	0.09970455675004182	0	-0.2006021436077269	0.1403379227638234	0.1628541946596518
1.14	-0.005336860727867808	-0.08567686126861992	0.002233781583883931	0.02263078999999998	0.98906582	1.38019212	-0.2087546926081877	0.1267236786322483	-0.2297172364501082	-0.1734269861487995	0.3498270776719854	0.0568343820028921	0	0.5009219578458963	-0.08204117790083842	-0.3462500084403293	-0.03161604633699745	-0.03522544325519071	0.09470233437981368	0	-0.2105322909036563	0.1355378384934418	0.1584709931021504
1.15	-0.004234660402204681	-0.08308947118411866	0.001530725365148299	0.02232038	0.98730289	1.3924575	-0.2189498332444474	0.1224642954442724	-0.2263970699105019	-0.1828740558038413	0.3495857848556996	0.05832050141209847	0	0.5044364509152162	-0.07929168812447486	-0.3399774776701014	-0.04655896267875892	-0.03898072282078022	0.09456929334145484	0	-0.2123517414964561	0.1302577726217326	0.1590306247237549
1.16	0.000962157304457136	-0.07896014231871967	-0.000364568754872737	0.02204093999999998	0.98593609	1.40514803	-0.2317237585879867	0.114896221081989	-0.2288135964186783	-0.1973601735781965	0.3522737837154557	0.06013459209876532	0	0.5051339207871616	-0.07728374738298044	-0.3374324343660531	-0.07336306750203549	-0.03584740058438392	0.08722884516928239	0	-0.2190658869931966	0.1237107921427542	0.1577805389301993
1.17	0.001603722723450399	-0.07466571509078308	-0.001976653492234084	0.02173890000000001	0.9845926700000001	1.41812186	-0.2411636825160048	0.1082066950251441	-0.2225938234610798	-0.2081550034113219	0.347773987182604	0.06268127950296903	0	0.5053629898409651	-0.07363061565532485	-0.3259735824998333	-0.09407909580441656	-0.03861656458474059	0.08855823645512061	0	-0.2188028184019654	0.1157373786752633	0.1598480730663384
1.18	0.004551306491830122	-0.06894550905602793	-0.005676455827525093	0.02142892999999998	0.9835863500000001	1.43127915	-0.249233526471866	0.09753053466571782	-0.221592209895688	-0.227046875538707	0.3396415633992151	0.06583190790062933	0	0.5053801631826731	-0.07086016953609968	-0.323872474861137	-0.1256635310870677	-0.03293144968154557	0.08264070233862283	0	-0.2219344820519735	0.1065673220940445	0.1610124654625492
1.19	0.004467006829563818	-0.06376114140972824	-0.008405656473466805	0.02110101	0.9826652	1.44496573	-0.2573997656604465	0.08903066706397235	-0.2133917557960502	-0.2398323879486173	0.3328140310168224	0.06966508500139384	0	0.5042011018176981	-0.06683803226947289	-0.3118075284396965	-0.151244839735907	-0.03428887514396103	0.08301613138737306	0	-0.2191822091735847	0.09725023234438657	0.1632169140462561
1.2	0.004457465262706214	-0.05788788862655211	-0.01463846672234537	0.02076571999999999	0.98186266	1.45910133	-0.2603521677647128	0.07642705880282433	-0.2118780205656883	-0.2635173588405859	0.3142462681023291	0.0776623778891776	0	0.5035574121722578	-0.06457591050236426	-0.311539299433466	-0.1837681474879993	-0.02458126675243889	0.07332493101068185	0	-0.2164416813138643	0.08797647545486423	0.1660414686884187
1.21	0.002116346388587622	-0.05364665365960018	-0.0207979954113173	0.02082893999999999	0.98132022	1.47329774	-0.261605063712897	0.06659636263660161	-0.2073074518043329	-0.2843688044471024	0.2959488891520937	0.08604008483512116	0	0.5046565882465727	-0.06358166170281712	-0.3111069147061696	-0.2130460041513679	-0.02781238764080607	0.06233925431077271	0	-0.2107554352627811	0.07914667831623755	0.1688255592681372
