inDegrees=no
nColumns=32
nRows=106
DataType=double
version=3
OpenSimVersion=4.5
endheader
time	pelvis_tilt	pelvis_list	pelvis_rotation	pelvis_tz	pelvis_ty	pelvis_tx	hip_flexion_r	hip_adduction_r	hip_rotation_r	knee_angle_r	ankle_angle_r	subtalar_angle_r	mtp_angle_r	hip_flexion_l	hip_adduction_l	hip_rotation_l	knee_angle_l	ankle_angle_l	subtalar_angle_l	mtp_angle_l	lumbar_extension	lumbar_bending	lumbar_rotation	arm_flex_r	arm_add_r	arm_rot_r	elbow_flex_r	arm_flex_l	arm_add_l	arm_rot_l	elbow_flex_l
0	-0.1049186089380967	0.08448760914386035	0.008886180511250161	0	0.79586775	-0	0.6012310371331017	-0.02342666268627212	-0.1376002575931421	-0.1441704375121368	0.1194621059032308	0.1331665832080681	0	-0.3650064744336861	0.2035524761005662	-0.079993211523608	0.1041697057047146	0.2339768955746389	0.1399885767880795	0	0.03681337068672563	-0.04305446929885556	-0.07007285796824327	-0.2143159310223932	-0.08372502112314717	-0.5127039144880233	0.4503382013348562	0.009110638417630948	-0.1913127084255339	-0.3482376583330059	1.046994401154851
0.01000000000000001	-0.1032841062112326	0.08313748567080675	0.008607312156084554	-0.0003548699999999516	0.79477283	0.01495562	0.5995401916498339	-0.02228051037700812	-0.1467237772387844	-0.1733908079168666	0.07252311732753769	0.1068627277965908	0	-0.3703088033762679	0.199550345717688	-0.08614499046780616	0.07743071387984217	0.2254163737671294	0.1539243880604908	0	0.03854087995252418	-0.03859743752146798	-0.06299830721695367	-0.217018697811082	-0.08524494982889269	-0.5149986311515776	0.4477373425758621	0.008253410879801823	-0.1837758543383773	-0.3481944605613544	1.031122209211073
0.01999999999999991	-0.111650013815134	0.06986993502602215	0.007827027822709057	-6.59499999999813e-05	0.79434319	0.02974728	0.6023832488764627	-0.00667258030607136	-0.130411303476444	-0.1772771042879485	0.005527995826074431	0.04421790316024109	0	-0.3600939558783581	0.1827881515707227	-0.09848783536859901	0.04558346447496472	0.2146997852990416	0.1696805170052741	0	0.05188917308160838	-0.02082454955914452	-0.05701760021004824	-0.2183071630458232	-0.08830460433555617	-0.517593422971559	0.4424855997327213	0.004279307517650871	-0.1741040375883587	-0.3519318402046683	1.010597602861464
0.02999999999999992	-0.1185776203007676	0.05763160704210549	0.006862124559480988	0.0008818800000000016	0.79452337	0.044326	0.6045392930222936	0.008996214631870199	-0.1044694928818151	-0.1901149744810236	-0.04716687883411984	-0.03076815282000799	0	-0.344476824082539	0.1653599261676282	-0.1115253495860195	0.001584514091116796	0.2031220330520626	0.1757499794151641	0	0.06306406843064201	-0.005973256196328666	-0.05131915657642159	-0.2162530995353839	-0.08941802718348922	-0.5193538069100821	0.4330074773541611	-0.0002707380915632384	-0.1641864732436716	-0.3595751670556454	0.9877611033650008
0.03999999999999992	-0.1209503206534603	0.04788712868696521	0.005818086554040753	0.001310730000000038	0.79544411	0.05897587	0.6068209038339617	0.01776904073305329	-0.09981229191051015	-0.2233662861167261	-0.06946756225022128	-0.07776647543441893	0	-0.3316708537958014	0.1503507054657152	-0.1206545331741504	-0.04547415712190621	0.1829161302815862	0.1819862103040102	0	0.06869779316120961	0.007207219336386073	-0.0477921941767939	-0.2117324644693951	-0.09138939350331056	-0.5197824885723047	0.424370974906594	-0.007746537070826611	-0.1524712560722788	-0.3665681393723675	0.9690471230489607
0.04999999999999993	-0.1174589464759356	0.03636161840147854	0.004289779523172528	0.001464750000000015	0.79740968	0.07371265	0.6020150255940622	0.02542314150150285	-0.115926216493545	-0.2561554069902983	-0.06829889554267242	-0.08730187393397604	0	-0.3221573432958606	0.1337775334438007	-0.1279016285715556	-0.09563118289976179	0.1518833485459957	0.1773908494896961	0	0.06666290156900466	0.02314468764138576	-0.04389645976324892	-0.2086638642776505	-0.09440609318815445	-0.5195021110272827	0.423084830959758	-0.01910610902413934	-0.1429838394663858	-0.3674113587230872	0.958381864714174
0.05999999999999994	-0.114172510512849	0.02592066172291647	-0.002477502566637954	0.002209320000000015	0.79966486	0.08855607	0.5951176906880982	0.03637559847709416	-0.1153256113478877	-0.2831828546166356	-0.0663844817598046	-0.08923406040461691	0	-0.3083939686336843	0.1185274504983283	-0.1417636061334221	-0.1508956817321236	0.1105727436442932	0.1729089286190434	0	0.06538259225785807	0.03785019347724961	-0.036603836230575	-0.2047950006042034	-0.09670990196991404	-0.5182434244257061	0.4204831779014213	-0.03117269012095714	-0.1332236160301672	-0.3717682199460505	0.9424113250378429
0.06999999999999995	-0.109420449477657	0.01647159707900918	-0.009795830644543327	0.003399170000000007	0.80226666	0.10359948	0.5856155412343903	0.04897114855308572	-0.1042619367563716	-0.3098154314480859	-0.05118683182118777	-0.0888987826553088	0	-0.293026226062018	0.102765105563414	-0.1557439037540716	-0.2094845477625356	0.05955548417350489	0.1734265939733166	0	0.0631584914413066	0.05061120896937771	-0.03031664905795352	-0.1997944143056161	-0.09813629952824272	-0.5164418236642324	0.4187625134678831	-0.0449200108956078	-0.124283484935816	-0.3775947077403874	0.9239528979252747
0.07999999999999996	-0.1066241965205652	0.007803736947592492	-0.01448118581972358	0.005126630000000021	0.80484795	0.11853782	0.5761763337640302	0.06219581948765238	-0.0924299804454323	-0.3359926785812284	-0.0234584199992097	-0.08567987540651416	0	-0.2712787483142811	0.08340671582815007	-0.1701472801809787	-0.2734565301868797	-0.001582651126673218	0.1961146291313545	0	0.06371664354730418	0.06022956942600034	-0.02803744400812638	-0.1941013667064378	-0.0982267398720872	-0.5114831549382902	0.4145206479750766	-0.05526938156547722	-0.1152044441334961	-0.3959634563453295	0.8943072246412214
0.08999999999999997	-0.09770106741427753	0.001356503094175829	-0.01937905488174627	0.006463270000000021	0.80767051	0.13239714	0.5616349995317282	0.07164068653717806	-0.08981818946760239	-0.3617889716513406	-0.002750413055537855	-0.0885819401207578	0	-0.2481880508625094	0.06628415307855004	-0.1790855624480533	-0.3506151418258153	-0.05424561575762035	0.1939525423065874	0	0.05284048363996381	0.06783581256822852	-0.02226375224912925	-0.1873644919613815	-0.09728092710087556	-0.5090905930224741	0.4173405019219648	-0.06620155641889697	-0.1086995983461218	-0.4007559864816426	0.8820129541733737
0.09999999999999998	-0.09899111360961192	-0.01202775512085471	-0.01162212796910155	0.007379090000000033	0.81001468	0.14628976	0.5490528696414212	0.083495587120997	-0.09453977022449273	-0.3730172021679201	0.02418821144903984	-0.0941000364393149	0	-0.2067567691839351	0.03648825232446046	-0.1803931933178436	-0.4409319699408503	-0.08443911857234336	0.1965706018089587	0	0.05651200310942086	0.08101820778858754	-0.03219561886890476	-0.1836998316358848	-0.09633070510437458	-0.5050948583986398	0.4235566273159596	-0.07796305012274181	-0.1015880314303254	-0.4147717265034124	0.8552789548628266
0.11	-0.1064776569786915	-0.02497246722289505	-0.00381862839351195	0.008468500000000045	0.81153166	0.1589248	0.5406671319119905	0.09581365340786636	-0.09972241984587013	-0.3750887280465914	0.03635016204857559	-0.09425918987221163	0	-0.1495361665869948	0.006066158327083071	-0.1812614419117673	-0.5424614651224589	-0.1140334894738307	0.1895114788955921	0	0.06392376211870419	0.09264425731022645	-0.0384385080143143	-0.1799211105531117	-0.09328214111790996	-0.5016787107929456	0.4311162495722743	-0.08684382728162168	-0.09520573917236762	-0.4274216112970124	0.835464906434691
0.12	-0.1075319371579602	-0.03416709589472213	-0.003687543563405519	0.009373520000000024	0.81358439	0.17141973	0.5217099317616374	0.1056794734526208	-0.1094839023626111	-0.3694657048023324	0.05384128143846321	-0.09245649496382982	0	-0.102919540324145	-0.01557458887170299	-0.182055752948056	-0.6294272732909695	-0.1626565012152784	0.1613206813582063	0	0.06245530893218652	0.1022858329148286	-0.03609428910078451	-0.1733685987766679	-0.09252890727823168	-0.5008618509753858	0.4390003908447891	-0.0978205823819934	-0.08915778567658041	-0.4297676640279873	0.8213468040740222
0.13	-0.1176775762884073	-0.04484385657385467	-0.005299781753000853	0.01011245000000005	0.8148347	0.18334028	0.5072937203579441	0.1175485845072095	-0.1185738512982231	-0.3514037702445923	0.05665012829189076	-0.0805966463715815	0	-0.04242635741512103	-0.03694932380694144	-0.1788266629248064	-0.7179146432698068	-0.2091641585444116	0.1207405918689078	0	0.07104356716310291	0.1146376529967669	-0.03027620192520318	-0.1714294622304127	-0.09233394911386202	-0.5020306888997342	0.4504873812582754	-0.1058895414559238	-0.08184648223398824	-0.433269025240015	0.8010439955620201
0.14	-0.1190046621360998	-0.0533777006411161	-0.006379232919731117	0.01096533000000005	0.81629753	0.1950204	0.4852131658956186	0.1281103894977818	-0.1260073911439067	-0.3368932768528379	0.07223101937298977	-0.07643609699035579	0	0.006393622586395854	-0.05667191157175198	-0.1757711176213338	-0.796706748000125	-0.238823698818438	0.08895373033255057	0	0.06805064252786262	0.1236941870802507	-0.02507545777733864	-0.1646596300840251	-0.09181919880850546	-0.5022869927693177	0.4597661130342976	-0.1151159210338349	-0.07630272625930122	-0.4344759022663449	0.7871010511289559
0.15	-0.1319337068462749	-0.05748627261396562	-0.007624339528428115	0.01084431000000002	0.81723451	0.2069068	0.4713662021795765	0.1332060985095308	-0.1299677999546148	-0.3151941749195772	0.0769695779947118	-0.06654984071085679	0	0.06628075719142443	-0.0663606512087308	-0.1678688327785799	-0.8681593269647804	-0.2539028173388995	0.03413422570773202	0	0.08051718048354063	0.1297976959769252	-0.01363163022891881	-0.1674553035413245	-0.09273824451217683	-0.5036062536405785	0.4777363554980537	-0.1188247790301116	-0.06758234800027227	-0.4368736265170226	0.7613038846960862
0.16	-0.1385448709708529	-0.05982971558295379	-0.008337373565601365	0.01090960000000002	0.81832001	0.21840184	0.4575405232773613	0.1358580936702792	-0.1361175471610307	-0.3062128051856599	0.09246821519882281	-0.05639302628324043	0	0.1194103485133287	-0.07394726690178982	-0.1594790362859736	-0.9376397056912978	-0.2293628532796102	-0.003918758447971435	0	0.08431797491989658	0.13306788675873	-0.004207173059665946	-0.1657673490214297	-0.09221060913908451	-0.5039296970103606	0.4920449485038057	-0.125555792261408	-0.06063154563080512	-0.4388092380217876	0.7429894032645105
0.17	-0.1350283367747247	-0.05907526958966846	-0.00802082876146985	0.01100389000000002	0.8202573	0.22966644	0.4361950041066036	0.1360602979181043	-0.1335226589988747	-0.3030595795635397	0.1063224279653801	-0.0528298458581729	0	0.161911714420114	-0.07817445766624567	-0.152870543248305	-1.000178367883368	-0.1982525803214946	-0.02531266565051011	0	0.07549924124886537	0.1318747102179625	0.002501924595811966	-0.1566325044578699	-0.09162526078908358	-0.5025008547693486	0.5001109239373799	-0.1326240992718315	-0.0561367630798286	-0.4386773258623888	0.7307190682420246
0.18	-0.1470921792215499	-0.05972488573406506	-0.00884348141012771	0.01083435000000005	0.82096461	0.24118341	0.432229414286011	0.1375062298995531	-0.1291455954152867	-0.3018689737182274	0.1234805083397912	-0.05152444325023871	0	0.2204533481757754	-0.08310287180773623	-0.1450851045337807	-1.057094356420629	-0.1623377999050741	-0.03648234211601443	0	0.08681651287882799	0.1334352576223238	0.01489699498381225	-0.1601768004204309	-0.09319889589390686	-0.4979141931996252	0.5181664006023546	-0.1365939134873457	-0.04914434787220371	-0.4400614330457442	0.7052568973387228
0.1900000000000001	-0.1427240232932766	-0.0575239057709146	-0.008261498681929807	0.01104749000000005	0.82279839	0.25240277	0.413774022650078	0.1375424193015932	-0.1157760288170158	-0.3058423124516331	0.1361019194829083	-0.05543084127644753	0	0.2616077581521962	-0.08622795137767413	-0.1395937600983994	-1.105834567894012	-0.1387601733943544	-0.05638295992224662	0	0.07736834104836364	0.1298643699978124	0.02116679152123394	-0.1508606374406058	-0.0927777311902398	-0.4949543753659002	0.5255816179815509	-0.1446031442526802	-0.04673730845024226	-0.4408902146838256	0.6937750601843859
0.2000000000000001	-0.1520209575725211	-0.05679640944678492	-0.008696478924436032	0.01093645000000004	0.82343168	0.26380722	0.4074992377871212	0.1397138459067865	-0.1014568711587685	-0.3050961016423319	0.1474945313916259	-0.07626433739333777	0	0.3167598403274371	-0.08867855177430439	-0.1325319678784748	-1.149209380508833	-0.1111333489850874	-0.07563228542881685	0	0.08578295437760401	0.1293775484511462	0.03221657137204203	-0.1530583830873204	-0.09496323265412002	-0.4862691839917889	0.542295442771758	-0.1482740771169756	-0.04119010719561181	-0.4454077783193967	0.6689320326159245
0.2099999999999999	-0.1477422536883466	-0.05377735118860538	-0.007999473960048986	0.01117610000000002	0.82517396	0.275342	0.3865565936657331	0.1396013212137849	-0.0874413763557587	-0.3044982775043048	0.1605040946846745	-0.0814095816417852	0	0.3547990538353424	-0.08913181849343629	-0.1274652208603334	-1.181636546624546	-0.09136666634938986	-0.08674597103378549	0	0.07794697651299556	0.1246305317893361	0.03721910615620628	-0.1440622904539649	-0.09490027234481528	-0.4826135454477287	0.5494254449023115	-0.1591398596456495	-0.03934706149665437	-0.4478629645686365	0.6589549384065774
0.2199999999999999	-0.1464171374097826	-0.0501137662731883	-0.007387171098778728	0.01106122000000004	0.82666721	0.28700435	0.3653980669766391	0.1385179056371484	-0.07440537743319479	-0.2972650503186031	0.1722948305074719	-0.08998970262413003	0	0.3935523855618618	-0.086346362542644	-0.1211094555126108	-1.205889831453016	-0.06269174886048712	-0.09602834059956766	0	0.07468489994141625	0.1197926648058403	0.04246709374892842	-0.1372786899287072	-0.09615602382618872	-0.4781625308674703	0.5576574112706599	-0.1696491078855223	-0.03567787273988044	-0.4511149847275988	0.6466712530115772
0.2299999999999999	-0.1493436209054081	-0.04966161614704095	-0.007469067959103797	0.01133001	0.82759987	0.29841754	0.3472336390057731	0.1416167052609403	-0.06207967445818332	-0.2857876988349767	0.1742255987235626	-0.1111080729523271	0	0.4373665771364229	-0.08940045503404721	-0.1168157338442665	-1.226889757454987	-0.03202484922263848	-0.08855708628314357	0	0.07575824060494554	0.1180726464931913	0.05047164162134689	-0.136525754365798	-0.09884833766345448	-0.4647772659052424	0.5722292282019465	-0.1738647241499777	-0.03197135959345383	-0.4638681743378939	0.6261255128191218
0.2399999999999999	-0.147238704964522	-0.04381691784122398	-0.00649640184344628	0.01129456000000001	0.82909468	0.31026451	0.3218333005800134	0.1371723339274137	-0.05675844098180857	-0.2717639234918637	0.1826128520969158	-0.1122648433211615	0	0.4705689525324263	-0.08442150348780177	-0.1141238350462968	-1.234114300754996	-0.01041275998110431	-0.09686778637391161	0	0.072457433955534	0.1106601361196649	0.05296453553454319	-0.1284494544370338	-0.09858230096529737	-0.4612171825669326	0.5778527328080133	-0.1876247531905109	-0.02935241695448095	-0.4683965234101106	0.616462882609621
0.2499999999999999	-0.1462493472785732	-0.03839619413231865	-0.005654346676664149	0.01132421	0.83030691	0.32204016	0.2960692049948762	0.1330532410028448	-0.05299380400796742	-0.2549273083310605	0.192503240268886	-0.1131443672656519	0	0.5025294195260185	-0.07985945280586072	-0.1123849607200081	-1.233624397305936	0.01305533943960403	-0.1006306169319769	0	0.07041402934536951	0.1034755018673985	0.05585142146934808	-0.121718465291281	-0.09883116205281856	-0.4575621039244963	0.5841423472100256	-0.1998180130769652	-0.02724116581123785	-0.4739651696997932	0.6056768759394632
0.2599999999999999	-0.1447664778772438	-0.03273934851704647	-0.004772057636224179	0.01139986000000004	0.83135859	0.33390037	0.2697181024733499	0.1282471089920721	-0.05082347312047847	-0.2385140583850453	0.2019333594607652	-0.1123481943121173	0	0.5323834109462667	-0.07524680817049705	-0.1117201389770505	-1.226287069084335	0.03490811220298208	-0.09976684039519557	0	0.06820647878798299	0.09583849799523557	0.05812108602588506	-0.1154540277873276	-0.09858479067747533	-0.453614932388967	0.5914175095961979	-0.2113782547846248	-0.02523702028820188	-0.4807185220983177	0.5929337554826887
0.2699999999999999	-0.1400896013320596	-0.02588354112212315	-0.003649496071386267	0.01149556000000002	0.8326093	0.3455156	0.242477928532726	0.1214664702905549	-0.05257644202767462	-0.2257935767685314	0.2087331983548506	-0.1054433567592977	0	0.55589883479511	-0.06919900739101938	-0.1132085964293228	-1.210823797835923	0.06265508961581237	-0.09596384352785652	0	0.06157592129791067	0.08656767622591631	0.06382041070171811	-0.1113294438823989	-0.09947833816797261	-0.4450534181872448	0.6027974488437496	-0.2132202541586956	-0.02415660947040568	-0.4967068252121767	0.5722617969184535
0.2799999999999999	-0.1394208949836441	-0.02328776385414527	-0.003267692904976898	0.01139168000000002	0.83321577	0.35698115	0.2209119936505961	0.1188198835560926	-0.05886635784804867	-0.2149030245271132	0.2182702193124804	-0.1054249997352911	0	0.5835466120565801	-0.06635775850002855	-0.1125984396202682	-1.190583240156885	0.06770770627379676	-0.09530964403325953	0	0.05903565077123484	0.08344386830287144	0.06545091334596033	-0.1031538659605898	-0.1011278982368503	-0.443425259520188	0.6089874927355344	-0.2245899907350391	-0.02026447584564049	-0.4997045568332429	0.5639723615702258
0.2899999999999999	-0.1305743794276565	-0.01314367511559162	-0.001725993351888823	0.01103288000000002	0.83466537	0.36908935	0.1918435300717087	0.1065372460567754	-0.06756079458027354	-0.2091992197656232	0.2437273812953619	-0.0753801144989022	0	0.5947633113573246	-0.05286061304582583	-0.113756597176792	-1.156820112463364	0.1010367992057461	-0.09693628862719021	0	0.04884532008786074	0.07148762238350864	0.0692990344793792	-0.103370527294208	-0.102104508215378	-0.432983341894067	0.6248450370035645	-0.2257730387810914	-0.01711970250402186	-0.5208981564372546	0.5342270018860825
0.2999999999999999	-0.1317323509168056	-0.01060269526661449	-0.001404823338484767	0.01126942000000003	0.8348458600000001	0.38078748	0.1711390399664796	0.1045760283029556	-0.0685922738707596	-0.1977008168186911	0.2505703982388783	-0.07143477451188997	0	0.6162700807995423	-0.05000105338205357	-0.1154045024990059	-1.119622289724721	0.1027238904857928	-0.09308416981711964	0	0.04974297608341721	0.06752015965009568	0.06944201813488787	-0.09600109321741722	-0.102346824841803	-0.431184298912612	0.6313343093925563	-0.238369158183485	-0.01546903205667407	-0.5250291762438	0.5259956318967395
0.3099999999999999	-0.128818845681014	-0.003596464108172586	-0.0004658679706556033	0.01148729000000004	0.83541359	0.39285406	0.1458460968855829	0.09751434481704339	-0.06941818898007748	-0.1864966046506129	0.2580672902202837	-0.06110538733835709	0	0.6276009715827241	-0.04203879797900359	-0.1195875200272913	-1.070555937649729	0.1139672336338324	-0.09272073502005497	0	0.04660812947645223	0.0580939805390028	0.07199714176256404	-0.09300230776654873	-0.1001886758288942	-0.4275217830731672	0.6405112401275669	-0.2458072720135393	-0.01601929928870992	-0.5334223014283556	0.5122658981068295
0.32	-0.1264871314665625	0.00187633154700528	0.000238608634843652	0.01119256000000002	0.83554522	0.4046141	0.1216624557557223	0.09138271953878385	-0.07386317082977635	-0.1756489503332807	0.2599701797686335	-0.05712178432362046	0	0.6377558575960498	-0.03180460647339516	-0.1204585112316017	-1.01641156739482	0.1363766344817052	-0.1002639037084453	0	0.04363666383889813	0.05196517763267668	0.07369141856314119	-0.08838978565329854	-0.1008832236706059	-0.4252609198629822	0.6500568440908593	-0.2534717178720642	-0.01424276180436068	-0.5393782369771875	0.4993604731997268
0.33	-0.1116244610411851	0.007301631741501876	0.0008184384927012229	0.01102373000000001	0.83665308	0.41695611	0.08160599052382914	0.08511982385869164	-0.08239307537341573	-0.1612772423820522	0.2676576603080933	-0.0422419659976417	0	0.6281792705478761	-0.02213486003293531	-0.1228505568790251	-0.9514990877740337	0.1334514931986246	-0.1031901958616347	0	0.02686679286121799	0.0457568672994735	0.07782567647904781	-0.08707825938315079	-0.102677613604275	-0.4208150007714749	0.6658280861907014	-0.2541272788980107	-0.0116296391403115	-0.5531748584162851	0.4783194693030133
0.34	-0.1140023734115967	0.001209810009860698	0.0001385249415855579	0.01122150000000005	0.83551351	0.42824047	0.0660922447025153	0.09229138018433999	-0.08380427390648634	-0.1565030898646309	0.2716494595635302	-0.04101715763310979	0	0.642061040667059	-0.02650816400278159	-0.1244018763785653	-0.8932177670837802	0.1373240541775591	-0.1036714569638369	0	0.02797035948579918	0.05220397864238938	0.08224557253687485	-0.08047153645840957	-0.1042182583210441	-0.4200683230865989	0.6704465799479873	-0.2619074524777805	-0.009522290029677078	-0.5544842361861236	0.4749486599407652
0.35	-0.09757913447825563	0.01033377176607135	0.001011557965474384	0.01101923000000005	0.83653128	0.4417362	0.01307040634343772	0.08317752983728662	-0.09065626044609457	-0.1216854879931963	0.2712634984999417	-0.02789392488560319	0	0.6192719778234012	-0.01001986734239154	-0.1244641289568583	-0.8103709624789809	0.1430733006805199	-0.1123590734729437	0	0.01211209195332696	0.04116852340688409	0.08004357945689254	-0.08159494433499327	-0.1022469670503806	-0.4135813182293714	0.6898973112142499	-0.2696420771528635	-0.007653219377177303	-0.5673215747519085	0.457259835936397
0.36	-0.1016467368250363	0.004818423548279022	0.0004914720328580142	0.01129743	0.83498176	0.45407201	-0.006658563915914444	0.09049219338775472	-0.08868174136351242	-0.1078415325266529	0.2754198611853578	-0.02464899233420036	0	0.6249086743260862	-0.01096614297492082	-0.1223199724230957	-0.7365103033525312	0.1446723910634177	-0.1099420261585184	0	0.01825411066728211	0.04609230020855211	0.08282124286164054	-0.07886574278945369	-0.1044810534191815	-0.4127253560552501	0.6961553081041977	-0.2810149905775114	-0.004087489375138463	-0.569852664672186	0.4519383677132379
0.37	-0.08548639584450266	0.008718727449186121	0.0003001982552014404	0.01092420000000005	0.83526449	0.46682796	-0.05081172810181009	0.08646480547260622	-0.09827509037928935	-0.08780034729872847	0.2731907652364871	-0.02185434146530975	0	0.5997147664629352	-5.104878622573174e-05	-0.1239402364423469	-0.6469139007269613	0.1474876610775584	-0.1095573144016085	0	0.000503059217362054	0.04222212631643552	0.08390390253617795	-0.07892005691217698	-0.1040787602625846	-0.4063274739928147	0.7159401262816198	-0.2842272943730811	-0.004010859123533324	-0.5776649795373288	0.4409777834374517
0.38	-0.08761624518117557	0.004979062489030836	-0.004249022578262975	0.01118845000000002	0.83358462	0.47968407	-0.07394176946371189	0.09106464480178096	-0.09594014387647663	-0.07233840878373329	0.2746844722900836	-0.01815831460609497	0	0.5949134910053392	-0.0009785904036299527	-0.1282693917851652	-0.5620766706323759	0.1498863030223568	-0.1002396181500355	0	0.005206025339648151	0.04634885470741609	0.0891806479189852	-0.07896407708297198	-0.104736468043511	-0.4027138916005422	0.7244732881332422	-0.2954656523371782	-0.00118993179915517	-0.5820433367589584	0.4358881516621582
0.39	-0.08702920318277414	0.001633162575389583	-0.00914523292645982	0.01128369000000001	0.8320002	0.49220959	-0.0978500166616966	0.09444323047851132	-0.09585505680651388	-0.05952888605383619	0.2723792833019515	-0.0137801554793355	0	0.584196047151385	-0.0005476904279282026	-0.1322096039948351	-0.4725033192683687	0.1459987631041829	-0.08328055976462449	0	0.005251218546233442	0.05051675942970849	0.09558833925541553	-0.07766855111874191	-0.1053931488727056	-0.3989133436046766	0.7366607247286472	-0.3033609335227097	0.001070245671166734	-0.5852074886657948	0.4308747989782242
0.4	-0.06963544600829155	-0.001456834920568788	-0.01098081536935341	0.01094547000000001	0.83141347	0.50537882	-0.1436371371493583	0.09751845297303673	-0.1002003798323251	-0.04081506072303361	0.2712522741129892	-0.01017310341099229	0	0.5507552164953937	0.00235277783364864	-0.1364816821841913	-0.3783922307060986	0.1419948648773053	-0.06025742819698775	0	-0.01301096583963547	0.05428839883904157	0.09766447350144387	-0.07686482909259361	-0.1096855702707572	-0.391856857360211	0.7553287074158498	-0.3101194533175505	0.006309504523233811	-0.5925700437018717	0.4250970974998035
0.41	-0.07433249668030992	-0.008108642939671581	-0.01462083349176063	0.01068507000000002	0.8289093	0.51804774	-0.1604690680209821	0.1033947966210558	-0.1003477158153895	-0.03245443880513783	0.2713669071637274	-0.003147479474623845	0	0.5411691245586466	0.001839264094067141	-0.1377176131829803	-0.284646854071968	0.12757968915199	-0.0297084046061603	0	-0.006281395122965816	0.06234325338368781	0.1031924914931998	-0.07674906437036856	-0.1104890392241639	-0.3881135449937037	0.7632758014927535	-0.3172684941977165	0.008793919103325141	-0.5955216755923392	0.4211370384530775
0.42	-0.07351619438206898	-0.01379542604148496	-0.02111063037014404	0.01037719000000004	0.8264963	0.53112277	-0.1840482745782736	0.1070129748143146	-0.1013634578210762	-0.0230127082868109	0.271689959230691	0.008636622177153781	0	0.5230772193815242	0.001352080915180003	-0.145615077949939	-0.1922314774945189	0.1133393086748607	0.006979993001206755	0	-0.005545922626420441	0.07007865228682696	0.1111270591675291	-0.0777541073332076	-0.1139633466110553	-0.3835598219757556	0.7760825587484508	-0.3249866365069423	0.01252448463217348	-0.5988545057173992	0.4170087410110994
0.43	-0.05719946411007493	-0.01795112944445071	-0.02413017139768427	0.009523060000000028	0.82504583	0.5446967	-0.2264965110918318	0.1082937686288615	-0.1114999992022331	-0.009837420570764791	0.2765891153707329	0.03246300854629805	0	0.4863905978212039	0.005200024897679794	-0.155827446905778	-0.1011565883081604	0.1033371112203493	0.0451571088130364	0	-0.02233330135089319	0.07616096433426894	0.1136517754944441	-0.07680626858380024	-0.1202013732691687	-0.3729488849195422	0.7958902861176347	-0.3310928433335746	0.01843746256665895	-0.6044290379554512	0.4122069183927827
0.4400000000000001	-0.06090920371329622	-0.02781430737569267	-0.02792434830045424	0.008832640000000003	0.82178637	0.55779691	-0.2421372393900721	0.1155048283877337	-0.1208752522237466	-0.006373736479431557	0.2756008026105047	0.04770805028275892	0	0.4739284270283802	0.002731930716890936	-0.1599626188506139	-0.019385964715715	0.08167706102910206	0.08242325333791317	0	-0.01633081944170696	0.08833835097477519	0.1198922527693603	-0.07826047901095702	-0.1242323607513666	-0.3684788506137601	0.8043444948589504	-0.3377565861649786	0.02238277968985798	-0.6080055956311037	0.4112179176237634
0.4500000000000001	-0.06015618900528976	-0.03602317096096214	-0.03624510453646666	0.008231060000000012	0.81880183	0.57099511	-0.2599691236699032	0.1184886998256109	-0.1281406707857709	-0.008043097483206028	0.2806308247595916	0.07308816837100254	0	0.45373183122614	-0.0001559058987575235	-0.162097429320765	0.05988061894186503	0.05911048630077016	0.1168199519560027	0	-0.01664189750280446	0.09943419756945919	0.1298744864497557	-0.07886513628753861	-0.1301802164729592	-0.362328665155169	0.816856757473971	-0.3442121073768951	0.02773802945882117	-0.611654683954481	0.4099805257843904
0.4599999999999999	-0.05333862833700213	-0.03994203068621566	-0.04265417462026577	0.007661980000000013	0.81617821	0.58438818	-0.2820348360268025	0.1162900815142703	-0.1423611279804228	-0.01443069117876672	0.2923259263132234	0.1126814038462618	0	0.4313174839406341	0.0009239526968633449	-0.1611559447915654	0.1220522949409087	0.04532376576545328	0.1371599000272896	0	-0.02347307360907652	0.1048195226775598	0.1340697729445509	-0.07710182787532072	-0.1358791268076279	-0.3505902162551688	0.8347143905962566	-0.350288719353533	0.03327219205674167	-0.6174612002952533	0.40727733348443
0.4699999999999999	-0.05779045767672128	-0.04883558010662171	-0.04440993308543618	0.007507370000000013	0.81287192	0.59699442	-0.2916460399353602	0.1223343452094858	-0.1441000588553793	-0.01986630952005989	0.292695180561613	0.1204405202031392	0	0.4350122487522669	-0.004821481832478146	-0.1510023422933715	0.1509143328441092	0.03917506924724707	0.1488232535182289	0	-0.01919069832619942	0.1142872125250492	0.133794339568234	-0.07108447087398559	-0.135379086486273	-0.3487421658245813	0.8385944383395506	-0.35565252594822	0.03639021299158574	-0.6185277125326171	0.4049167576942164
0.4799999999999999	-0.05935790891339998	-0.05070008131385405	-0.04616130119071728	0.007696370000000008	0.8101322	0.60988884	-0.303854241236475	0.1212614295336294	-0.1448666242180161	-0.02621072952951277	0.292519433410853	0.1211209556615851	0	0.4433006969422695	-0.005005277918149614	-0.1488211826850715	0.1540170109385648	0.03847866385161249	0.1497032024503923	0	-0.01670076117528893	0.1139418628296937	0.1364359809122608	-0.06776482566422679	-0.1349505379926725	-0.3481126964237545	0.8398932582636779	-0.3562685517759502	0.03635313504242344	-0.6186984450033703	0.4047138169174468
0.4899999999999999	-0.06414722556294059	-0.05295707584035966	-0.04865042333763333	0.007179710000000006	0.80723387	0.62252206	-0.3035578939287973	0.1175280126603821	-0.1697599497320592	-0.04799450174811078	0.3054488621802243	0.1782699753245842	0	0.4532408788342003	-0.005868771537059249	-0.1332988571742207	0.1512372259115781	0.02850817327002327	0.1438447025250468	0	-0.0129644540368003	0.1166805704855372	0.1340762631259074	-0.05863672941621983	-0.135760388917022	-0.3378697676253777	0.847794992105987	-0.3593596457710945	0.03896704048664214	-0.6255006636538909	0.4018388910258741
0.4999999999999999	-0.0645336473760804	-0.04964456389405617	-0.05178267960188562	0.007415660000000046	0.80483014	0.63610144	-0.3144600231136769	0.1103429876288961	-0.1657471463117391	-0.05964847357072189	0.3023900072088911	0.1807692129860127	0	0.4595704286384262	-0.002270722051530753	-0.1328790344542155	0.13501625679486	0.02711130319197981	0.1370020451193564	0	-0.01113905379111345	0.1107627911502795	0.1342489936495883	-0.0533541705162071	-0.1314438690598565	-0.3357663816338757	0.850593718493214	-0.3633252146477362	0.03833501382939539	-0.6270909153403907	0.399944623927628
0.5099999999999999	-0.06369053318194566	-0.04504001347326567	-0.05520237664889071	0.007496450000000043	0.80258797	0.6502033700000001	-0.3258301749038494	0.1012632085523026	-0.1618147400871488	-0.07343188827790258	0.2967412860857916	0.1827512903914535	0	0.4643192120970381	0.002098169551433559	-0.1304403124194084	0.1085758098217265	0.02816359850085563	0.1291423346166451	0	-0.009810132871508639	0.1036699524900216	0.1344858437302631	-0.04868065176359358	-0.1275463500471513	-0.3339351882913357	0.8524289929391439	-0.3661967916015402	0.03724308087147631	-0.628355874480766	0.3981770335246232
0.5199999999999999	-0.06098444722485954	-0.03776058714107553	-0.0589728200654668	0.007287220000000039	0.80055464	0.6647759600000001	-0.3380140864577642	0.08886778787672141	-0.1624717160515199	-0.08894105575152257	0.2914191085608245	0.1820136693945989	0	0.4679237964443519	0.009061362013260616	-0.1289810499621988	0.0699735633945705	0.03894199396467846	0.1109106139056723	0	-0.00951262561801001	0.09418497184016569	0.1344251938878222	-0.04431389539643616	-0.1237646877355228	-0.3322380411222707	0.8532436555617083	-0.3698929191662528	0.03604193271388319	-0.6304127938734603	0.3953150269092396
0.5299999999999999	-0.05753907305320144	-0.02894537733618069	-0.05975384450719433	0.006645540000000005	0.79858323	0.6799240600000001	-0.3516992646098646	0.07531273745939236	-0.1635797952248821	-0.1045419371357422	0.2856117790711537	0.1827549114260526	0	0.4693806414460146	0.01901776569339114	-0.1168054487935174	0.02681269847544753	0.04941475853999928	0.08288184872178435	0	-0.008364718031117284	0.08320257409032225	0.1311354847399265	-0.0417228614448673	-0.1205047720560904	-0.3323957078837105	0.8526483197395959	-0.3724814674199009	0.03601995133915187	-0.6332695952188828	0.3923884596921601
0.5399999999999999	-0.05503500719190291	-0.01911908227457785	-0.06140785151143398	0.006331810000000049	0.7967258699999999	0.69534305	-0.3642116895405056	0.06119627605728638	-0.1638979092317931	-0.1206070717376693	0.2766016358391879	0.1811678994197104	0	0.473067895931343	0.03023257218456183	-0.1179852978255838	-0.02028016426122082	0.05171098351709309	0.06256276065118434	0	-0.005928412055593774	0.07021308906498863	0.130212738763708	-0.04067663394766895	-0.1152074171273439	-0.3316286400407821	0.8532777191527194	-0.3754580929488556	0.03232915732610043	-0.6347955405981587	0.3910559988957665
0.5499999999999999	-0.05734528587580736	-0.002750905208439268	-0.05856622825909411	0.00576686000000004	0.79526783	0.71027839	-0.3683696416972714	0.04214527894587143	-0.1682334996035635	-0.1401954309420979	0.2685507976462164	0.1805502790591754	0	0.4841694345683165	0.04758095697742502	-0.1141997793835059	-0.04936539417103464	-0.01098245482210996	0.01914130707916431	0	0.001953127280072148	0.04969058758245765	0.1234819979783078	-0.0363997423147687	-0.1069094874361798	-0.3334066984050416	0.8473025211030651	-0.3762834807942065	0.02721711081082223	-0.6362583207664757	0.3877795903785015
0.5599999999999999	-0.06354550107209302	0.021414300102609	-0.04862233177445247	0.002974909999999997	0.79428493	0.72513507	-0.3636993455205888	0.01279066200386834	-0.1965384402777664	-0.1663788532246669	0.250613268761295	0.2026213464352857	0	0.502573828032572	0.07867754445980991	-0.07259366231417283	-0.08678862059751893	-0.05364246417658446	-0.03914761905783756	0	0.01447106710208358	0.02369989677319863	0.1126082269031146	-0.03425393277967148	-0.1023180935807225	-0.3412078363561877	0.836618653544195	-0.3725311384432152	0.02484200759804671	-0.637530557406233	0.3811660917365381
0.57	-0.06103542109256141	0.04185572063946148	-0.04313811968986523	0.001783880000000015	0.79429479	0.73975008	-0.3663193243615386	-0.01161753231488919	-0.204573554101375	-0.195611543035922	0.2153896736352492	0.1930231735039892	0	0.5176776438346139	0.1008789785062662	-0.07335315822067436	-0.1509826352571884	-0.05440920285041591	-0.05911718644523564	0	0.01488221431397588	-0.001460475461039737	0.1056841156793653	-0.03289890749404336	-0.09569522409147228	-0.340821805653962	0.8325749708860839	-0.3679050846177414	0.01980178906093679	-0.63721788236887	0.3783390985203446
0.58	-0.06546298316143952	0.05451612933718678	-0.02440341994534678	-0.0003144099999999872	0.7941551100000001	0.75488204	-0.3671860388110498	-0.02257549789866565	-0.2208191529554314	-0.216023198308593	0.1648114889133131	0.1801145162471118	0	0.5440066277985297	0.1220154904848402	-0.0587428738836079	-0.2274820295799276	-0.04266844959220421	-0.08658445529774622	0	0.02419932884730919	-0.01766762820233323	0.08300920801529627	-0.0282359673565591	-0.08931643610558668	-0.3444635974538686	0.8181625494648612	-0.363897349633569	0.01387613497462702	-0.6356475546629792	0.3690984257430573
0.59	-0.06260556622983018	0.06908152906014083	-0.01701339929583274	-0.001637999999999973	0.79515825	0.77003787	-0.3679020891091461	-0.04062652397404787	-0.2270501297050974	-0.2488178675838573	0.1320394347418315	0.170907611925659	0	0.5536448979240616	0.1391089455058401	-0.06077745341094259	-0.2830009262077967	-0.04122087787392325	-0.08832272870717352	0	0.0247623425679382	-0.03591812900512345	0.07755626867744045	-0.03116854269505563	-0.08495476684960006	-0.3458504674934298	0.809962857026909	-0.3562814560423078	0.007845391297929091	-0.6344374037480385	0.3676915306683233
0.6	-0.06319037614459776	0.08191994515650416	-0.01145580373409979	-0.003793109999999988	0.79626871	0.78580847	-0.3628183541032633	-0.06047018889426069	-0.236155077825768	-0.2811363215037869	0.05034559551356418	0.1587913002897995	0	0.5582987736940755	0.1562348434051078	-0.05912371938715878	-0.323569030172056	-0.02855323138812445	-0.07142528498221394	0	0.03138701306244354	-0.04929987241651967	0.07336798357093957	-0.03462147695445998	-0.08402689571403307	-0.3506424296996044	0.7967961284055147	-0.3489218174514109	0.003774416228172999	-0.6306924409981904	0.361774464300065
0.61	-0.05726128771100059	0.09106496247770023	-0.009558910278128177	-0.006100129999999981	0.79783366	0.80081545	-0.3536592271228864	-0.08132396521346033	-0.246994570634452	-0.3322176921539887	-0.00616278080167103	0.1556538002587728	0	0.5536870582720057	0.170955715468772	-0.05885506696405168	-0.3594741425116181	-0.004456956379163891	-0.07276893665523852	0	0.02792298077792454	-0.0572824195410521	0.07337000710567433	-0.0387269959298374	-0.08684558203565164	-0.3526561574292996	0.790276716449269	-0.3394291755042704	0.002172198215255673	-0.6282321524534152	0.3612612418559357
0.62	-0.05312657896778685	0.09641637317498326	-0.006912663323227815	-0.008045469999999999	0.79951961	0.8156274100000001	-0.3395310770762468	-0.09747088035908218	-0.2489223810410593	-0.3860776697339323	-0.0520995185922624	0.152772572332337	0	0.5417641326079257	0.1815949437885615	-0.05908680200828767	-0.380858316885583	0.01669189577535342	-0.07157462268339744	0	0.0260566960199768	-0.0617619112624519	0.07137456309615711	-0.04297437928107419	-0.08946568304964908	-0.3540674432288329	0.7835447347347707	-0.3295428764642047	0.0002825674096344804	-0.6253964767477919	0.3615499547443994
0.63	-0.05539566179364042	0.1037735566698067	-0.01177553729520128	-0.009247799999999973	0.8009749	0.8300044600000001	-0.308307531900611	-0.1205843798393994	-0.2460045012003317	-0.4529414115759516	-0.09622103193030483	0.1490482051657941	0	0.5295666493737473	0.1907088721518325	-0.06621248811413391	-0.3877163942752148	0.04231655194509399	-0.07226001033906294	0	0.03194626629666621	-0.06880841527079366	0.07880851588674175	-0.04772634552211003	-0.09251289824566775	-0.3536587815403283	0.7709350342273357	-0.3188263663614004	-0.003265184304845417	-0.6214111575508018	0.3624106560110387
0.64	-0.05830885665625829	0.1102362348838574	-0.01694999075837081	-0.01028217999999997	0.80243746	0.84369267	-0.267299182944236	-0.1438656098241565	-0.2400373030418367	-0.5345270611600135	-0.1322114275148376	0.120866697492418	0	0.5145016510905331	0.1989549236763103	-0.07119624245741499	-0.3870817461334316	0.06164635894679682	-0.07397914795857138	0	0.03677719594545125	-0.07457809957929527	0.08277392663655313	-0.05099259028900896	-0.09522765649351539	-0.3506611073405946	0.7613958794301624	-0.3073370190552922	-0.005786870565646015	-0.6198482234086883	0.3646712841253735
0.65	-0.06808661710423872	0.1169216040561898	-0.02735648199254524	-0.01084670999999998	0.80348105	0.85657598	-0.2097145095522515	-0.1681827283246889	-0.2255425359393074	-0.6229621058188101	-0.1725008010012899	0.09167093605560826	0	0.5025437869018879	0.2040847064019802	-0.07944125289299404	-0.3754939893101143	0.07587147267989303	-0.07139324492593753	0	0.04860410127353526	-0.07972067155412499	0.09034672961937894	-0.05375773514516412	-0.09962928750618738	-0.3447772111293034	0.7518959348508988	-0.2989071731904721	-0.006506269452445147	-0.6207426351862312	0.3716846970401633
0.66	-0.07817511133995544	0.1216750967268722	-0.03428714952290927	-0.01115146	0.80456074	0.86886785	-0.1487727531144542	-0.1866528123167981	-0.2102845042408227	-0.7094744650558149	-0.2163825244260655	0.05724649455639368	0	0.4923230442053637	0.2068077680537443	-0.09103518730919873	-0.3665819718048213	0.09128090924752728	-0.06647286401139513	0	0.05940003240941873	-0.08385884145101702	0.09286449988493685	-0.05452064159955697	-0.1022622350161441	-0.3373726664384832	0.7430523190679192	-0.2882885031039418	-0.006684772827159942	-0.6248441381589998	0.3827081513917319
0.67	-0.08677628914672526	0.1285099342760864	-0.03975897440071799	-0.01112954999999999	0.80590747	0.88072896	-0.0887491782678156	-0.2017480604720749	-0.1895326076769838	-0.7910728551943503	-0.2501151353866808	0.01099643333862211	0	0.4785477910068312	0.2123817002475994	-0.09723295079226502	-0.3532092246930544	0.10628634834455	-0.05646085571209238	0	0.06753597442751386	-0.09170315535719885	0.09184071871818256	-0.05534336729419974	-0.1007628270190789	-0.3323044500276444	0.7340064033930718	-0.2773771734159104	-0.01050101011127045	-0.6289535977387624	0.3955794605224788
0.68	-0.09641648323518306	0.1367860093839452	-0.04635529050670237	-0.01100608999999997	0.8072042	0.8920656	-0.02438717374777943	-0.2160899807144266	-0.1664813979504727	-0.872743629198421	-0.2568602582087163	-0.03511026060027119	0	0.4672665503030126	0.2178007308051488	-0.1107250871515145	-0.3403461538654428	0.1195163247309769	-0.04518660819352068	0	0.07635928854063399	-0.1006688143353215	0.09116223680676841	-0.05475431099220295	-0.1000977951384794	-0.3274652174985418	0.7248457178336728	-0.2657670924351967	-0.01315803216933042	-0.6334696794152656	0.4106582966486674
0.6900000000000001	-0.106861477106292	0.1439832672041913	-0.04977481956042598	-0.01111382	0.80861992	0.903137	0.04170213984879007	-0.2253407736088488	-0.1429714834079463	-0.952982624445013	-0.2391781835670984	-0.08326103389361782	0	0.4582776009532196	0.2231707307006864	-0.1195868747790668	-0.3300473717384753	0.1294503161145838	-0.03474472948824195	0	0.08525619323993404	-0.108471540012488	0.08588035265104449	-0.05365040280668715	-0.099641577940247	-0.3239569631086333	0.715329199782365	-0.2532003905573455	-0.01529610169279382	-0.6365442610248896	0.4267497272537695
0.7000000000000001	-0.1044893891487528	0.1446552771614826	-0.04540794457841333	-0.01139926999999996	0.81113287	0.9146055200000001	0.08763037823499008	-0.2258409207443539	-0.1310366856652284	-1.022898121258969	-0.1999791308779351	-0.1197953730332406	0	0.4348547950955286	0.2269487838459547	-0.1144435128682177	-0.3232365533271314	0.1411252119914653	-0.02584853007649265	0	0.0787612022796482	-0.1115972573257346	0.07055754742069517	-0.05436609321789165	-0.09734387554194138	-0.322421123108762	0.7107808522039802	-0.2388101639646217	-0.02059317649619539	-0.6359124895347795	0.4374228224659636
0.7099999999999999	-0.1024219963273335	0.1493964769147599	-0.04727179594165142	-0.01147581999999997	0.8137619699999999	0.92641112	0.1373936725688944	-0.2301929749814913	-0.1133693972785005	-1.087632775041855	-0.1681456458376706	-0.1555724572691214	0	0.4093087485552979	0.2329054929247111	-0.1156990102296521	-0.3098332697602388	0.1494804481723553	-0.01837066968884975	0	0.07510412418802093	-0.1175500748438578	0.06256801548849623	-0.05674053338008434	-0.09597973283083376	-0.3218074241539904	0.7040437439338699	-0.2268901643450326	-0.02516977345025424	-0.6343685995527992	0.4547918342580585
0.7199999999999999	-0.1023417663917632	0.1504267888718377	-0.04685812189802865	-0.01145272999999997	0.8162177	0.93790753	0.1887644362623694	-0.2279213516419348	-0.09699807921683028	-1.14483797231562	-0.1390043826558202	-0.1854848261131246	0	0.3844414383954862	0.2359868462373	-0.1095370521761904	-0.2943573759416105	0.1568437627757228	-0.01076198587819559	0	0.07312424519930592	-0.1200202360180798	0.05198248920446135	-0.05994533557599606	-0.09503994720512804	-0.3214460689167295	0.6976099070416459	-0.2135522138625628	-0.03004694420130747	-0.6307891057097463	0.4737811460231873
0.7299999999999999	-0.1009952756864684	0.1495877105570205	-0.04520022579150953	-0.01144112999999997	0.81880438	0.94981722	0.2356156174979276	-0.2238099249015723	-0.08496297181694661	-1.192368749855319	-0.1173145506898157	-0.2158504965828447	0	0.3549137183020069	0.2383542520244754	-0.1003393247959447	-0.2745160778623963	0.1641300244087402	-0.007221040424199692	0	0.070562284418818	-0.1205295962231074	0.04126543962038517	-0.06573813170898551	-0.0943071436660748	-0.3227065882885536	0.6913038673460432	-0.201991209795086	-0.03532822115698461	-0.6264628306837926	0.4934386981076796
0.7399999999999999	-0.1004357211822265	0.1459211370515146	-0.04427030458208419	-0.01123819999999998	0.82135811	0.96145616	0.2823646044697937	-0.2147350273363637	-0.07391105428687068	-1.230743921616408	-0.09937189071142638	-0.244653114926194	0	0.3252293276810249	0.2370153617841832	-0.09324417148003283	-0.2516901255651354	0.1616397598340621	-0.009039664778131524	0	0.06818211468975685	-0.1176567498913384	0.03089350655567643	-0.07191233569061084	-0.09392756038463897	-0.3248983991176798	0.6846139656943433	-0.1908453050630597	-0.04081576793044651	-0.6188754076014216	0.5154578553775783
0.7499999999999999	-0.09942186668959663	0.1401486535220514	-0.04222314203024605	-0.01127772999999999	0.8240361	0.97310559	0.3254592767298373	-0.203376720048627	-0.06552186010738927	-1.258300299126544	-0.08449161284025561	-0.2622832775417381	0	0.2921382496624931	0.2342896200048198	-0.08192473773619284	-0.2233117375962843	0.1633431481259993	-0.008056059170895965	0	0.06574844625579897	-0.1120985506189595	0.0213799457902532	-0.07952580554313983	-0.09463300553860132	-0.3288938361628767	0.6790150185689839	-0.1783148711270649	-0.04589476209848214	-0.6094933640273872	0.5383598403257085
0.7599999999999999	-0.09470554233156771	0.1380213359608372	-0.04352065394269266	-0.01109484999999999	0.82680652	0.9845640299999999	0.3649190634578244	-0.1961923826768662	-0.05596984799321535	-1.278993795402815	-0.07403698642465321	-0.2779223804148459	0	0.2525081006480871	0.23460514865551	-0.07699405920453074	-0.1870733972220876	0.1486975222678433	-0.01681120281782833	0	0.0590752557826211	-0.1107141126957109	0.01467321462670807	-0.08468227435307271	-0.09163686129448989	-0.3399040295027885	0.6716014763568037	-0.1729690196070579	-0.05370824074917022	-0.5813999146724924	0.5758553150056449
0.7699999999999999	-0.09527826248375977	0.1276936721498117	-0.03886099271958575	-0.01151824999999995	0.82914965	0.9961412100000001	0.4042742354995127	-0.1840429199081285	-0.05825029990626012	-1.289167741109704	-0.05185017980812495	-0.2818028315037299	0	0.2202065443078436	0.2269488311443774	-0.06906283662824585	-0.157533969285453	0.1501243149687146	-0.01036521005643005	0	0.05815175687136328	-0.09925508158417694	0.00538179709955065	-0.09555165470346665	-0.09533190867492844	-0.3447951590481333	0.6665353745868868	-0.1578193615104819	-0.05924247298572787	-0.5713435275372334	0.5916415592576055
0.7799999999999999	-0.09527536947068618	0.1180656193934218	-0.03513274468849063	-0.01155868999999998	0.83139599	1.00758486	0.4407903328068595	-0.1694290042390204	-0.05743434120219318	-1.292137419006505	-0.02864228855853671	-0.2836946446690479	0	0.1883092097130205	0.2187583081427164	-0.05961356087702963	-0.1292448706158047	0.1503701838637662	0.0005521527112267766	0	0.0567073010893959	-0.08942894683595431	-0.001839615603378492	-0.1058642498897332	-0.09585518753167484	-0.3487725874370423	0.6610142546599336	-0.1420133901510518	-0.06461947618942207	-0.5636337778182485	0.6091611517743772
0.7899999999999999	-0.08558347088457066	0.1128436432487477	-0.0320984009032332	-0.01213072999999998	0.8339253599999999	1.01892475	0.4659092065220061	-0.1654918315202428	-0.0604984230855702	-1.287966084014101	0.002861421930084151	-0.2596512274800827	0	0.1467398794719304	0.2166419423121003	-0.06027238601774319	-0.09978939109632888	0.1454650585231497	0.006071564135375273	0	0.0433984637460469	-0.08411663356285361	-0.01029918268003078	-0.1104390882500377	-0.09500224477715936	-0.3702506865301704	0.6514954547651617	-0.1406914967996801	-0.07459711389429821	-0.5191305489300231	0.6566572592211508
0.7999999999999999	-0.08764851985426139	0.1035836637380458	-0.02743225922613901	-0.01230776	0.83554876	1.0303059	0.5002749262440044	-0.1529665173330758	-0.06305614306504162	-1.274880714264854	0.01676479241862269	-0.2596588516018542	0	0.1208556703276709	0.2087512492481065	-0.05464361784771834	-0.07800106321931731	0.1474572459228156	0.01061116220368695	0	0.04476315675946766	-0.07446417862289204	-0.01663490553928805	-0.1223151935370708	-0.09678754241809021	-0.3736923541656543	0.6455824016069853	-0.1238035153772603	-0.08073475968581249	-0.5134245070054979	0.6703221018440046
0.8099999999999999	-0.08236289042175091	0.09634025508588573	-0.02212988911036156	-0.01291526999999998	0.83733075	1.04155489	0.5243711193970231	-0.1466765938332531	-0.06917171934269736	-1.254898183444437	0.04940734979185747	-0.2365300317958959	0	0.08895940125635614	0.2035845009724781	-0.04731138598753259	-0.0586154994057315	0.1467456662855983	0.01218470288619768	0	0.03680287759272972	-0.06674816701161695	-0.02527362211154423	-0.1282454025836624	-0.09746126638743051	-0.3893496491291545	0.6350895598111472	-0.1192686968931052	-0.08972703388783046	-0.4806837226764938	0.7102881628603688
0.82	-0.08397825454864759	0.08904686555986616	-0.01672724241209684	-0.01331500999999996	0.83842538	1.05282907	0.5525598888618179	-0.1373841451655736	-0.07387197619038559	-1.224925893432956	0.06228970615863785	-0.2399518651606943	0	0.06560618010514577	0.1977997010654567	-0.04229850593876007	-0.04092974002499685	0.1474022905661251	0.0118527553996353	0	0.03769316027032821	-0.05931917130517383	-0.03015847562743181	-0.1406341482475193	-0.0994967150887327	-0.3931690911868375	0.6273563998163726	-0.1031004543476227	-0.09407196892694897	-0.4755042561866062	0.7252811607268845
0.83	-0.08462484915472035	0.08208314317224376	-0.01210516979577698	-0.01370604999999997	0.83919994	1.06431686	0.5767467324963231	-0.1283662926397689	-0.07820780078534162	-1.188180630729631	0.07358280532752619	-0.2376778177333397	0	0.03988396805873328	0.1919891132206053	-0.03060467097056634	-0.02141502533742196	0.1518654058631535	0.01240159233434914	0	0.03815132124174857	-0.05206791992975382	-0.03478267870576683	-0.1516760420026352	-0.1014476214373317	-0.3975110141367329	0.6185621082597851	-0.08928936814328335	-0.09837057332840868	-0.4691641338759034	0.7456719141109664
0.84	-0.07249904876873364	0.07414922948002083	-0.00409656370478327	-0.01444890999999998	0.84058601	1.07540477	0.5837336048873095	-0.122090460230195	-0.08898358820366321	-1.144944539676286	0.08898916505422211	-0.2288094769180449	0	0.0002611372098809428	0.185160016674137	-0.01571732538858959	-0.000931588337807895	0.1403235580059478	-0.005605447778691408	0	0.02109570338813558	-0.04364348406201615	-0.04821533424410836	-0.1512864014359177	-0.1019231088158354	-0.4136364383451433	0.6031783264613588	-0.08874599461272704	-0.1078570689240554	-0.4416126052394956	0.7944939446998216
0.85	-0.07177611830956541	0.06778966553542037	0.001804667867423369	-0.01475789	0.84098364	1.08695554	0.6000127906829584	-0.1134335583743306	-0.09455542635148188	-1.094163960989235	0.1027498517348175	-0.2205413693187437	0	-0.02739036755127261	0.1789694917696104	-0.01072731264367669	0.02040318780780492	0.1371235257948817	-0.009377688803017648	0	0.02010114950503519	-0.03728025045042432	-0.05532406150921173	-0.1592605812774831	-0.1023747556948885	-0.4210089263990592	0.5935264717401268	-0.07915274647698087	-0.1140834975202235	-0.4312125135562339	0.8166131685025213
0.86	-0.06613064611918985	0.06427646584247013	0.004253898385546797	-0.01502550999999996	0.84117913	1.09865365	0.6090467412531189	-0.1069957840193141	-0.09850145521994988	-1.03838176224508	0.1161264497410459	-0.2214757973072446	0	-0.06189798254145806	0.175822001997544	-0.008448717062824341	0.04438459868443444	0.1341452896760933	-0.007993428205221073	0	0.01307376802210999	-0.03346088396549791	-0.05859199016977298	-0.1671365242149025	-0.1036926031985211	-0.4296691244837489	0.5832178124458566	-0.07211336829890917	-0.1198148552710159	-0.4191246438058649	0.8484595138268461
0.87	-0.06712351533770566	0.06519661266018545	0.004379681025708002	-0.01555544999999997	0.84033699	1.11010634	0.6247308900270231	-0.1040687600495694	-0.09905874146810553	-0.9789289563150692	0.1168200355572739	-0.2234646989500608	0	-0.08879556458147755	0.1782991526918214	-0.007050058371363441	0.06819231666283354	0.1353442882861797	-0.003358135304818879	0	0.01384456266659015	-0.03361811648901988	-0.05535964842359405	-0.1790147607234852	-0.107391716847051	-0.4340337702242419	0.5751185101247487	-0.0581114397656422	-0.1214075169081469	-0.4135110531935483	0.8691078888040967
0.88	-0.06540467295106855	0.06322634754506372	0.004138426250966507	-0.01564835999999997	0.83953477	1.12177113	0.6325571645591224	-0.09570249426047148	-0.09809809741250922	-0.911762644368457	0.1309675728957774	-0.2250634367764496	0	-0.1178085715451134	0.1775492840214739	-0.009912243708462415	0.09000342422817628	0.1308406867610257	-0.004162782355470722	0	0.01160059424356443	-0.03102936787157357	-0.05460953977047437	-0.1883494060419573	-0.1093271567859505	-0.4388412642899629	0.5670897238178102	-0.04912586570808972	-0.1247938986215801	-0.406624697281244	0.8951337315916886
0.89	-0.05392814860381743	0.06125941974144304	0.003304736631063686	-0.01540828999999999	0.83914803	1.133493	0.6262907646069579	-0.08705856543693714	-0.09919179751629596	-0.8383884273540938	0.1252172027498442	-0.2294724637963599	0	-0.1577089989313576	0.1764107183094025	-0.01217034161898057	0.1124441898644379	0.1265699556167862	-0.01285754825679252	0	-0.002882671313727182	-0.02896519541410669	-0.0589837424103525	-0.1904193146985438	-0.1092260282202997	-0.4477279331567987	0.5587930732784548	-0.04894899090009996	-0.1342863105343252	-0.3929385686228328	0.9339423920008255
0.9	-0.05619165512463178	0.06469910912517698	0.003636829863769508	-0.01556254999999995	0.83715309	1.14504207	0.6356611102862135	-0.08440028691634867	-0.097058027262379	-0.7674369439368591	0.1303245447301237	-0.2230134177174859	0	-0.1805838878173835	0.1807656987655638	-0.009853000775931497	0.1304717204919627	0.1317282481212545	-0.006434849706788913	0	-0.001190339682601362	-0.03286261407037983	-0.05545175014635349	-0.2009886455488506	-0.111119025766048	-0.451967216434977	0.5520941070847518	-0.03577291132817221	-0.1364784576883982	-0.3881491662910722	0.9534846443188055
0.91	-0.04607831346582356	0.06533896102926663	0.003010692504633156	-0.01536003999999996	0.83600586	1.15705719	0.6256449673019128	-0.07863914669266726	-0.09878531295150036	-0.6886162919031636	0.1391568137785699	-0.2042684921902091	0	-0.2173038685538288	0.1821168825815083	-0.01460849153485881	0.1483369908259893	0.1294391543849514	-0.004547508075014636	0	-0.01316240753523224	-0.03321856262668394	-0.05966667613308972	-0.2046164652899633	-0.1101940255225676	-0.4616341296824621	0.5443842392069767	-0.03723009963609874	-0.1450015486411707	-0.3762353334433293	0.9897160658587812
0.92	-0.04688098593848441	0.06797687563960637	0.003186696514565101	-0.01521697999999999	0.83363064	1.16895323	0.6268074166230674	-0.07428470641590945	-0.09881479121350067	-0.6102842805728136	0.1505176966486839	-0.1799837216220332	0	-0.239982516109419	0.1849501732947088	-0.01396031063365438	0.1613065607718931	0.1334503491352999	-0.002193551445989198	0	-0.01246752109964567	-0.0362292370858841	-0.05775206547708229	-0.2142253901475838	-0.1103263783776024	-0.4671280182842941	0.5368118809340443	-0.0300744076552193	-0.1472544791553725	-0.3708603443495918	1.012527186871658
0.93	-0.04346928655148253	0.07228875622179953	0.003141576383042548	-0.01505287999999999	0.83137952	1.18072623	0.6234274491691681	-0.07279820285973472	-0.1014354243783871	-0.5335753421946131	0.1607027105355576	-0.1362525230713983	0	-0.2670300294371006	0.188750001167725	-0.01218131886731099	0.1743360620081847	0.1369294245871748	0.004278844132734467	0	-0.0176379761055394	-0.04110915568331167	-0.05931259979147423	-0.2190883549657234	-0.1106695387319442	-0.4737337915753893	0.5303795727757121	-0.0265779899137649	-0.1525207729830201	-0.366148196224644	1.041709282205891
0.9400000000000001	-0.04400741934271975	0.07922361824265767	0.003485020198207579	-0.01497290999999995	0.82865694	1.19214629	0.6225187689759244	-0.07329888563678727	-0.1053536386326977	-0.4549856157214465	0.1626890418319843	-0.09501030051885488	0	-0.2834809823346833	0.1950783376190549	-0.009534915043354304	0.1745329300863548	0.1547517308491367	0.01061647620766049	0	-0.0193146907050513	-0.04840890487172269	-0.06128632597097718	-0.223735350647826	-0.1096098816242835	-0.4783000886434005	0.5249951953813953	-0.02219467595705966	-0.156632774983904	-0.3619646043085016	1.06501925008398
0.9500000000000001	-0.04581910759569164	0.08620807124205002	0.003947831827067688	-0.01487552999999997	0.82571991	1.20366888	0.6216773120586834	-0.07428714725886836	-0.111061148030058	-0.3790935628171457	0.1623278188906807	-0.04453654094046069	0	-0.29845737897842	0.2013265931283155	-0.01155442295446633	0.1745329300863548	0.1654430684172055	0.02469476464103146	0	-0.01894649325352377	-0.05602173750454176	-0.0625640258403591	-0.2278258959199518	-0.1093088648627249	-0.4842794105570114	0.5178464419569571	-0.01837968937589113	-0.1605560714624635	-0.3583233395980291	1.089732826407288
0.9599999999999999	-0.04714502427736122	0.09255620196937001	0.004360543528015346	-0.01466709999999999	0.82272871	1.21544898	0.6184532199602798	-0.07475109923274684	-0.1197339409342289	-0.3058616730399596	0.1634477128958813	0.008807273490096777	0	-0.3136727356313641	0.2067044792940783	-0.01667228612854264	0.1745329300863548	0.1691114562423857	0.04466236137717112	0	-0.01889842042820562	-0.06293492104731144	-0.06407641769079574	-0.2325019762923085	-0.1080813159822016	-0.491073980476618	0.5127761323727466	-0.01472624383803604	-0.1635872212517835	-0.3556614789636839	1.111228738854361
0.9699999999999999	-0.052322474630893	0.104073681414244	0.005440482849267275	-0.01401080999999998	0.81928689	1.22695608	0.6189056162837139	-0.07753639234431996	-0.114945218233679	-0.236820218265847	0.1640676840403858	0.03545628172378996	0	-0.3248387816374914	0.2154655165688288	-0.009595823718123326	0.1745329300863548	0.1777440269867468	0.05496451181506199	0	-0.01506917241265319	-0.0772865889535356	-0.06369432829108697	-0.2394712604768238	-0.103885138845889	-0.4931067415454051	0.5083825118977424	-0.00656154071373023	-0.1678831640261339	-0.3560764217431005	1.122142420024494
0.9799999999999999	-0.04582991785779799	0.1046640045653704	0.004791311328844658	-0.01358851	0.81704354	1.23939352	0.6022367633923428	-0.07444039379944463	-0.138579760280372	-0.1698490096949982	0.1628595271641154	0.1096846869596227	0	-0.3482383109116132	0.2148880384320239	-0.02419056781806296	0.1745329300863548	0.1937487154261566	0.09867417439899065	0	-0.02367769391618523	-0.07718521290019692	-0.06441729794700274	-0.2397576676108126	-0.1038782641684983	-0.5067963514375423	0.4992126558548547	-0.006359186193056456	-0.1713618574254355	-0.3509031653092244	1.147791658109551
0.9899999999999999	-0.05097385904225877	0.1092009531348181	0.005560099911675348	-0.01281927999999999	0.81383989	1.25170363	0.5955054204683506	-0.07149197872532163	-0.1445816367348408	-0.1037100840672432	0.14498600578605	0.1337641830712863	0	-0.3595160522302815	0.216897144180794	-0.02613444991455437	0.1745329300863548	0.198829355090611	0.1109456962453678	0	-0.01854128522254308	-0.08322349779552686	-0.06302789735455905	-0.2458791547950461	-0.1015843747910095	-0.512822732140176	0.4952909387247352	-0.00253723627177124	-0.1724586622954286	-0.3482864385402699	1.158616775862917
0.9999999999999999	-0.05077195939739133	0.1127342218177453	0.005716474929480476	-0.01207863999999997	0.81103478	1.26435441	0.5835426594094232	-0.06665245455170098	-0.1489196258871351	-0.04824538462503748	0.1343370832094632	0.1403451044446295	0	-0.376531510581405	0.218024746781702	-0.03016724939758159	0.1745329300863548	0.2035462075760248	0.1279903132887055	0	-0.01937880345526114	-0.0876070007713901	-0.06116276067419327	-0.2504436780849384	-0.09911508523421599	-0.5205440153439238	0.4902027878613119	-0.0001541459087398124	-0.1737661910634576	-0.3444369838007695	1.171083143998059
1.01	-0.0543273551476036	0.1164739269801854	0.006319560566205759	-0.01212870999999999	0.80823808	1.27658573	0.5900276550436158	-0.06651356788207843	-0.1493345887378381	-0.03282497918665324	0.1338509358834872	0.1423997957500007	0	-0.3888317396033189	0.2200104385894908	-0.02686905480792857	0.1745329300863548	0.203290408455661	0.1308905557046771	0	-0.01777623620196049	-0.08984758430286449	-0.06201357430155425	-0.2551977219659158	-0.1010494943816593	-0.5220542761473438	0.4879086279577892	0.00507184250689265	-0.1735047796623511	-0.3442282872771928	1.174266300969653
1.02	-0.05494529542212313	0.1181182442937018	0.006481397126199722	-0.01225738999999998	0.8061259200000001	1.28955213	0.5932919073426405	-0.06368811090469259	-0.1529092031639013	-0.02684173080582397	0.1327118470962389	0.1413677942570025	0	-0.4000058757341279	0.2199059518358262	-0.02277239006237945	0.1646997417644932	0.2005408033130339	0.1357103993711193	0	-0.0170057232536216	-0.08999936843206049	-0.0545297447133366	-0.2609871417594674	-0.100764385598101	-0.524459454175658	0.4819994476852231	0.009860685286095102	-0.1672904612077309	-0.3422346364189491	1.179553423556594
1.03	-0.05403789932212936	0.1170914519564738	0.006318998518547398	-0.01250372	0.80434501	1.30251003	0.5988924336419071	-0.06092643436682698	-0.1533216262114769	-0.0428531378901893	0.1343769679971286	0.1341569863491414	0	-0.4101683553259633	0.2174613916746712	-0.02346687437410637	0.1508345686792992	0.1987300737814406	0.1388992241249266	0	-0.01889233551230146	-0.08583734756374241	-0.05152382069129453	-0.2644049413192985	-0.1030704299720994	-0.5272054693505466	0.4771937914512045	0.01232992161034646	-0.1616210649143122	-0.3404676268615194	1.181839312344791
1.04	-0.0534785180455127	0.1161595360089355	0.006203918433686966	-0.01269692	0.80260594	1.31583726	0.6019052613138055	-0.05894765650633704	-0.148783288445418	-0.06246299553674522	0.1330591866414746	0.1262024217394403	0	-0.4188806038413365	0.2151372988508779	-0.02360307009508819	0.1342682037905333	0.1981367775510919	0.1410453671924439	0	-0.01976386113642878	-0.08194866445490843	-0.04864525212304001	-0.2673432842728412	-0.1055589769682607	-0.5298649666345517	0.4721451450682025	0.0128259417403023	-0.1557226404077945	-0.3390356901517436	1.182707018664917
1.05	-0.05220387557937156	0.113436963750579	0.005914464973145855	-0.01259122999999995	0.80113787	1.32976896	0.6033635702976448	-0.05520299325498865	-0.143730167038214	-0.09111539513670459	0.1335866377077979	0.1137579053010664	0	-0.4274780112627248	0.2104747217418781	-0.02456613317702777	0.115595957438501	0.1956721808355911	0.1422663651541529	0	-0.02039996104308383	-0.07622509296697498	-0.04601849355061084	-0.2704206734191	-0.107576158006414	-0.5321841004543415	0.4669558548180871	0.01079134475967508	-0.1506348670590885	-0.3383008848945713	1.181770466785249
