inDegrees=no
nColumns=24
nRows=126
DataType=double
version=3
OpenSimVersion=4.5
endheader
time	pelvis_tilt	pelvis_list	pelvis_rotation	pelvis_tz	pelvis_ty	pelvis_tx	hip_flexion_r	hip_adduction_r	hip_rotation_r	knee_angle_r	ankle_angle_r	subtalar_angle_r	mtp_angle_r	hip_flexion_l	hip_adduction_l	hip_rotation_l	knee_angle_l	ankle_angle_l	subtalar_angle_l	mtp_angle_l	lumbar_extension	lumbar_bending	lumbar_rotation
0	-0.002770750586947993	-0.0582523706938456	-0.05111015711689407	0	0.88465963	-0	-0.2122354659163589	0.09792809396578457	-0.2289739358028018	-0.217427762321578	0.3367573104681197	0.0411100604619959	0	0.4617939157972126	-0.1031797282494458	-0.3160973281786787	-0.1858429420192938	0.0209875280556299	0.0418317350836067	0	-0.1521473144109953	0.03419022302598593	0.1332684505715912
0.009999999999999787	-0.004506096621257851	-0.05870518314476577	-0.05603827486403086	-0.001179600000000003	0.88341242	0.01024088	-0.2203631092429267	0.09448094931257493	-0.2189749331734862	-0.2224594742984466	0.3321268449738957	0.03815196980609861	0	0.4628393982133533	-0.1057073823145578	-0.3117954861914566	-0.2084231369480424	-0.0009330160171360264	0.006834087664530235	0	-0.1495227451795798	0.03320927485706945	0.1368957872055669
0.02000000000000002	-0.003961100595809461	-0.05631894837100941	-0.05778219511059138	-0.002426570000000017	0.88240094	0.02093202	-0.2299639506081166	0.08786039866776893	-0.218824855103634	-0.230143894403063	0.3274850358867311	0.03893114813964073	0	0.4669122140818714	-0.1066470049265114	-0.3255342154083313	-0.2376362289807256	-0.02641173438707598	-0.005017153836511885	0	-0.149079674848471	0.02859209411097983	0.1345206363453028
0.0299999999999998	-0.00881122204022894	-0.0481051316820148	-0.06799149692695355	-0.00327686000000002	0.88208748	0.03099542	-0.2291602233459805	0.07327932398653092	-0.2060259150031234	-0.2436944291300184	0.3212102311270209	0.04054556513136486	0	0.4622135013269725	-0.1000791974335689	-0.3311142103524092	-0.232884869067072	-0.07930721544616523	-0.04724609548914351	0	-0.1426485922603396	0.01650614143026122	0.1430307961536473
0.04000000000000004	-0.01063538740272722	-0.04181404001233033	-0.0679495405873019	-0.004867709999999997	0.8817928900000001	0.04090737	-0.2301309288756487	0.06246065033782932	-0.2050117656103792	-0.2602493467532863	0.3131658558882695	0.03803538425552633	0	0.4636852058873537	-0.09441208507800947	-0.3206584512181223	-0.2471821521647381	-0.09610189453383323	-0.05529969636378804	0	-0.1417124540237047	0.007772408609927697	0.1361980604211557
0.04999999999999982	-0.01121840364003527	-0.03385977248226113	-0.06766763707345715	-0.006426870000000001	0.8819301500000001	0.05115703	-0.234711724917355	0.05091656653931888	-0.1963001784002597	-0.2717514616664716	0.3041564741434564	0.0398298576159337	0	0.4647307774898191	-0.08708449736443034	-0.3100136251038229	-0.2688581705478448	-0.1031688822498752	-0.05392462649529955	0	-0.1410817342690018	-0.003147856989341051	0.1341202965612047
0.06000000000000005	-0.01061888417421308	-0.02372612926934923	-0.06429336812377981	-0.008383350000000012	0.88244113	0.06163421	-0.2376279510586164	0.0373155198894157	-0.1888273356596833	-0.2890381831041972	0.2901913469246652	0.03990939593513852	0	0.4663404121048599	-0.07630075979683301	-0.3025659231329898	-0.2950926693673747	-0.1055425588305201	-0.05668008512317199	0	-0.1413353169957484	-0.0163611393014726	0.1284092692782041
0.06999999999999984	-0.01092833135768793	-0.009758416379592245	-0.05837374079544438	-0.01082231	0.88287923	0.07276057000000001	-0.238457968738874	0.01902577500932854	-0.1883593188139769	-0.3100911023637141	0.2689103670625866	0.02996776873605414	0	0.4669327981460037	-0.05814060578823935	-0.2935985549539308	-0.3197808394563604	-0.08759477299465063	-0.09288175473352084	0	-0.1383429828053941	-0.03340865394043443	0.1161927136095588
0.08000000000000007	-0.00790267555025671	-0.0001613073680439126	-0.05355648209962152	-0.01339596000000001	0.88369882	0.08359112	-0.2381759046821958	0.004369548021295987	-0.1821272624036357	-0.3393960212297995	0.2456250161809327	0.02930024766687544	0	0.4642752170589843	-0.04485793494463504	-0.2875694274521202	-0.3455532634036222	-0.07772509018719564	-0.1063817283192435	0	-0.1414626827469786	-0.0437435334905904	0.1041161984477045
0.08999999999999986	-0.004529938163147495	0.009522758863500029	-0.04901227572297789	-0.01628106000000001	0.88464845	0.09461233000000001	-0.2373673156308954	-0.01098339939430114	-0.1746912796205981	-0.3700901055924785	0.220402466766625	0.03010562339248999	0	0.4584743531415275	-0.02926839034657171	-0.2755539600677763	-0.3669175096081879	-0.06205609069666575	-0.1188180575926292	0	-0.1439396808994794	-0.05415613412313401	0.09563200337904314
0.1000000000000001	-0.002474135425602101	0.01866711555908531	-0.04289249479109458	-0.01952166000000002	0.88568155	0.10581558	-0.233320451237558	-0.02579222767468549	-0.170617586200532	-0.4030049079745526	0.1899760288192723	0.03189395755725347	0	0.4518240835538173	-0.0120748902603207	-0.2616694494326018	-0.3831322971177614	-0.04675644441469406	-0.1409589013123721	0	-0.1438806016788323	-0.06392549802317823	0.08819975996392791
0.1099999999999999	-0.001206598373784083	0.0245394541948869	-0.03834793665714518	-0.02260017	0.8868062400000001	0.11624732	-0.2214982120472292	-0.03806280547247027	-0.1651611586476332	-0.4461308994698915	0.1569742584259005	0.03411960491005513	0	0.4425185416006222	0.001468117036103743	-0.2510875715848354	-0.3909328760399479	-0.03629946546979291	-0.1583455404063134	0	-0.1452753834704258	-0.06886773569594336	0.08084513064251718
0.1200000000000001	-0.0005755957804698971	0.02858091508297548	-0.03408649064285438	-0.02550113000000001	0.88806102	0.12644618	-0.2049725820960073	-0.0479432918679951	-0.1589150467517598	-0.4935924380528353	0.1175900170528555	0.03385805667513535	0	0.4301878038743175	0.01282486661748307	-0.2447984254546614	-0.3917857130275107	-0.02516784713035881	-0.1679300577070094	0	-0.1462890113587895	-0.07183721305441358	0.07372195187667435
0.1299999999999999	-0.003577399975764399	0.03197317396112458	-0.03482894807710951	-0.02760247000000002	0.88927973	0.13625993	-0.1791249142121651	-0.05731032002540864	-0.1484298512433746	-0.5457046553116695	0.06807520192843207	0.02949821757140236	0	0.4178965114617725	0.0212664822846469	-0.2425305824982648	-0.3852837747841373	-0.01544917265324733	-0.1785122210906415	0	-0.1432254017615081	-0.07555934689764555	0.07187927828191346
0.1400000000000001	-0.005665062443519743	0.03586696034858964	-0.03583484667652984	-0.02952942	0.8904731100000001	0.14586303	-0.1499612673571909	-0.06677221625244603	-0.1387556725392793	-0.6022752796673416	0.01797053166481318	0.02597566893492003	0	0.4056895423631097	0.02932948542250485	-0.2409554354147105	-0.3811404673360592	-0.005057931185556704	-0.1861662345926285	0	-0.1410642890049965	-0.08029675848898314	0.07060302214888879
0.1499999999999999	-0.008241323033976114	0.03948538004550664	-0.03966501217456607	-0.03117952000000002	0.89165488	0.15519694	-0.1170332643518522	-0.07605060768926411	-0.1272760694063851	-0.6605333761339034	-0.03110396690899524	0.02220845620416879	0	0.3938861460964513	0.03548414991955533	-0.2432638511675636	-0.3767037190771065	0.005549041355260829	-0.1916210583624777	0	-0.1385383401265637	-0.0846713629036551	0.07184444849136067
0.1600000000000001	-0.01165783902672571	0.04515593349046497	-0.04474953598565259	-0.03260141	0.892656	0.16424042	-0.08116891312977288	-0.08637207368598682	-0.113735277805446	-0.7198213903448694	-0.06716014709462831	0.006324601097664786	0	0.383695778237564	0.04241637430633255	-0.2496597599607467	-0.3729322878855532	0.01628310964487321	-0.1933226629279193	0	-0.1348692382871865	-0.09162329921353726	0.07321846976603455
0.1699999999999999	-0.01379525232167069	0.05066949761117887	-0.04977058994363501	-0.03400964000000001	0.8936872300000001	0.17332367	-0.04588400162004481	-0.0962579503563735	-0.102453249434536	-0.7788999388656573	-0.08816560299780177	-0.01264435943025406	0	0.3736239917132488	0.04846118062441258	-0.2586355156685921	-0.3723631882018225	0.0288607102312385	-0.1917206704115414	0	-0.1324040443200157	-0.09789631588342888	0.07309111815197136
0.1800000000000002	-0.01862758537412263	0.05514774588591122	-0.05560653409656768	-0.03537165	0.89448724	0.18215485	-0.006599522219846279	-0.1040761768262258	-0.09054088405962807	-0.8360352796851768	-0.08734618016423547	-0.04591957300099679	0	0.3659605590183547	0.05280195933645038	-0.2693712268366294	-0.3700878844864723	0.03605981814992593	-0.1817522276247635	0	-0.1272336202064497	-0.1027935027684757	0.07575899685611043
0.1899999999999999	-0.0166343914774643	0.05946501153900197	-0.05659151926960815	-0.03735745000000001	0.89591315	0.19134707	0.02202951161021909	-0.1141170581073443	-0.09076009217769081	-0.8854588654024008	-0.07754572741235716	-0.07964847339162238	0	0.350191996522513	0.0601657987603239	-0.2747640702995489	-0.3670720942927017	0.0510140032100029	-0.1790685180861772	0	-0.129071262366043	-0.1060990912709718	0.06860242505475504
0.2000000000000002	-0.01408131967336499	0.06312087872346034	-0.05835739667456338	-0.03924428000000002	0.89744968	0.20045726	0.05044074074147325	-0.1230932894174108	-0.09111354945102063	-0.930439952524386	-0.06972321005053886	-0.1187881772067692	0	0.3319910653394075	0.06721460957033802	-0.280377171870609	-0.3597464280120961	0.06052592406406096	-0.1744198568363693	0	-0.132141348007514	-0.1088256962901833	0.06298054430302441
0.21	-0.01297350863619477	0.06471661230537955	-0.05883882672110096	-0.04109657	0.89901159	0.20940792	0.08070728994871536	-0.1275015540775038	-0.08882003200319541	-0.9712387436371982	-0.06415857487654317	-0.1524545592054567	0	0.3146013827403166	0.07277144678776873	-0.2838667833515794	-0.3503291715477382	0.06849749795452025	-0.1697406339986944	0	-0.1336776726853186	-0.1087757231503755	0.05500331606938743
0.2199999999999998	-0.01092866555609953	0.06506631638137153	-0.05874217655300071	-0.04288451000000001	0.9006569800000001	0.21835143	0.108783321615807	-0.1308127031989968	-0.0895662663744415	-1.004879084450781	-0.06213594684032735	-0.1791718031806517	0	0.2959896584726239	0.07747935917315499	-0.2854748016171999	-0.3404012671744305	0.07578490609432335	-0.1671273502407553	0	-0.1362918825149588	-0.1075440345233993	0.04710595968737531
0.23	-0.00856723419221689	0.06138028047764699	-0.05772152337740667	-0.04465620000000001	0.90251824	0.22736806	0.1345617678216529	-0.1292429682069201	-0.09060793838775921	-1.031651870736894	-0.05966035193254512	-0.1908156691978279	0	0.2750416383880739	0.07911714682169502	-0.28130936182341	-0.3270768005821629	0.08054023994815092	-0.1646838988872741	0	-0.1387457540076732	-0.1011135179455443	0.03627959315092971
0.2399999999999998	-0.007089739539833909	0.06214012094266315	-0.05415490992161646	-0.04658833000000001	0.90398481	0.23633935	0.1609661838686423	-0.1340875122965353	-0.09751593516105779	-1.055531305515988	-0.05154016587427238	-0.2092008530447372	0	0.2553236055835452	0.08576068310368395	-0.2788974890611511	-0.3129987037859437	0.0863685800604231	-0.1644708734235536	0	-0.1400491713035832	-0.1001341264357877	0.02641440700975956
0.25	-0.004792163918314605	0.05850328500491427	-0.05273268123607783	-0.04817501999999999	0.90555575	0.24508551	0.1859530068452477	-0.1324178659314281	-0.1017553425321459	-1.07294178092059	-0.04352397543401264	-0.2150919342529601	0	0.2348693607864671	0.08685274818302741	-0.2755369572447363	-0.2998828485451853	0.09164272420451319	-0.1634890326932577	0	-0.1423670603545503	-0.09474885997074993	0.01650937465270054
0.2599999999999998	-0.003026673870230611	0.05624089747587024	-0.04933791273853121	-0.05001881	0.90701456	0.25411908	0.2087670559970101	-0.1328030819139589	-0.1089040240490189	-1.084188637416414	-0.02822138931944889	-0.2198263880348143	0	0.2149040230299783	0.08950276955092472	-0.2733700725098554	-0.2867047030270221	0.09752372683443748	-0.1626236665105936	0	-0.1426986711671	-0.09000280568348938	0.005969256599814796
0.27	0.0005469637602097289	0.05600498079052534	-0.04482286424527571	-0.05206276000000001	0.90837535	0.26306626	0.2298648139867411	-0.1371705329221586	-0.119368933944574	-1.092791033512403	-0.01172257757391435	-0.2165712536848677	0	0.1935470262249937	0.09463017810521308	-0.268268787520212	-0.2745516143367632	0.1018799269266801	-0.1579780841961192	0	-0.1461458008104781	-0.08698845399008821	-0.005718871316257838
0.2799999999999998	0.001830880570476878	0.05285933307884992	-0.04323062223441886	-0.05364179999999999	0.90959365	0.27192429	0.2525116944555499	-0.1342592528694644	-0.1239032494248387	-1.094309216714364	-0.003942046725246645	-0.2165903289118616	0	0.1749045106841045	0.09518665678952387	-0.2676755914717625	-0.2629031664812347	0.1071715816100896	-0.1560150046995863	0	-0.1458800787951851	-0.08103258354203743	-0.01604648279180973
0.29	0.00406141237874713	0.052435094218199	-0.03709859337932218	-0.05551207	0.91060279	0.28062557	0.2729750563290417	-0.1359345980836452	-0.1338911063815511	-1.092837940806847	0.01199382687241549	-0.216282816383893	0	0.1560392530824831	0.09889139598329875	-0.2639445693647818	-0.2518390346134546	0.1123909241609963	-0.1462019560810293	0	-0.1477734250577179	-0.07860217922284662	-0.02847352028132369
0.2999999999999998	0.004688018966994178	0.05071255614293262	-0.03433262621873018	-0.05711127000000002	0.91142467	0.28946304	0.2944178432226117	-0.1344158904102444	-0.1400261427313007	-1.085470838839002	0.01881819200581457	-0.2174558502542962	0	0.1383782834857791	0.1002417127196708	-0.2661901188815768	-0.2405163318679256	0.118571067847132	-0.1432517604220034	0	-0.1468345955233764	-0.07434898427426653	-0.03850515550619681
0.3100000000000001	0.006824783794439191	0.05001343604645242	-0.02864941142197014	-0.05887268000000004	0.91214671	0.29827604	0.3124573787483305	-0.1344937233682371	-0.1490099608130928	-1.074703474554184	0.03318228334018736	-0.2219064236153197	0	0.119257770259323	0.1027898869698643	-0.2634913129430925	-0.2295901796221557	0.123764302366824	-0.1304342671224783	0	-0.1481309969447593	-0.07186444629939709	-0.04984326584382946
0.3199999999999998	0.009039569521674404	0.04949088876404597	-0.023436878082812	-0.06061281999999998	0.91268523	0.30703643	0.3293318307274548	-0.1348419895087727	-0.1586847238534216	-1.059276311899068	0.04420169428747783	-0.226008937482791	0	0.09991567369622523	0.1050692970958786	-0.2631051858986921	-0.2184923960610679	0.1328656816382402	-0.116159939467799	0	-0.1492182140230395	-0.06880820635488219	-0.06190212176431208
0.3300000000000001	0.008548606484514601	0.04938578560834289	-0.02043317916268027	-0.06209933000000004	0.9130159400000001	0.31583922	0.3480075644218655	-0.1337544233646421	-0.1646254102860459	-1.038045829648237	0.04876255256047389	-0.228029714946401	0	0.08497058249968284	0.1072843539653121	-0.2688891911573051	-0.2098430113382918	0.13883465811271	-0.1151286680460268	0	-0.1467215915629622	-0.06688863617127229	-0.07054437367550109
0.3399999999999999	0.01120585807600092	0.04831463504111628	-0.01449889097920434	-0.06371572	0.91338145	0.3246621	0.361057597013346	-0.1319228738004017	-0.1734471808299756	-1.013501726191561	0.06053988844340616	-0.2339721940066999	0	0.06458507243373969	0.1090751359543515	-0.2651160689162396	-0.1977451719181696	0.1450423352404606	-0.09712802334296437	0	-0.1489361578203429	-0.06330444704346558	-0.08282285484773769
0.3500000000000001	0.01107773356054433	0.0480166512914308	-0.01208055012793786	-0.06507029	0.9133215	0.33319375	0.3777875491694403	-0.1297946727175949	-0.179372434363222	-0.9856226795396992	0.06522398005156241	-0.2352316312743877	0	0.05013664644084467	0.1105962212897923	-0.2700691745797239	-0.1906161616582299	0.1531401236629754	-0.09377129372632506	0	-0.1480516876127523	-0.06074386297869163	-0.09223822338944372
0.3599999999999999	0.01075083175879906	0.04746547628760519	-0.009327523352836858	-0.06632969000000002	0.91311946	0.34184005	0.3923508878148195	-0.1267443860911586	-0.1846650346660202	-0.9528515339866261	0.07097167740027911	-0.2354085114928982	0	0.03374585085378803	0.1126940759838288	-0.2684828413319278	-0.179725534367654	0.1608639035602182	-0.08783801447104624	0	-0.146547904947917	-0.05821693601774608	-0.1000040327349367
0.3700000000000001	0.01856563269029566	0.04371877320274476	-0.001685148630769383	-0.06779554000000002	0.91377014	0.35088377	0.392044737865398	-0.1228390342153034	-0.1994486476511023	-0.9115264784568489	0.07931507797991254	-0.2295696442527097	0	0.009755370548233435	0.1102399053416806	-0.2649100703226205	-0.172554931340843	0.1686015918117372	-0.07300139060059341	0	-0.154138690407092	-0.05210019089309027	-0.113338874087877
0.3799999999999999	0.01663223612870368	0.04536586139249622	-0.0006305949999509849	-0.06866088000000001	0.91313893	0.359648	0.4063233633933604	-0.1208260299245831	-0.2028605445074032	-0.8732858639016402	0.08403460169174647	-0.2283647949499048	0	-0.004578392025194526	0.1141728243440052	-0.2644354765526939	-0.1625585186056044	0.1759209614680003	-0.07210010815991715	0	-0.1507738919587878	-0.05286194769910484	-0.1199431467448814
0.3900000000000001	0.02101262978196508	0.04285414015263083	0.004992218011718872	-0.06993120999999999	0.91312322	0.36841033	0.4081224407578015	-0.116531995144171	-0.2141593505538798	-0.8274333216668298	0.09313519451780169	-0.2231839095073353	0	-0.02441127238142635	0.1130633775306411	-0.2571908932076811	-0.1552555840167756	0.1797390830095713	-0.06552588413851267	0	-0.1549399152161465	-0.04797527956439395	-0.1284403485307273
0.3999999999999999	0.01952183781244718	0.04479848775692952	0.006701854734939647	-0.07084779999999999	0.91225199	0.37710962	0.4190478690409977	-0.1152846772682761	-0.2186202812222834	-0.7839656372899841	0.09567525455776973	-0.2176305646937378	0	-0.03845924025689997	0.1168117825933729	-0.2562727716558487	-0.1462833001178782	0.1887081022701028	-0.06429922572497364	0	-0.1521339427454641	-0.04828656985752851	-0.1364655117086716
0.4100000000000001	0.01865440169299979	0.05076692648247789	0.007927941165269887	-0.07159234	0.9111993	0.38543945	0.4296939516178256	-0.1172411095038198	-0.2208011676865555	-0.740656733543707	0.09866708923489216	-0.2148149372361662	0	-0.04830285238318621	0.1238127356026327	-0.2570703324952045	-0.1468370527724303	0.1935234864457732	-0.06444829342372184	0	-0.1513008286765805	-0.05459502508881602	-0.1390802695716969
0.4199999999999999	0.02127120936296844	0.04332948910001243	0.01610019279347273	-0.07274485999999999	0.91087251	0.39459901	0.4263863325992777	-0.1091608834569032	-0.2404075249007636	-0.6846784231470804	0.103813639164153	-0.1860035004422383	0	-0.06630366201986299	0.1163008678235805	-0.2478674289919962	-0.1405632096891379	0.2027077573374861	-0.05711024368300749	0	-0.1523905850343894	-0.04407659694067651	-0.1504217672443419
0.4300000000000002	0.01957355549829523	0.05109527691397324	0.01684796981808912	-0.07328507000000004	0.90947793	0.40290497	0.4360954465118126	-0.1123773376454341	-0.240865053539396	-0.6391758220452887	0.1053180662045482	-0.1800403798964748	0	-0.07584178620011293	0.1249368636020658	-0.2494288265462361	-0.1398963891951209	0.2096260445720545	-0.05768531343997758	0	-0.1506284768850981	-0.05237516664407735	-0.1543431836542312
0.4399999999999999	0.01907023269350287	0.04612271012453345	0.02189220368762258	-0.0742013	0.9085125000000001	0.41192615	0.4356968794586358	-0.1062063166207657	-0.2601975755752832	-0.5822507916553052	0.1048262174115046	-0.132008983807839	0	-0.08934926557428378	0.1199398309683684	-0.2450277034243765	-0.1354543419420264	0.2223947112385575	-0.05307060722170143	0	-0.1486236286925053	-0.04484509473186105	-0.1614734128521203
0.4500000000000002	0.01649758813379893	0.05483955616455681	0.02217307489189749	-0.07458273000000001	0.90677925	0.42024269	0.4439653493882896	-0.109702242179371	-0.2605871339369929	-0.5340961318627803	0.1085637024727054	-0.1248950727403243	0	-0.09792044383860722	0.1293775393754341	-0.2457046953482082	-0.1350785629547611	0.2287737879019014	-0.0528792688702004	0	-0.1460518038346839	-0.05431408711857119	-0.1649500277388157
0.46	0.01729963090870609	0.05055677089004323	0.03018600468889154	-0.07561996000000001	0.9057928900000001	0.42919079	0.4387317323130296	-0.1058140535223141	-0.2887552739590952	-0.4742987796124682	0.1135178310736644	-0.05555055550423692	0	-0.1113718232691641	0.1240510573449328	-0.2397104749550362	-0.133510415339639	0.241793935046067	-0.04371944375812268	0	-0.1466360646700279	-0.04707533177699669	-0.1767879967090281
0.4699999999999998	0.01089882930759857	0.0510602336510307	0.03216874914080141	-0.07592518000000001	0.90389798	0.43802406	0.4445535396579115	-0.101294399331365	-0.3014492136555424	-0.4176321595299424	0.1151364529126225	-0.02198967255018014	0	-0.1168296364389561	0.1243654614799858	-0.2410272471613167	-0.1317481190438543	0.2505026450809146	-0.04259630640757302	0	-0.1384494009404089	-0.04730744154342308	-0.1778987451889484
0.48	0.007093317996344189	0.05073986515287567	0.03533817580653052	-0.07616738000000003	0.9022419300000001	0.44691865	0.4458435020360851	-0.09645800086790171	-0.3194560064554279	-0.360424621246052	0.1186840044378371	0.0249143946051744	0	-0.1243499643524915	0.1230287675620243	-0.2411091914168954	-0.1321247124017486	0.2607237419047441	-0.03757738664692398	0	-0.1333582077935664	-0.04651044619074491	-0.1815292689686712
0.4899999999999998	0.003490900714366068	0.05206812561711565	0.03926875686675769	-0.07653518000000001	0.90049283	0.45545745	0.4475665347068852	-0.09296262805507048	-0.3350121669191579	-0.3048258395020556	0.1217542487297371	0.07252234013242179	0	-0.1308761541203543	0.1232715309927378	-0.2417672339519724	-0.1339552577035374	0.2708322347976239	-0.03201509597371248	0	-0.1297814111823395	-0.04686337218585042	-0.1852953751606766
0.5	0.0006816478372517187	0.05357853797024786	0.0441660805253459	-0.07678276000000003	0.8987049500000001	0.46413651	0.448613930003886	-0.09009618743072223	-0.3546781177025436	-0.2537770651445628	0.1249590146228004	0.1264859263908831	0	-0.1373985919539241	0.1227234894045641	-0.2413534692698008	-0.1385092863286375	0.2804814038062027	-0.02326040035279911	0	-0.1272004512712131	-0.04909238034465973	-0.188624702235395
0.5099999999999998	-0.006127126566305057	0.05255942569639271	0.04663747751548204	-0.07672165	0.8965771100000001	0.47310524	0.4531138726207961	-0.08154434427291823	-0.3632898527062945	-0.2026276329367185	0.1200630068821962	0.1597819256112867	0	-0.1410021907138093	0.1204058787336127	-0.2439245986139153	-0.1398712013014878	0.2906810240045206	-0.0211503716381641	0	-0.1190367735278429	-0.04767545032485847	-0.1909891098959814
0.52	-0.01138543407341837	0.05185236002374589	0.05201475408055504	-0.07683308000000003	0.89457427	0.48201389	0.4569131084781299	-0.07575337008913492	-0.379002056600727	-0.1589172615745806	0.115557732982553	0.1986439354996693	0	-0.1444777950548678	0.117164728136166	-0.2457610248026188	-0.1454448949088343	0.301262353644369	-0.01385368637525495	0	-0.1135384585964949	-0.04656854645621455	-0.1948539198677079
0.5299999999999998	-0.01450386080006453	0.05686732512295546	0.05332126095824167	-0.07675456999999999	0.89259108	0.49080787	0.4639970391524186	-0.07510557787275492	-0.3835419634177833	-0.131349193674582	0.1204421077546268	0.2035191944170599	0	-0.1514664719417678	0.1210821381427573	-0.246095459906964	-0.1482570374674884	0.3056987074589106	-0.01312045924479226	0	-0.1107335493803928	-0.05242418788131104	-0.1939386997512239
0.54	-0.01902766555745961	0.05380383047438619	0.0586458594225048	-0.07712689000000003	0.8905901900000001	0.50019183	0.4681624484029465	-0.06913305680910718	-0.3945668616802421	-0.1042826655082987	0.1139330740497123	0.2213659569306325	0	-0.156644618962741	0.1159861690769498	-0.2429136763349581	-0.1528450816870452	0.3171072146047249	-0.00694171356738739	0	-0.105374558498178	-0.04720638680519969	-0.196228607858156
0.5499999999999998	-0.02015463553442948	0.05701375845771554	0.06144385352686465	-0.07731341	0.88878528	0.50956894	0.4751547370742006	-0.0717763309086492	-0.4046964508913895	-0.09938907312884644	0.1135611705660511	0.218298623673392	0	-0.1663580244653736	0.1175044388472413	-0.2459237484810333	-0.1556785912645339	0.3207018682031278	-0.006130526244429548	0	-0.1049043331128361	-0.05042538219312155	-0.196175098157685
0.5600000000000001	-0.01941759635428021	0.05726113052297431	0.06563060894647155	-0.07792998000000004	0.8871839300000001	0.51923944	0.4836120795541883	-0.07570995624572205	-0.414245965090338	-0.1117163270034312	0.1113551911540573	0.2101066825917137	0	-0.1785242020778247	0.1160462778673226	-0.2422879728310584	-0.1585735367807587	0.3266006461388191	-0.0008156332001614468	0	-0.1056393417008663	-0.04797721845066	-0.198177092213352
0.5699999999999998	-0.01648722051011869	0.05955618721209707	0.07290806447565794	-0.07850395000000002	0.8856813100000001	0.52873498	0.4900525713868502	-0.08261930634732262	-0.4064529134241494	-0.1324031493151753	0.1187185024412991	0.1745392944294722	0	-0.1912942077609299	0.1146827847677626	-0.2362655473935754	-0.1649940480841437	0.3335050342693562	0.008920012858596425	0	-0.1099209195428082	-0.048818155085251	-0.203439838310229
0.5800000000000001	-0.0153657330111862	0.06064126120529298	0.07539218098969455	-0.07862786000000002	0.88395906	0.53859325	0.5015994445705712	-0.08726174811634099	-0.391642979128618	-0.1631549281542728	0.1239047493607978	0.1273943048166992	0	-0.2041502653320083	0.1133990581019406	-0.2327848302850061	-0.1676710957009752	0.336541005181669	0.01196248198078016	0	-0.1116020271360474	-0.04809408150858333	-0.2033701195624618
0.5899999999999999	-0.01423888968447399	0.05906068297246923	0.0799541318904643	-0.07906422999999999	0.88242126	0.54869085	0.5103631000137325	-0.09079264413903684	-0.3892449368789507	-0.1932567345116886	0.1218429086632116	0.09997547635584728	0	-0.2172131395325261	0.1090865296382414	-0.2301301572655864	-0.1695275490192465	0.3412294927506122	0.01205234706410316	0	-0.1123248779350411	-0.0442036396314621	-0.2049849426923029
0.6000000000000001	-0.01245344250859917	0.05862075006200931	0.08488299119403052	-0.07919980000000001	0.8809625	0.5588945	0.517236279562849	-0.09415083110560157	-0.3772027649098537	-0.2247969714254282	0.129928203320809	0.06758563742231351	0	-0.2299505506682515	0.1051213478756279	-0.2241523494251015	-0.1742205435519171	0.3415340047085308	0.01390052141306759	0	-0.1147737813480396	-0.04144503539667878	-0.2091630191934759
0.6099999999999999	-0.01266174282762345	0.05846681613371552	0.08958086346605618	-0.07919049000000003	0.8793687800000001	0.56926604	0.5231402509002624	-0.09616251418207812	-0.3618893183094864	-0.2523298655304784	0.1373698804150641	0.03723720783854334	0	-0.2407550253653564	0.1015800353788903	-0.2195257524531645	-0.1783256099634195	0.3412954056334125	0.01453206409051276	0	-0.1143522543140199	-0.03900737626738621	-0.2110648049956067
0.6200000000000001	-0.0125739445073479	0.05628809714231348	0.09291944800393871	-0.07876629999999998	0.8779109900000001	0.5798639	0.525298199723906	-0.09388663538073944	-0.3446737239257015	-0.2752015641291646	0.1357292281576228	0.01391985843944921	0	-0.2514210697964381	0.09542226576656759	-0.2159399708869482	-0.1833892185305	0.3387330205633834	0.01667315128825285	0	-0.1138593485495813	-0.03569578924278387	-0.2127919107412822
0.6299999999999999	-0.01399178497069169	0.05224258256453431	0.09838205112206619	-0.07855973000000002	0.87657966	0.5907138199999999	0.5259242882474386	-0.09148676873840492	-0.3364055943352517	-0.2951907483192234	0.1301795158977975	0.01250242977908066	0	-0.2596357251166006	0.08709728190120121	-0.2113161728995326	-0.1897775323489101	0.3354097162708479	0.01827886100687172	0	-0.1108885885486438	-0.02943461777345968	-0.2128903539433459
0.6400000000000001	-0.01511755856628533	0.04961021069632367	0.1034899652456111	-0.07837565999999999	0.87518648	0.6017418	0.5260468660369318	-0.0902782547677696	-0.3313809861975046	-0.3167613955903336	0.119035713938454	0.007304934561618705	0	-0.2683126879614204	0.07990065531711134	-0.2081678251236058	-0.1968322085124085	0.3308886598823777	0.02061328687796856	0	-0.1084906960482262	-0.02433328862698629	-0.215549792933354
0.6499999999999999	-0.0183362313371165	0.04395016705944405	0.112576592248133	-0.07782456000000001	0.87419354	0.61254029	0.5235996651926186	-0.08407804258776275	-0.3285998799562741	-0.32212881309671	0.06144302267841879	-0.04926563708511011	0	-0.2704867791607827	0.06679296228313279	-0.2054903265136956	-0.2097158017940297	0.3263528798963377	0.02796859722685343	0	-0.1040235574182062	-0.0178747485190625	-0.2225629519027376
0.6600000000000001	-0.02043045414143161	0.04049393880997974	0.1175546341042637	-0.07735399000000001	0.87335087	0.62312672	0.5254766545784676	-0.08240614788951316	-0.3255076987955388	-0.3371885284428112	0.03098808053732132	-0.07013142004783299	0	-0.2733121101253966	0.05750018147929663	-0.2034568137315998	-0.2232986057389922	0.3156507434525881	0.0329991501305658	0	-0.1019378130402505	-0.01349820294919649	-0.2216012618713206
0.6699999999999999	-0.02521586191029821	0.03083264528969711	0.1182579354332932	-0.07606799	0.87271094	0.6340982199999999	0.5286526937483065	-0.06907084262805767	-0.3035908801280612	-0.3485825020574113	0.004820688231267264	-0.1149861591200747	0	-0.2729399877774472	0.04292489570612164	-0.2016630346631688	-0.2365069929261707	0.3053228427759791	0.03844924754880059	0	-0.09503183229677088	-0.002684958321666162	-0.2190851105731768
0.6800000000000002	-0.02379372417869784	0.02350920402960376	0.1212000756360231	-0.07538756999999999	0.87265156	0.64463792	0.5319386797598418	-0.06413616205642075	-0.2952644310587877	-0.3786626576054561	-0.009190124900556974	-0.1210740387678306	0	-0.2745578092084103	0.02912140639641746	-0.1980895473707366	-0.2578070696573259	0.2912543212051023	0.04132516059859821	0	-0.09748627224322261	0.006612227344136172	-0.2162795637882989
0.6899999999999999	-0.02138668023895459	0.01567478636865281	0.1233786088611624	-0.07428983000000003	0.87292683	0.6560391099999999	0.534512910554037	-0.05676900982309403	-0.286273649811412	-0.4129467692222897	-0.01123298531706068	-0.1385001088638317	0	-0.2776990739146337	0.01433401302817562	-0.1932778573589609	-0.2789029976693362	0.2732132658466709	0.04446550464364112	0	-0.09861001906274705	0.01590461056196872	-0.2138800491788745
0.7000000000000002	-0.01809771672861122	0.007533466346498307	0.1245135069730606	-0.07271163999999999	0.87328229	0.6676424	0.5335015714904544	-0.04661022264982415	-0.2778823186507944	-0.4434746095774528	-0.004830938724497152	-0.155208132703204	0	-0.2804705342446872	-0.001512100031385701	-0.1869284165608488	-0.3022462830101808	0.2516631080428474	0.04994607219449016	0	-0.1002447822302263	0.02488173670234278	-0.2104864622226904
0.71	-0.01444639840711848	-0.0005558801451529853	0.124385441244826	-0.07070598000000003	0.87394715	0.67935538	0.529742376278688	-0.03508969974901809	-0.2723614032764294	-0.468615576019337	0.002088109648157988	-0.165802891778982	0	-0.2807283352577029	-0.01785296349387204	-0.1822946309267887	-0.3302303480429971	0.2278118228065942	0.05598677262550487	0	-0.1023426706091174	0.03260844386580701	-0.2059787705184344
0.7199999999999998	-0.01198178344712061	-0.01042167160588408	0.1246916795917311	-0.06869443	0.87469579	0.69127999	0.5217790977636305	-0.0201778246116021	-0.2690997693203485	-0.4837248384703756	0.01396059861298096	-0.1841942317512289	0	-0.2767703437280088	-0.03667534725695112	-0.1789677546434059	-0.3628572477184464	0.1990724073733157	0.06877790970799559	0	-0.102279882214744	0.04343158922258512	-0.2057821490552876
0.73	-0.008486347341885948	-0.01759517477898638	0.1258341471636065	-0.06677349000000002	0.87578168	0.70272176	0.5090526972120243	-0.007214000987727624	-0.2658275612869943	-0.4918042365330951	0.02695061613826937	-0.2010235004721446	0	-0.2670486000894077	-0.05339151183555353	-0.1738334707135951	-0.4062729846390345	0.1665277366166461	0.07720419126141727	0	-0.1044558700634045	0.05014134608892152	-0.2016082369097099
0.7399999999999998	-0.006343558959922767	-0.02442985346551558	0.1288382099518017	-0.06510366000000004	0.8770498600000001	0.71374217	0.4945877075209291	0.005994276592773836	-0.260265764541961	-0.4931397654437809	0.03757705014744419	-0.2159456489666037	0	-0.2506307283370003	-0.06943365120098674	-0.1653033827358514	-0.4555333530987316	0.1257249748797854	0.0823110567668109	0	-0.1057835011846921	0.05634180889820896	-0.1991686343562952
0.75	-0.005127711107106109	-0.03019741440027083	0.131755764019976	-0.06362110000000001	0.87835513	0.7244028	0.480308789650317	0.018211803362615	-0.2546763586080235	-0.4917938889995587	0.05027656878884536	-0.2289276500201048	0	-0.2284454141515153	-0.08413084211376115	-0.1581402980638593	-0.5108545184085825	0.07329559132782412	0.08095762374505938	0	-0.1068254671114558	0.0619466606469608	-0.1964007702771654
0.7599999999999998	-0.009451818279479047	-0.03865024833514773	0.1419312187209631	-0.06266773	0.87950542	0.7344450299999999	0.4695244296983084	0.03117546362367149	-0.247456976770212	-0.484410447957389	0.04986151675181757	-0.2571134730200565	0	-0.1922518559588652	-0.1012906578690475	-0.1398909476075791	-0.5739547378440211	0.02059219108329971	0.0681978219548931	0	-0.1011500551917043	0.06980790930834183	-0.2015064721715467
0.77	-0.008321866996689187	-0.04436043291325761	0.1480963787988483	-0.06138226999999999	0.88070607	0.74474412	0.4557450374514548	0.04215365774801148	-0.2426687771448389	-0.4846817911546039	0.06555325247198027	-0.2724398446561994	0	-0.1625842714623164	-0.1166087130113046	-0.1311824936125326	-0.6344996380003743	-0.02741483200593074	0.06301248662086271	0	-0.1011267334041075	0.07447730018274144	-0.1997955283492776
0.7799999999999998	-0.00862436062475194	-0.05173504908023212	0.1556374372914718	-0.06053834999999999	0.8818706900000001	0.7545194199999999	0.4440954293010395	0.05217416649890313	-0.2429602176338576	-0.4840047809048151	0.07516734821657564	-0.2846175388237198	0	-0.1276782444041916	-0.1310689423168649	-0.1152378856891618	-0.6988209423149188	-0.0650738180313732	0.05192769040380479	0	-0.100054044097455	0.08178763723652678	-0.1987646674289456
0.79	-0.01044129522589777	-0.05874042055601304	0.1631377680379728	-0.05974088000000002	0.8828991500000001	0.76389366	0.43412937063402	0.06027764504384531	-0.2502593266354989	-0.4823541762563801	0.08236205720741635	-0.2909335328301784	0	-0.08840412266043905	-0.1423827529589209	-0.09637589761282818	-0.7652230536454976	-0.09879454207805198	0.03766934054029578	0	-0.09775997006413137	0.08841683371884838	-0.1966864642696219
0.7999999999999998	-0.01192404496246222	-0.06288877923353106	0.1676163634856647	-0.05883002000000001	0.88405535	0.77311314	0.4231487244966138	0.06559556134744371	-0.2585816329912599	-0.480318829831372	0.0929377925434134	-0.2905866121639631	0	-0.05056088013146844	-0.1482090005959528	-0.07845231355956438	-0.8278102141741578	-0.1340331302805041	0.016689444460419	0	-0.09647050213773499	0.09164423740497465	-0.1903585868398852
0.8100000000000001	-0.01370619723915488	-0.06828482379660809	0.1716712424536025	-0.05791900000000003	0.88521511	0.78220634	0.4101927939497485	0.07240273743117159	-0.2690424497406533	-0.4727364929875072	0.1032883289186902	-0.2855011395082771	0	-0.01161797807198015	-0.1548105782900592	-0.06356082683487144	-0.8880566539527079	-0.1500102367581458	-0.01710140010882082	0	-0.09513983972860252	0.09628301537882725	-0.1841206930013279
0.8199999999999998	-0.01680670576928786	-0.07261841779090188	0.1754199084018006	-0.05711255000000001	0.88626465	0.79073815	0.3988821575380032	0.07792454693771232	-0.2777933658510714	-0.4642165942419366	0.1098914676352796	-0.2750385781277634	0	0.02980240943593612	-0.1589699101295987	-0.04908122577087731	-0.9454173286468988	-0.1425271196133288	-0.06259884690426563	0	-0.09353252448160473	0.100182268899743	-0.1811994094194929
0.8300000000000001	-0.01668946016682489	-0.07460456800066084	0.1727682270082358	-0.05573541000000001	0.88776612	0.7997755	0.3827367489605917	0.08418251939305053	-0.282817384940196	-0.4546883065628179	0.1186748568181616	-0.2667198233424974	0	0.06258686644068118	-0.1620719967319708	-0.04626662491597178	-0.9931296398019606	-0.1282254180401283	-0.1152760471387237	0	-0.09558198241721391	0.1004975863655936	-0.1672816822015933
0.8399999999999999	-0.01414716203766044	-0.07599779149662256	0.1694452198430929	-0.05411222000000002	0.88943996	0.8088827199999999	0.3634098824896126	0.09168760901141965	-0.2852762690185221	-0.4441928919771294	0.1278129052826293	-0.2632192922090619	0	0.09211562273613737	-0.1662061492299906	-0.04744175038895058	-1.035739123619919	-0.10924349704625	-0.1675788145583686	0	-0.09952801826699892	0.09953338794697561	-0.150182145406282
0.8500000000000001	-0.01205906387928981	-0.07595296796830882	0.1657637438336135	-0.05268235000000002	0.89118363	0.81788787	0.3441829750391525	0.09777920603594931	-0.2844938162727703	-0.4327891645900045	0.1368689567825748	-0.2602286036896593	0	0.1217468731428511	-0.1670034793368193	-0.04847313944591432	-1.072217258794304	-0.09119247620685553	-0.2221002712266863	0	-0.1036622219031658	0.09743696634278791	-0.1353022817017427
0.8599999999999999	-0.009865944484134496	-0.07614112503605855	0.1622244331537865	-0.05125498000000003	0.89281508	0.82678729	0.325449008434249	0.1041848654600645	-0.2811913300930196	-0.4222547396266059	0.1424840885206209	-0.257828136828595	0	0.1503974623127774	-0.1685876288286554	-0.0499796853160214	-1.101320138520712	-0.08072237692383544	-0.2589073147458076	0	-0.1076685180379027	0.09536811326133303	-0.1198173078076809
0.8700000000000001	-0.008052149945462602	-0.07504538349572067	0.1586876007126894	-0.04993870000000003	0.8945003500000001	0.83562887	0.3059058340588253	0.1092257442552304	-0.2774601741192853	-0.4097439811363348	0.1463472109334936	-0.2557220841485289	0	0.1786921280591408	-0.1682886951175591	-0.05130097862319622	-1.125523664186741	-0.06620442975444453	-0.2882771225100213	0	-0.1111470437110632	0.0919171939845501	-0.1065234213037703
0.8799999999999999	-0.006551012096972958	-0.07181777978453065	0.1527227964855281	-0.04873417999999999	0.89613537	0.8443363699999999	0.2872266481031541	0.1116595259610568	-0.2729723252378282	-0.3988028492531938	0.15286447438943	-0.2544227612205112	0	0.205218476472866	-0.1647749399734471	-0.05509212662477639	-1.143800699928281	-0.04555327918008441	-0.3118555227251984	0	-0.1145420679458864	0.08642850157696719	-0.09154509310415049
0.8900000000000001	-0.004865873490107028	-0.06812742483903329	0.1482546027646423	-0.04767534000000004	0.89793509	0.85312791	0.2674969524849648	0.1131828299590427	-0.268733039341656	-0.3866206615609812	0.1567988043159219	-0.2512972620734211	0	0.2303432331693223	-0.1599444600960103	-0.05699323838075012	-1.154883333682395	-0.03169720048202376	-0.3200212747923846	0	-0.1172697531493718	0.08037422527689876	-0.07710671043390316
0.8999999999999999	-0.004322945761618013	-0.0657060198149967	0.1427490260049579	-0.04667479000000002	0.89940376	0.8617222099999999	0.2485842208804916	0.1152661926607011	-0.2671158971928378	-0.3727760154676528	0.161871674647211	-0.2472293758873752	0	0.2567609760268811	-0.1562678283826412	-0.06054971220363393	-1.162495216856101	-0.01038165751570207	-0.3280841753048825	0	-0.1192483229666149	0.0765935687985182	-0.06445221570214985
0.9100000000000001	-0.002593438832872459	-0.06482429554001962	0.134001030714034	-0.04526231	0.9007830100000001	0.87057486	0.2294295286967608	0.1190256432141371	-0.2657828482204861	-0.3612421165379923	0.1660880893997992	-0.2339973525788016	0	0.2794469127755594	-0.157478889312254	-0.06985812539798143	-1.164466778827332	0.01524075311342288	-0.3198377022833903	0	-0.1216720842136068	0.07378858104259972	-0.05119181630699853
0.9199999999999999	-8.188299777403932e-05	-0.06202034474993647	0.126184388385725	-0.04414429	0.90226989	0.87922601	0.2079970027683961	0.1201900853522315	-0.266431242924524	-0.3469060670596455	0.1708352903683783	-0.2193545347808792	0	0.299949869013929	-0.1551776222534841	-0.07732372746562295	-1.159650834575504	0.03114952314406495	-0.3054578567345244	0	-0.1251730576134747	0.06933349827438785	-0.03772401315364742
0.9300000000000002	0.002532804126009005	-0.05842219681904071	0.1196610283387317	-0.04326466000000001	0.9036429	0.8879633	0.1865113640274324	0.119709713844349	-0.2691937195213187	-0.3336633670484387	0.1800961276326457	-0.2058568386752975	0	0.3187999008867548	-0.1505694383306226	-0.08308152294032584	-1.148373328701752	0.04447116718986629	-0.2898627906128395	0	-0.1286058383814734	0.06453267747506189	-0.02664687037989242
0.9399999999999999	0.002338827191985719	-0.0560442349002603	0.11540766724061	-0.04254457	0.9046625	0.89654251	0.1684414636124532	0.1202865332938942	-0.270820920351682	-0.3197523907640858	0.1850040191455938	-0.2020188713438679	0	0.3419742257896357	-0.144904120697133	-0.08467164250540127	-1.134222857639309	0.05397830444551049	-0.292550529418537	0	-0.1286151160281782	0.06047353259604166	-0.01726654246451283
0.9500000000000002	0.006359774481058037	-0.05288570483796224	0.1053519885253001	-0.04174365000000002	0.9059944600000001	0.90524479	0.1459776802249505	0.1202632654369713	-0.267715653061281	-0.3068461546279467	0.1884391768775007	-0.1820992371282377	0	0.3555469630245386	-0.1416138479824219	-0.09494425883075573	-1.112937368370042	0.06638119600295481	-0.2897183616501772	0	-0.1337827902009748	0.05749406043507697	-0.003983791161229996
0.96	0.005718844583372914	-0.05139757139149005	0.1023385467127637	-0.04108332000000001	0.9066776	0.913733	0.1294047359685034	0.1215076138096768	-0.2699470931618701	-0.2945398262038958	0.195347804238258	-0.1803874869638541	0	0.3763901870830807	-0.1379949868418267	-0.09820951539223219	-1.088924948926724	0.07120030802737458	-0.2902961221812551	0	-0.1333924816967525	0.05467497041880239	0.003024200935436029
0.9699999999999998	0.008034252517440169	-0.04574268612160485	0.09203788059837129	-0.04027004000000001	0.9076448300000001	0.92212202	0.1099930611566431	0.1182145665450538	-0.2638678291574337	-0.2839019012959917	0.1988971290179927	-0.1646631182990682	0	0.3885654955600466	-0.131266127870426	-0.1085281815317688	-1.057619925847485	0.07920693807759067	-0.2951295204237341	0	-0.13790737270964	0.04727491838000972	0.01506272150120489
0.98	0.007744383114308973	-0.04501238495149282	0.0892199784068901	-0.03993432000000002	0.9080322900000001	0.9304624499999999	0.09371328613783869	0.1197900616472609	-0.2640704667705122	-0.2721252424262762	0.2056212813599996	-0.1624828632949194	0	0.4072145271131653	-0.127650988120862	-0.1114852565805744	-1.026050790121057	0.08347058004347442	-0.2964187349283232	0	-0.1381909272774994	0.04577871742544507	0.02144359410834908
0.9899999999999998	0.007313316832545201	-0.04288690472060014	0.0843162522111148	-0.03950723	0.90834605	0.9387971199999999	0.07675397223622518	0.119934080457549	-0.2615759661072065	-0.2592456593876774	0.2101093128028964	-0.1573775258252859	0	0.4220798085918042	-0.1236414954156001	-0.1172484721752693	-0.9883177838093731	0.08764185290215731	-0.297207473651909	0	-0.1386493900163474	0.04250524978796968	0.02836622703822196
1	0.01332378635673242	-0.03513468265241291	0.07398985151637168	-0.03883982	0.909548	0.9472374299999999	0.0547136636701874	0.1139071515469971	-0.253496740832083	-0.2514685106380342	0.2116712065542428	-0.1461850715913126	0	0.4228599121243827	-0.1163449000371474	-0.1322466812458657	-0.9405130389699281	0.08689301886299038	-0.2929277842562178	0	-0.1471048440500844	0.03318331099005094	0.04016563592567128
1.01	0.01177614199594531	-0.03607123367756446	0.07049019700412555	-0.03872731000000001	0.9093062200000001	0.95543421	0.04092944366808986	0.1161412187171763	-0.2539051600943544	-0.2415164962864395	0.2185098362636184	-0.1444571760841506	0	0.4378802329458056	-0.1143895968550968	-0.1357535940011782	-0.8981474334990092	0.0899426078813247	-0.2905062559834709	0	-0.1465129768953273	0.03403526379381468	0.04519836769842184
1.02	0.01514590186265545	-0.03036292498228539	0.06198273096549005	-0.03832545000000001	0.9098204	0.96377567	0.02170155115379996	0.1110459310279086	-0.2503859061159011	-0.2329029429986739	0.2229356535254657	-0.1345568824705436	0	0.4393580301015396	-0.1081811334565182	-0.1475017045203187	-0.8443568776117942	0.09206082428454666	-0.2753362733532225	0	-0.1518223416091898	0.02693639484645827	0.05351676346946072
1.03	0.01735200841123794	-0.02897798823129579	0.05524398129440487	-0.03799395	0.90987905	0.97209264	0.00398062722836198	0.110562085616683	-0.2479029825705898	-0.2239504727755769	0.2298800044598859	-0.1263059995256304	0	0.4422078579839357	-0.106551482532951	-0.1579416516697143	-0.7895528304954961	0.09597740752867132	-0.2547039004272187	0	-0.1552609303093403	0.02472942461104804	0.06050409453297455
1.04	0.0143791369135151	-0.03209798132175383	0.05190324683403798	-0.03803049	0.9089939500000001	0.9801369999999999	-0.008467605190522349	0.1148146325245118	-0.2474374830132635	-0.2130876388061413	0.2373842652213932	-0.1237836629551505	0	0.4534289647646403	-0.1067407734387065	-0.161680214820794	-0.7368428810774863	0.09625144970304152	-0.2445973349014319	0	-0.1528797030852854	0.02765225263473803	0.06548839900403589
1.05	0.01601869380324415	-0.02856105376597323	0.04204370100986936	-0.03771285000000002	0.90885266	0.98850786	-0.02324117398029206	0.1106021227715921	-0.2454307985597647	-0.2091771420487172	0.2419528933511533	-0.1148804467962094	0	0.4504085251882752	-0.1045553899590837	-0.1804861834131923	-0.6725666322630494	0.09439993479388878	-0.2141919742482581	0	-0.1559550941786165	0.02317471533303463	0.07241019958638849
1.06	0.01652806659728123	-0.03035129212160471	0.03585804666322399	-0.03755030000000001	0.9081342600000001	0.9969169999999999	-0.0387263171712913	0.1127368494659391	-0.2437479904922353	-0.2011795688610555	0.2481461849516101	-0.1068772613278051	0	0.4510551831151743	-0.1067523577125507	-0.1960428299511189	-0.6109697671886477	0.09043567753218004	-0.1906708866314592	0	-0.1570381018718068	0.02459135842070685	0.07785723395178604
1.07	0.01602342725201826	-0.0322208658049055	0.02946587128215258	-0.03742101	0.90731202	1.00554616	-0.05363690111412664	0.114332049859	-0.2430406221599702	-0.1929927517169953	0.2532703372451131	-0.09761427643589313	0	0.4507894303820865	-0.1088811429570582	-0.2130473623665919	-0.5482431730041775	0.08646347465905158	-0.165163485346059	0	-0.1562314808537709	0.02592728264846822	0.08285061029523338
1.08	0.01257392212720652	-0.04206171032378276	0.02690287649062502	-0.03768812000000002	0.9055118	1.01362762	-0.06274981317217417	0.1244224127952089	-0.2457859266367874	-0.1886386615532854	0.2612176402379283	-0.09740549613651228	0	0.4592811134368376	-0.1159155232102839	-0.2177936730427195	-0.4945772205355855	0.08755773204646847	-0.1591186456921903	0	-0.1532885989969755	0.03704458771723965	0.08388665327264755
1.09	0.01134239502204307	-0.0374374620983014	0.01707041167305939	-0.03744534000000002	0.90473857	1.02270399	-0.07942816833412476	0.118565117845179	-0.2444400945239283	-0.1760347075424126	0.2655476483486191	-0.08109830182062618	0	0.4526664476932035	-0.1128657095680748	-0.2478896320235425	-0.4264332945225269	0.06802321223520659	-0.1174955563430791	0	-0.1511842827449822	0.03028316421812231	0.09038538744058013
1.1	0.01175601905756884	-0.03896598527945911	0.01007419481962118	-0.03754278	0.903467	1.031452	-0.09606592190168622	0.119123313409875	-0.244567298134071	-0.1672990436897946	0.2748498719073074	-0.06598437899141892	0	0.4489766200689589	-0.1136686922727519	-0.2683846346219778	-0.3668534150094023	0.06133110710532608	-0.07819600619932249	0	-0.1516669046804022	0.03141654804764456	0.0955632466567596
1.11	0.007540041007189509	-0.04851748637453106	0.007364493849213724	-0.03788775	0.90137786	1.03963529	-0.1040335014316194	0.1284061664318599	-0.2475027031748838	-0.1639915454480309	0.2821111179106889	-0.06562512739950542	0	0.4559582899825109	-0.1198928049915356	-0.2713210313588715	-0.3197019109551962	0.06364317024725005	-0.06849512849552775	0	-0.1476665199758418	0.04205534509657589	0.09612466828804495
1.12	0.004300169276984749	-0.04424205334311443	-0.0007271838042390826	-0.03826727000000002	0.90004412	1.04889985	-0.1157701222737612	0.1212016373459829	-0.2510120208193726	-0.1576415196155536	0.2885890114510893	-0.04777080813387043	0	0.4522623111198506	-0.113499688201557	-0.2988390861510225	-0.2599264952246537	0.04098504532020235	-0.006081637477686085	0	-0.1431396090549288	0.03691422052329485	0.09968937866873478
1.13	0.003996484198151696	-0.04439612924782807	-0.00815402895328322	-0.0386582	0.89839104	1.05755997	-0.1276780693476676	0.1185027903922611	-0.2528186109535789	-0.1573049213501334	0.3035291082134441	-0.03234807582252742	0	0.4512103811083872	-0.1115470928978408	-0.315832965774873	-0.2158346439317818	0.03817496329726316	0.03986855819770157	0	-0.1438161527782086	0.03603891015268459	0.1046618391609591
1.14	0.001706572101790276	-0.04726077742079729	-0.01388409500508933	-0.03924334000000002	0.89660629	1.06636119	-0.1367522139778369	0.1189793734884691	-0.2531983595176949	-0.1575475664475236	0.3105639099636842	-0.02378433335894916	0	0.4537588974431141	-0.1114270325712608	-0.3256529546952006	-0.1777455023135635	0.03149101060031873	0.07245474911554564	0	-0.1418175404725002	0.03911177331112717	0.1067427856288011
1.15	-0.00123489498175752	-0.05259007142121968	-0.01897507789079872	-0.03992938000000001	0.89448589	1.07503275	-0.1447135303937494	0.1221679811233175	-0.2539084730783406	-0.1584342029577818	0.3169342643440913	-0.02314487962760348	0	0.4600301562173831	-0.1137821477498437	-0.326581538797767	-0.1503191511345696	0.03383735445221282	0.08080015385675914	0	-0.1396251988887485	0.04472438025587733	0.1066835749848613
1.16	-0.003140142047898003	-0.04911206554593527	-0.02870116544678143	-0.04033422	0.89297649	1.08415112	-0.1503297735574631	0.1139888849668022	-0.2511890345555707	-0.1673478816674569	0.3310458458056086	-0.01457939741982684	0	0.4596876835227666	-0.1103723616947401	-0.3426793340950525	-0.1197473752570803	0.01920566312827187	0.1307283008216996	0	-0.1381608863213482	0.03979182584433519	0.1123863344686623
1.17	-0.004919378688116329	-0.05243403510548288	-0.03425953573654517	-0.04096851000000001	0.8910839	1.09319638	-0.1583847507987558	0.1144393954619793	-0.2492863380406362	-0.1712130204592144	0.3347406366226471	-0.01303185812891355	0	0.4644010312125094	-0.1128389540197076	-0.3405438199081469	-0.1044008810218594	0.02352477951176563	0.1358501721444031	0	-0.137158923690106	0.04265124605630023	0.1121565594291763
1.18	-0.005572324083911995	-0.0549242812818148	-0.03969767941073435	-0.04190266000000001	0.88945599	1.10239596	-0.1654532072093633	0.1130060108270561	-0.2453193723769942	-0.1796219536144041	0.3417280570470187	-0.01086722504330064	0	0.465904813179213	-0.1143658917931962	-0.3379868432644039	-0.09192344976818803	0.02517915930737269	0.1435896380137653	0	-0.1372830476667835	0.0453606922200365	0.1141755666053259
1.19	-0.006670218904440092	-0.05583653202110873	-0.04302877241847185	-0.04277223000000002	0.88775702	1.11200153	-0.1743412358622193	0.1108388716231703	-0.2449311090495895	-0.1845061076023275	0.34223197898063	-0.01067512852077254	0	0.4702482587543478	-0.1152754285940368	-0.3376698534240641	-0.09109601360442705	0.02472004049925884	0.1440113348683213	0	-0.1354623800558964	0.04525375066077905	0.1141179038938998
1.2	-0.007949820297842263	-0.05674897469426981	-0.04670761946611344	-0.04373101000000001	0.88614899	1.12186246	-0.1831540160406391	0.1081007921113245	-0.2439009422467009	-0.1893537908411354	0.3434376985045999	-0.01035023356065162	0	0.4723960874608568	-0.1165456242457669	-0.3375145542017545	-0.09302920608284879	0.02370866373656432	0.1439449469068985	0	-0.132972897737789	0.04554001537590096	0.1138789857725943
1.21	-0.00252353820216171	-0.05635267323986329	-0.05706094111197178	-0.04411279000000001	0.8851298200000001	1.13138283	-0.1960732873428296	0.1015310486991758	-0.2342913061674102	-0.2003314309979708	0.357356880628964	-0.002270429185282269	0	0.4709673579681145	-0.1216643827737495	-0.3533709247358627	-0.1101097133787927	0.02251302750328194	0.1331415948055685	0	-0.1416662843054029	0.04281148316412951	0.1196384263946501
1.22	-0.003168114782465174	-0.05480583542847492	-0.06244696690943126	-0.04496514000000001	0.8837876	1.14142847	-0.2059565050041009	0.09550935507824823	-0.2299770121286397	-0.204412154429731	0.3573124455934057	0.0003017986690634303	0	0.4715791913404485	-0.1228290292898993	-0.350437561206676	-0.1237940104886868	0.01990263994470356	0.1305063596925612	0	-0.1405856561941148	0.03895430080483305	0.1213779943147836
1.23	0.0008432652781813043	-0.05587133609829038	-0.06868123225076835	-0.04580084000000001	0.8827293000000001	1.15158638	-0.2208307333895513	0.09153130273413171	-0.2215618572237325	-0.2091878402189002	0.3577972847951075	0.01000115898360649	0	0.4706189398094011	-0.1268619343653463	-0.349106977162827	-0.1483120404716675	0.02571028062658001	0.103550063729307	0	-0.1451572794834043	0.03806612788123438	0.1275547567745594
1.24	0.002673499230170182	-0.05510857545533078	-0.07327978175549277	-0.04686612000000001	0.88164263	1.16214905	-0.2311976022069025	0.08497586648399327	-0.2189465054251626	-0.2185006830588893	0.3565853592293833	0.01312237369644878	0	0.4689845887141582	-0.1287522945440619	-0.3476352591634105	-0.172696052380974	0.02325836721875346	0.0909452154117255	0	-0.1460881328630642	0.03559587001577181	0.1283236900253923
1.25	0.002856145798335146	-0.05570562100299332	-0.07779236961564251	-0.04794467999999999	0.88052202	1.17269482	-0.2410433759234673	0.08042257351517289	-0.215336803772482	-0.2249692862116812	0.3523544367764537	0.01800401824997364	0	0.4697408374355864	-0.1312801760255753	-0.3444272329953045	-0.1984428123087828	0.007275471483982864	0.07107002530736559	0	-0.1455515168983057	0.03388960140697004	0.1299145585112498
