inDegrees=no
nColumns=24
nRows=115
DataType=double
version=3
OpenSimVersion=4.5
endheader
time	pelvis_tilt	pelvis_list	pelvis_rotation	pelvis_tz	pelvis_ty	pelvis_tx	hip_flexion_r	hip_adduction_r	hip_rotation_r	knee_angle_r	ankle_angle_r	subtalar_angle_r	mtp_angle_r	hip_flexion_l	hip_adduction_l	hip_rotation_l	knee_angle_l	ankle_angle_l	subtalar_angle_l	mtp_angle_l	lumbar_extension	lumbar_bending	lumbar_rotation
0	-0.03720341839352408	0.06112895185534621	0.03588551501688642	0	0.9414693900000001	-0	0.4797256899825244	-0.09454855289582167	-0.114603768476537	-0.1466777623311873	0.002416611331178156	-0.05118353227623686	0	-0.2059874811076653	0.06074217768876591	-0.147188953910199	-0.1986783162170056	0.3518447212223904	0.1737700105419926	0	-0.1387532446117569	-0.06112730867376213	-0.08998288048114984
0.01000000000000001	-0.03553655953576865	0.05962327268129373	0.03615853086994907	0.001436960000000015	0.9409165	0.01285418	0.4841776508803032	-0.09111992007732332	-0.1134789910400893	-0.1825273449262021	-0.01255858993655378	-0.05598393646547038	0	-0.2158787368828066	0.0547335768297551	-0.1461940591642958	-0.2108227082806675	0.3424664779282695	0.1787858955241383	0	-0.1380714170786996	-0.05725421065701675	-0.09306188004270952
0.02000000000000002	-0.03415595587018371	0.05739983215166319	0.03656230666226012	0.003182199999999996	0.9407159	0.02576912	0.485794948014359	-0.08594919943231742	-0.1103207945457265	-0.2066810812355931	-0.03122309383349134	-0.05656961189017313	0	-0.2233370822204842	0.04792677651541518	-0.1374672713581217	-0.2269183994090067	0.3322917979613639	0.1820072420450955	0	-0.137393307271482	-0.05446581818975796	-0.09400347260778984
0.03000000000000003	-0.04313531977610957	0.04887480757415019	0.0455503052648798	0.004173189999999993	0.9403412600000001	0.03836177	0.4898629675435597	-0.07852699916531695	-0.1194423367333264	-0.2142528794323686	-0.05618000343751384	-0.07046354800144003	0	-0.2095661663396758	0.03192205543834839	-0.1272277918539456	-0.2600684892784764	0.3191148518334624	0.1863973812863736	0	-0.1236332068469823	-0.04147957563710868	-0.1048222911188193
0.04000000000000004	-0.04437140486312652	0.04321872245106233	0.0481875170866642	0.006302610000000014	0.94096552	0.05087797	0.4849700348985647	-0.07093275638342672	-0.1222391001487436	-0.2229190247264845	-0.07195879077024533	-0.06670790453470148	0	-0.2018290332773919	0.019188316998968	-0.1236942315861466	-0.2961437387569839	0.3002772781208375	0.1860832180067574	0	-0.1205364277908655	-0.03584863662656019	-0.1042740346806147
0.05000000000000004	-0.05388415378176855	0.02889808839551416	0.05657657793963274	0.007862740000000007	0.94141297	0.06339797	0.4832632030720133	-0.05781100943471234	-0.1317148808190464	-0.2257079371273275	-0.1020046945807857	-0.05381180614352261	0	-0.1787554400522898	-0.00313915285782843	-0.1103956965723063	-0.3423647219167525	0.2832223189544841	0.1891773434642795	0	-0.1060231687503784	-0.01792907468455763	-0.1115570039245312
0.06000000000000005	-0.05881016246077477	0.01836997207739892	0.0625793748511371	0.00944484000000001	0.94256529	0.07599772	0.4763924676819813	-0.04784323388730751	-0.1391571968783408	-0.2301904199939993	-0.1105124320466613	-0.0520851871701755	0	-0.1579699561977926	-0.02142453528745022	-0.1020964950597162	-0.3915624438773445	0.2544732392840715	0.1960450728737407	0	-0.09680004211712714	-0.005026450681838482	-0.1142291756150314
0.06999999999999984	-0.06395935842412914	0.007861221901997837	0.06879283666658953	0.0110172	0.94392025	0.08827602	0.468500954313239	-0.03643632685935145	-0.1392051236196005	-0.2297590819406553	-0.115963073309491	-0.07615746145846018	0	-0.1308018777943113	-0.04033290339426052	-0.09346845955341641	-0.4497192976337223	0.2222441130605882	0.208720063181433	0	-0.08823525420132695	0.006663018170698459	-0.1157579840324123
0.07999999999999985	-0.06720249440514491	0.003715130863120707	0.07001312986295573	0.01301407000000002	0.9455312100000001	0.10092071	0.465742482374413	-0.02846094378779968	-0.1237501995828691	-0.2450928862359507	-0.1147367519190305	-0.120874873312766	0	-0.1072948364127995	-0.05154771232889215	-0.08639189975362484	-0.5030269621066809	0.1761024521482629	0.228100241432546	0	-0.08131651492648234	0.01083326547391289	-0.1127824578863535
0.08999999999999986	-0.06968837522064722	-0.001235269547412515	0.07242779399840425	0.01483108	0.9471431	0.11321998	0.465036268751981	-0.02002447754006093	-0.1076935996409843	-0.2678067119498124	-0.1067618725495009	-0.1540708569639828	0	-0.07863402345318095	-0.06375690235902824	-0.0763607928399163	-0.5618870721996061	0.1190288984277249	0.2525994578133877	0	-0.07586043504317048	0.01622178907240072	-0.1106019953625567
0.09999999999999987	-0.06543609339329291	-0.00371789821037718	0.07314379418668486	0.0162651	0.94957543	0.12565806	0.4526809213596245	-0.01327493257729975	-0.09410202681279389	-0.2827832216908845	-0.08936102123946059	-0.1626182142765433	0	-0.05607316939053832	-0.07103032936432532	-0.06427194937035761	-0.6175774151378925	0.0504840629551004	0.2573877632057134	0	-0.07877915613259762	0.02034309001300637	-0.1051988387490872
0.1099999999999999	-0.06495553220350957	-0.008498013900251948	0.07343072063273394	0.01788861999999999	0.95142295	0.13760895	0.4442446261541524	-0.004471134386809541	-0.08529444038516223	-0.2958986552600957	-0.07423314799354215	-0.1696256272729635	0	-0.02550507353977677	-0.08053051165743323	-0.05070516789699421	-0.6759498715111644	-0.02114396261461785	0.262946656421003	0	-0.07828729302785417	0.02611338396501572	-0.09831799458656065
0.1199999999999999	-0.06719946991893824	-0.0154600097756353	0.07248949361159991	0.01957045000000002	0.95280727	0.14916786	0.4359555794907492	0.006213226402107271	-0.08201781056014809	-0.3020435480077301	-0.06257210619119706	-0.1736033467827917	0	0.009912687545691197	-0.09080504697230028	-0.03624971328866849	-0.7333271989153473	-0.08494855051040323	0.2661339896164315	0	-0.07497834406841622	0.03395389497329038	-0.08847773244524068
0.1299999999999999	-0.07689343993508112	-0.0266137715312766	0.07442102002092517	0.02096144	0.95302882	0.15991252	0.4335703823407777	0.01923631442606247	-0.08436967384126869	-0.3013864692434661	-0.05769967627799101	-0.1770180979505514	0	0.05927941078495123	-0.1057838792230081	-0.02215562054985486	-0.7971965929806543	-0.1228047672934344	0.2719393589268194	0	-0.06397868972465956	0.0463505260347078	-0.08518104302753458
0.1399999999999999	-0.07645258111228329	-0.03371527214488734	0.07380403752835227	0.02258614	0.9544905	0.17096829	0.4157361669991977	0.02995152146604733	-0.08827592752874835	-0.2928935131455585	-0.04232007384499158	-0.1758587900475175	0	0.09199273951402513	-0.1171888496336261	-0.01461501138681256	-0.8490782325230793	-0.1319647255741341	0.2606356907421127	0	-0.0652900664200904	0.05353080324702961	-0.07388762236899801
0.1499999999999999	-0.07671795703268525	-0.04344080157502263	0.0751563723746691	0.02411693000000001	0.9555858300000001	0.18177692	0.3987508881833681	0.04229803888865223	-0.09552550042102671	-0.2835107293773885	-0.03251368156313582	-0.1719869628050005	0	0.1265785630570583	-0.1311997954104735	-0.007731054953163868	-0.9015535613440007	-0.1102425311895403	0.2393334690013069	0	-0.06610662167769568	0.06294406552539433	-0.06597577957966141
0.1599999999999999	-0.07638564147184677	-0.05023525410149044	0.0767172926733186	0.02550226999999999	0.9568168300000001	0.19243614	0.3798182512733088	0.05145828829027112	-0.1029076656275132	-0.2721022379395374	-0.02192572002119564	-0.1702952242367545	0	0.1604620680289511	-0.1422265643168245	-0.004875410237436743	-0.9507896159709541	-0.0804867831311562	0.2112988335770128	0	-0.0682222377148651	0.06986705415336877	-0.05875406894902897
0.1699999999999999	-0.07535328913493815	-0.06040172444890032	0.07763925741835709	0.02731649	0.95799429	0.20291022	0.3608705670071035	0.06429757743602804	-0.1128920851582639	-0.2607027091164613	-0.01234381495479112	-0.1634128310945168	0	0.194989041513068	-0.1587702790206898	-0.005568281166803114	-0.9961315567225729	-0.05758366668607191	0.1722645921545823	0	-0.07088268917037231	0.07867636339550509	-0.0506314966766029
0.1799999999999999	-0.07465181375409571	-0.06707700233527727	0.0790663765103214	0.02882783	0.95929588	0.21346422	0.341908906667847	0.07327561743079847	-0.1201162727601708	-0.249854121746111	-0.002257339914024012	-0.1556394702329492	0	0.229011865647172	-0.1696752363370893	-0.004979970120396921	-1.035688425993939	-0.03632176973043585	0.1298629290539819	0	-0.07269176447890063	0.08381372154826032	-0.04350845823523194
0.1899999999999999	-0.0749476991894143	-0.07166968748034692	0.07941079358909929	0.03025794000000001	0.9605566	0.22384298	0.3232175852633537	0.08055406347942549	-0.1258101237344037	-0.2374588551831027	0.006422174602162155	-0.1482066072259496	0	0.2629594985536391	-0.1761902882863304	-0.003864694779995808	-1.069378110930667	-0.02326102448253962	0.08388007215963705	0	-0.07317085474057919	0.08652979751969322	-0.03512002187771175
0.2	-0.07376385509803374	-0.07538866620681245	0.07783229971100612	0.03179235	0.96203481	0.23429886	0.3034246827208363	0.08708142593401269	-0.1315119300939002	-0.226315821517696	0.01538892039680998	-0.1361037623760655	0	0.2938700587214368	-0.1800432315899396	-0.002183599753127252	-1.097919267432895	-0.01458769907841395	0.0390863326938184	0	-0.07534729934190498	0.08883987814211984	-0.02707526319012368
0.21	-0.0718614580184205	-0.07637160747523275	0.07513379899744013	0.03333944	0.9636350300000001	0.24495986	0.2817478737035785	0.09154908048335961	-0.1335662753004808	-0.2144214759691832	0.02689974467749564	-0.1240851844659287	0	0.3216208406029706	-0.1807160806257259	-0.001900430728499609	-1.120360651613843	-0.01041561045283867	0.005292478653349363	0	-0.07800204182542891	0.08805977059528397	-0.01839305109304562
0.22	-0.07050979785330498	-0.07405984244655632	0.07151629277639034	0.03486957000000002	0.9652322200000001	0.25559535	0.2593726629830877	0.09279371962791853	-0.1338632624458623	-0.2001502904307562	0.03710137252805205	-0.1172826750435548	0	0.3479643731079323	-0.1776561351726761	-0.002424176111755075	-1.137463283750583	-0.001413044218754614	-0.01116807983830459	0	-0.07920144535190173	0.08315837013635699	-0.006922238485461936
0.23	-0.06919876547679724	-0.07385488217364468	0.06574303440108445	0.03657901	0.96662282	0.26623574	0.2371664024031179	0.0966802209006546	-0.1325918244687707	-0.1854871772461599	0.04572523983903225	-0.1063948809459536	0	0.3727511902534383	-0.1775462543044254	-0.005452958187411738	-1.150064084824162	0.002818295891464922	-0.02988291187501974	0	-0.0802770617502427	0.0809854134010084	0.002829875627453129
0.24	-0.06511840671509841	-0.07234318332486236	0.05938968961602385	0.03807052	0.9682093900000001	0.27680692	0.2132996579130152	0.0989313638486365	-0.130075670727166	-0.1729502279960675	0.0507064332607019	-0.09052753787590391	0	0.3927741360925477	-0.1759906667767324	-0.01098034035572117	-1.156858491904549	0.007892054769876262	-0.05335070080165414	0	-0.08639384544667496	0.07905206000322965	0.00941477111550307
0.25	-0.06372494546613376	-0.06859656895390422	0.05447577561273637	0.03925848000000001	0.96944772	0.28746931	0.1924729125551387	0.09782567158755931	-0.1304635446716147	-0.1612684075253786	0.05954960625365002	-0.08534073855969697	0	0.4143115214023722	-0.1713780841005571	-0.01602123904764059	-1.158527703159074	0.01490065476472075	-0.05624608561725163	0	-0.08753928269454442	0.07457542992367144	0.01738724437412592
0.26	-0.06013932310698693	-0.06542545391941575	0.04677758433832639	0.04089382999999999	0.97079728	0.2980463	0.168009664094055	0.09826281670039055	-0.1237263247004323	-0.146947983630759	0.06525230744345398	-0.07074465806114909	0	0.4307268172233366	-0.1687687060404181	-0.02420433724413071	-1.153992336816067	0.01404391696627974	-0.06018336707004156	0	-0.09256199854631655	0.06934885333208105	0.02532678326976364
0.27	-0.05924843373168207	-0.06269526672473087	0.04238887930628966	0.04187961000000001	0.97149328	0.30844157	0.1496711105578371	0.09766570326043483	-0.1255023462654546	-0.1383091157384567	0.07293365681578447	-0.06865715439130739	0	0.4511231499014384	-0.1651311885518496	-0.03057299690983407	-1.146947622642873	0.01772092654343186	-0.06016242835500537	0	-0.09347343862870652	0.06608739251266184	0.03066424254859541
0.28	-0.05264328039335176	-0.05725858731452925	0.03214873206067122	0.04352384000000001	0.9728763500000001	0.31899857	0.1226673461767847	0.09521264177502632	-0.1160884698057262	-0.1255262468042315	0.07933152247212483	-0.05437778098976054	0	0.4590956252544564	-0.1609204321566964	-0.04255948013488887	-1.130569869726784	0.02969032474043889	-0.05389655200161659	0	-0.1025864138676729	0.05889155429379508	0.04046417414515906
0.29	-0.05256717580355408	-0.05511554355441432	0.02777112256628124	0.04444914	0.9731964400000001	0.32933188	0.1052134968968101	0.0948399305529873	-0.1137690766300097	-0.1166245541431944	0.0887823159616586	-0.05138956298391412	0	0.4765771156628607	-0.1566297758101174	-0.04735607427036528	-1.112395420249886	0.03537038621731769	-0.05146325602092107	0	-0.1029558765083752	0.05634682916326939	0.04521646920622598
0.3	-0.04640558638328603	-0.04954303844390573	0.01959856851924607	0.04550736999999999	0.9740315700000001	0.33971856	0.08124755539693973	0.09088890637766717	-0.1043792984548622	-0.1085307354720633	0.09630009168022877	-0.04552092723347068	0	0.4826496470597074	-0.1507332622645977	-0.05853977183841549	-1.086801391990524	0.04728477320709818	-0.04304957295217201	0	-0.1107147382217148	0.05006591103878815	0.0524670959283067
0.3100000000000001	-0.04664573995714384	-0.04887409930556254	0.01578354084853555	0.04629659	0.97377744	0.34982685	0.06464594969258217	0.09166141336467647	-0.1052179331747028	-0.09970368164195487	0.1056047461334991	-0.04403720468492606	0	0.4980221341344123	-0.1481529160112363	-0.06445212337423242	-1.05974842991945	0.05297826359630767	-0.03858235490967103	0	-0.1110041495909452	0.04898674551341324	0.05721228139066562
0.3199999999999998	-0.03906162706935355	-0.04307698658708025	0.00761900500621338	0.04737588000000001	0.97448846	0.36035455	0.03992187818088292	0.08703550736859027	-0.09730722484937997	-0.09304758335267471	0.1129761930985163	-0.03916909865040893	0	0.4979802554826095	-0.1417815971618846	-0.07621234281319038	-1.022778551369908	0.06176753610956522	-0.02488789614380599	0	-0.1209043215551032	0.04205170608508548	0.06301568738017796
0.3299999999999998	-0.03785776279125937	-0.04130303644488697	0.003144191380125554	0.04804350000000002	0.97405955	0.37030026	0.02285551730212514	0.08629695349325051	-0.09622424316159559	-0.08533209027872042	0.121028818159576	-0.03756188288717852	0	0.5073668147470175	-0.1375081401624194	-0.08243103122319176	-0.9849305899942389	0.06397300291835778	-0.01396833146876485	0	-0.123437477945215	0.04078931816376424	0.06788280817633234
0.3399999999999999	-0.03387149428077807	-0.03883735088939318	-0.001177305760081849	0.04858223	0.97399813	0.38074215	0.002404636627180223	0.08453131593914581	-0.09363591743742704	-0.07834002308974834	0.1268427488335437	-0.03639540883676892	0	0.5096062812677705	-0.1325998589174493	-0.08999314912580393	-0.9400663781474821	0.06988581120683995	0.001882168824937216	0	-0.1283230332579948	0.03713657407373552	0.07174683711321851
0.3499999999999999	-0.02998510812090214	-0.03494055933978846	-0.006657079038963768	0.04917521	0.97369717	0.39091608	-0.01642403800065475	0.08109096672537881	-0.09170653099850515	-0.07359308182616194	0.1325757992046447	-0.03657702343540832	0	0.5099500338123276	-0.1261112103091323	-0.09894806298438664	-0.8911372721326158	0.07573283314889255	0.01874500825588335	0	-0.1340747982710662	0.03227579981834015	0.07524784664140198
0.3599999999999999	-0.02971608030624989	-0.03613029223424702	-0.008054988844202643	0.04933175000000001	0.97282464	0.40116092	-0.03171537040673457	0.08310339488291305	-0.09096037534160831	-0.06811489333361628	0.1430600009225539	-0.03740329092670217	0	0.514781914665555	-0.1218097657333809	-0.09958885468513691	-0.8400193860528696	0.07532342044521088	0.03248160834560362	0	-0.1348261574525949	0.03352636348304498	0.07938255607398607
0.3699999999999999	-0.02515198883187622	-0.03228472834113509	-0.01244241894247196	0.04992344000000001	0.97249856	0.41151977	-0.05000785964253756	0.07949533855211824	-0.09061550962605437	-0.06606831152608147	0.1486041740309321	-0.03948401102534015	0	0.5097584481476717	-0.116233583461054	-0.1107462696890472	-0.7816791259428423	0.07239073584910319	0.05510388525701292	0	-0.1407148992214884	0.02836913336049239	0.08004299058280291
0.3799999999999999	-0.02132287658228422	-0.03093342375241157	-0.01384005403481825	0.0499848	0.9718764200000001	0.42181278	-0.06724851014759706	0.07841554680260773	-0.08981963372755843	-0.06462806547826991	0.1570699359792314	-0.04139475298452761	0	0.5044444818732363	-0.1096654998570239	-0.1137327980416448	-0.720222979610179	0.0721879463923798	0.06829277990897344	0	-0.1458851495002609	0.02591704541974064	0.08177779916459914
0.3899999999999999	-0.02297790674343499	-0.03569751786059879	-0.01400389387349008	0.04986974	0.97048723	0.43203463	-0.07703351115054159	0.0839358862183195	-0.08730799864338713	-0.06635387933123306	0.1646015067802094	-0.04421217935295918	0	0.5052253189676995	-0.1081573142500845	-0.1117609622282547	-0.6584684453308766	0.0702379174207958	0.07705997784691762	0	-0.1454032454187623	0.03223682574347849	0.08267258409353608
0.3999999999999999	-0.01858068428724564	-0.03183670199982218	-0.01570720733440474	0.04985876	0.96984165	0.44250572	-0.0927200025053679	0.07978802066836682	-0.08823523517723811	-0.06941353802668676	0.1752308225025122	-0.05339723215217693	0	0.4930675245207116	-0.1004018578486485	-0.1205782099259607	-0.5872688619642072	0.06231315587886887	0.09479322885832951	0	-0.1509362082773549	0.02682094829775585	0.08267027641919909
0.4099999999999999	-0.02067105740990193	-0.03831508058954423	-0.01670607913378661	0.04957275	0.96815848	0.4527389	-0.1005510316634153	0.08664999468008663	-0.08317741900887911	-0.07452167029205151	0.1827868963299247	-0.05487723662581602	0	0.4897312625547433	-0.1009696951357313	-0.1177427181780405	-0.5193320054787967	0.06252012155942641	0.104514059166133	0	-0.150218540233575	0.03488128055825947	0.08426697238489603
0.4199999999999999	-0.01629915173239739	-0.03480899731170825	-0.01827281448119345	0.04937219000000001	0.96731548	0.46329864	-0.1147016060493502	0.08285835850991467	-0.08639403394223417	-0.08075287934504084	0.1949170257374722	-0.06606805007575953	0	0.4731403714266638	-0.09399970671086282	-0.1305923599187886	-0.4417580026853597	0.05051585255662915	0.1266271488346436	0	-0.1558679701348837	0.03003633434478459	0.08458866396770784
0.4299999999999999	-0.01924842030797344	-0.04223175009949078	-0.01902972556537576	0.04896402	0.9653825700000001	0.47369352	-0.1212830709182224	0.09074027309136977	-0.08341329763929226	-0.08634418315000701	0.2018797174643369	-0.06850632879693658	0	0.4678607602132246	-0.09663552092411594	-0.1334159500920065	-0.3719367002439369	0.0497598541154157	0.1372646719677539	0	-0.1539927445787768	0.03861782052367032	0.08532177834990086
0.4399999999999999	-0.0164783402100772	-0.04069000315375396	-0.02190617274783706	0.04878887000000001	0.96412571	0.48454823	-0.134432289872962	0.08896574430645666	-0.08604147760786425	-0.09198562625012573	0.2129457758265454	-0.07713543558633126	0	0.4504702356673026	-0.09193696175819112	-0.1539148048066339	-0.2934687076935701	0.03321494403554578	0.1612567944536017	0	-0.1572341173566373	0.03545274045073766	0.08798499719947002
0.45	-0.01578548856841514	-0.04346697312655984	-0.02503284068770846	0.04839556	0.96245289	0.49521384	-0.1448584443834107	0.09111564244985959	-0.08479314656833857	-0.09846641092843202	0.2221004508210663	-0.07991689246420848	0	0.4369512130345249	-0.09010165153301146	-0.1723583645065017	-0.2203726729490959	0.02225606040858278	0.1797345861687536	0	-0.1589649266909855	0.03800730138426298	0.09061042862353597
0.46	-0.0149567887339363	-0.04647729370479586	-0.02673165545423697	0.04789536999999999	0.9607157000000001	0.5060154499999999	-0.1549623603248601	0.09322981911399492	-0.08728953445616444	-0.1064508897833805	0.2320825935698077	-0.08029887592243166	0	0.4236718837983064	-0.08712683695768862	-0.1910232769850172	-0.1510902435322202	0.00992678369739493	0.2006431960206619	0	-0.16089891765754	0.04052641607694369	0.09149057460337182
0.47	-0.01736597143928939	-0.0497770975289973	-0.02810482699505625	0.04708971000000001	0.95847773	0.51711135	-0.1613782698931393	0.09524433224185357	-0.09213791390681091	-0.1153719384948881	0.2426222248503651	-0.07779035310938254	0	0.4155056566524978	-0.08327777107754565	-0.2108549972208952	-0.08849722969284764	-0.002831701590916566	0.2226435379430924	0	-0.1580181693475827	0.04441871742784999	0.09215548867424682
0.48	-0.01875668476120394	-0.05115860987049341	-0.03077433193484685	0.04635859000000001	0.9564342	0.5281191599999999	-0.167076227976168	0.09424395122797956	-0.09656774053901596	-0.1278760771258393	0.2539623264341413	-0.07036247179566683	0	0.4085219399913319	-0.07755004308799857	-0.2294013953854821	-0.03543263094162911	-0.0173482566856961	0.2434860492091679	0	-0.1564010858418273	0.04525391367453119	0.09347472947422128
0.49	-0.01770140292849654	-0.05368101245935505	-0.03309461123227085	0.04557413000000002	0.95452642	0.53937342	-0.1749263643007345	0.09342953783843232	-0.1051536584579384	-0.1418863219784591	0.2673803800243619	-0.05502143258702313	0	0.4018778239109654	-0.07369935527338171	-0.2452003191053926	0.005749176515257768	-0.02386937243235748	0.2642892118527244	0	-0.1581423111266185	0.04738647354261188	0.09444374360531138
0.5	-0.02032369311699211	-0.05791276173754301	-0.03364903345277372	0.04472215000000002	0.9523765900000001	0.5505567299999999	-0.1817263581800575	0.09540986083890905	-0.1070261160963845	-0.1493706648680098	0.2691720507350564	-0.0530434720642219	0	0.4063523609916847	-0.07234716771858443	-0.255127400381425	0.02600208274781972	-0.01788005397092272	0.2649046406033176	0	-0.1555177422442689	0.05209511268309867	0.09065634247656941
0.51	-0.01819071298550736	-0.05464650829009758	-0.04154308992509013	0.04459844000000002	0.9509519900000001	0.56197647	-0.1851471644185912	0.08537590973665145	-0.1167066355816523	-0.1747886541575607	0.2904353476192855	-0.01812084291065343	0	0.4026496311954776	-0.06748154109880267	-0.2757027614292806	0.0428025519652812	-0.02020197351073147	0.2850463026909501	0	-0.1589268247571511	0.0450490282519091	0.09816032503259399
0.52	-0.01909867084700072	-0.05618341909433042	-0.04246314932464389	0.04387497000000001	0.94936067	0.57373281	-0.1946007719024779	0.0840032643050269	-0.1159740715017725	-0.18156726496102	0.2895796463718872	-0.01734077602998912	0	0.4066493978789499	-0.06742492785385572	-0.2755860135630879	0.04292324165758953	-0.01933045574058579	0.2845121120357202	0	-0.1561751578570786	0.04483424873229037	0.09729855963870968
0.53	-0.01916686224235358	-0.05591006592192545	-0.04619275442684932	0.04344247000000001	0.94788264	0.58528973	-0.1989488204344491	0.07842476947144111	-0.1184570769030258	-0.199968593801642	0.2945366099111502	0.007027254772021509	0	0.4177581070266224	-0.06993315675345881	-0.2735729335250781	0.01784267791952418	0.003822267047610302	0.2662695458487754	0	-0.1573343317188259	0.0416486292756544	0.09753898869154863
0.54	-0.01713771074216278	-0.05672056668611952	-0.0496078090113288	0.04308368000000001	0.9468241000000001	0.59717837	-0.2081067677467845	0.07466209616754138	-0.1173177313778445	-0.2134099251971622	0.2925544637397368	0.01661014769478266	0	0.4248645838641881	-0.07422997289056692	-0.269875588942278	-0.008450105123178453	0.004930924972152478	0.2506888284279369	0	-0.15999058792641	0.03987244172982018	0.09677494969300415
0.55	-0.01568079235455458	-0.05475422432110889	-0.05224467069909423	0.04263989000000001	0.9459375	0.6094949199999999	-0.2186423615571833	0.06874653427309833	-0.109444980647627	-0.2232233858879557	0.2888296872934845	0.02198479051519646	0	0.4285008482063537	-0.07566719044306043	-0.2567087528086018	-0.03322348148811484	0.002568012011537506	0.2442210590189286	0	-0.1601845552673634	0.03326336575218141	0.09835069036303704
0.5600000000000001	-0.01869160837573322	-0.05655334224389541	-0.05487193965864159	0.04205141000000001	0.94445248	0.62201462	-0.222277227890618	0.06613475237098056	-0.1060410789700965	-0.2379720305033423	0.2851825109783025	0.03881815011334593	0	0.4421417461336006	-0.08043469220883412	-0.2339765452870581	-0.07470806761644015	0.02750533326176611	0.1798264632676382	0	-0.1547333310645634	0.03264642467379136	0.1011651755026131
0.5699999999999998	-0.0168398714341581	-0.05317681023619361	-0.05772962371094738	0.04151339000000001	0.94386714	0.6348570499999999	-0.2324611357623447	0.05853095199157346	-0.09963044378681683	-0.2494277147715026	0.2773437739226796	0.04182745902693931	0	0.4440850164921892	-0.07972772634949449	-0.2243226415492844	-0.1052025259316649	0.01784717685473705	0.172017217738518	0	-0.1550256967526187	0.02534316231212899	0.1013456725669325
0.5799999999999998	-0.02165015072026287	-0.05126807199702492	-0.06207314519174537	0.04077594000000001	0.9425340800000001	0.64789117	-0.2319405722888486	0.05158212742921468	-0.09323184387046014	-0.2672309276550465	0.2628180829019305	0.05166272621047301	0	0.4564979578299994	-0.07852659878678656	-0.2212058250661572	-0.1427992845115556	0.0008614250546801717	0.0994961492529892	0	-0.1456827267372134	0.02051766622237125	0.105522046848486
0.5899999999999999	-0.02663833767699996	-0.04582356228959737	-0.06257368678973584	0.03948683	0.9415413300000001	0.6607576599999999	-0.2278697631999044	0.04139624960436119	-0.09107190903666069	-0.2907027687126053	0.2513171300289612	0.05666268331786498	0	0.4651217504408877	-0.07097373845959279	-0.2162090830297803	-0.1646435931261932	-0.04960532580503678	0.0587304658143567	0	-0.1375338560181512	0.01236728055751833	0.101725639297205
0.5999999999999999	-0.02537048351728469	-0.03728091698866801	-0.06381455522928443	0.03813003000000001	0.9416403600000001	0.6737767699999999	-0.2298553452264832	0.02706258843456276	-0.08920968949960668	-0.3134534318692584	0.2330816140995298	0.06188016290432812	0	0.4653121969291409	-0.06197336034479196	-0.2114112746687433	-0.1870797271822188	-0.05822965475560414	0.05186599667993822	0	-0.136830809121114	-0.0001502944906794365	0.1001740752770366
0.6099999999999999	-0.03262324806985808	-0.01476010620863581	-0.06821451568924941	0.03647343	0.94099772	0.68643099	-0.2088188228116901	-0.005539302418034701	-0.09351105483741012	-0.3618346889803002	0.2320166311196566	0.08896936586465455	0	0.4647907737064552	-0.03818158472737937	-0.2061370828771646	-0.1900166459470918	-0.08151671030033848	0.04957570931295968	0	-0.1247237414471047	-0.02834564227595809	0.09913579845271278
0.6199999999999999	-0.0356610910207525	-0.001210784216056638	-0.06803542848008652	0.03489453000000001	0.94135274	0.6993937899999999	-0.2007169925556935	-0.02458443539769588	-0.09107963927445069	-0.3917531736325354	0.2032431140471892	0.09651420657846832	0	0.4645879622585833	-0.02403763770568008	-0.205096140935073	-0.2070155669544867	-0.09896659768291113	0.05717515998280494	0	-0.1180690425628188	-0.04674506067918085	0.09718273382996079
0.6299999999999999	-0.03574782539119582	0.01295703833962749	-0.06902475571951457	0.03345859000000001	0.9420517900000001	0.71243603	-0.1899423708427793	-0.04537786242015177	-0.08829011199411224	-0.4320371313623187	0.1752208912300024	0.1080576360530422	0	0.463533852854483	-0.009953372741351512	-0.2051300476209844	-0.2307955659627715	-0.09990755983506563	0.06118610096228019	0	-0.1151423755129062	-0.0659918624396527	0.09471532905422647
0.6399999999999999	-0.03197126341200965	0.0197678772441594	-0.06883181365356141	0.03215621000000002	0.94348687	0.7254642699999999	-0.1827463083491037	-0.05641088135055418	-0.07980662046767238	-0.4716083797032601	0.1383988874466648	0.114674682425776	0	0.4586355433736612	-0.002017379482089217	-0.2015521451691434	-0.2545033582564402	-0.09116788486676076	0.05421643594692212	0	-0.1181864241580629	-0.07571229603411726	0.09081263706015134
0.6499999999999999	-0.03997731018291963	0.03307786324753977	-0.07128561400876986	0.03055650000000001	0.9431967600000001	0.7383406699999999	-0.1532978954932362	-0.07703976344352101	-0.07414227550617489	-0.5268272027454985	0.1065473792638795	0.1378074543552926	0	0.4695785029655949	0.0132527723063201	-0.1911840108135516	-0.2845694040392132	-0.07572146337601336	0.008958949932477945	0	-0.1039746560850921	-0.09207260211540497	0.09421847797301376
0.6599999999999999	-0.0338695968340982	0.03765831806237913	-0.07035169814780758	0.02877004999999999	0.94485301	0.75123602	-0.1414432996439047	-0.08680445666795399	-0.06844508414628654	-0.5729180564251665	0.05207436054375954	0.1434573682364029	0	0.4618070898914726	0.02181490505272924	-0.1844094921090566	-0.3102944611468394	-0.05969558978107704	-0.003048110724457875	0	-0.1091319169254395	-0.0988534858611491	0.0899732197346742
0.6699999999999999	-0.0355288524882364	0.0450292566217582	-0.06806126654901508	0.02675808000000002	0.94580394	0.76400141	-0.1174415678987942	-0.09820222724634171	-0.0602486961402071	-0.6220396727801265	-0.01369934882936327	0.1512240837568435	0	0.4601060558741633	0.03508982087486816	-0.1705168080969951	-0.3313014932568604	-0.0430079791381031	-0.01524080460063581	0	-0.1046280464450479	-0.1087249508243033	0.08791123068410156
0.6799999999999999	-0.03485352617140988	0.05124359510129727	-0.06794858549750218	0.02485588999999999	0.94700109	0.77615501	-0.09001558446067372	-0.1095329733417285	-0.05225072589014063	-0.6764618388890286	-0.08199559286783605	0.1553650001038465	0	0.452445759710468	0.04605028716639687	-0.1649276622171161	-0.3444475522929892	-0.02682928503746093	-0.02822412302865629	0	-0.1044618146548368	-0.1152119352611786	0.08308693834792892
0.6899999999999999	-0.04634097988061413	0.06521101497031138	-0.07035629968988609	0.02310186	0.9467977900000001	0.7873879499999999	-0.04117955196789452	-0.1288415679607685	-0.03923284226348196	-0.7409997382146796	-0.1225854287992765	0.1500668955561862	0	0.4532571461754935	0.06370828691084564	-0.1620056654937488	-0.3444798738708739	-0.02469064967825403	-0.05492635385615856	0	-0.09017068541358021	-0.1309363294077716	0.08511135360129878
0.7	-0.04571969427391758	0.0763639748392881	-0.07042737144255708	0.02123231	0.94800344	0.79871286	-0.01023185450974	-0.1439488379439329	-0.02887302649617104	-0.7965151394716556	-0.1310608066390897	0.1286351981356176	0	0.4385239672716746	0.07925161571391492	-0.1634982700228568	-0.3417884972754165	-0.01284492760643842	-0.06487298962659738	0	-0.09136580345860769	-0.1432117662021939	0.07925993517486041
0.71	-0.0461545813268526	0.08252426209954467	-0.07149388321766791	0.01985466	0.94949489	0.80994523	0.02091548854355628	-0.1538382073672187	-0.02271837282016193	-0.8477626974061727	-0.11336819439758	0.1130373618273438	0	0.4210559542957542	0.08781543183038762	-0.1723998351003255	-0.332770560101143	-0.0005203709636796605	-0.06414223196249334	0	-0.09123673915294951	-0.1496262721766887	0.07229987488090897
0.72	-0.04593019220815312	0.09019305346156066	-0.07326683931824597	0.01845326	0.95097493	0.8209191299999999	0.05369669749056338	-0.1660498939163169	-0.01878637796967629	-0.8977038339840712	-0.09476797115152635	0.08610106140319808	0	0.4043604847842244	0.09770234138662563	-0.1800976167475635	-0.3265498240708631	0.01300522737158784	-0.05964858108300382	0	-0.0922090838958512	-0.1578324607301169	0.06774399690493348
0.73	-0.04552965799957323	0.09801758784732514	-0.07627586458697752	0.01709956000000001	0.9525805500000001	0.8318260399999999	0.0879748067455664	-0.178995259461621	-0.01642623240312328	-0.9446212467995512	-0.08161552822459252	0.05672457094781144	0	0.3853312857879693	0.1075062443053693	-0.1902414148586843	-0.3156543267880753	0.0245666340865231	-0.05178801344909693	0	-0.09296087958422584	-0.1657022920480946	0.0633159576644154
0.74	-0.04585115017032545	0.1050530951107571	-0.07791322163940978	0.01565812999999999	0.9542719700000001	0.84259248	0.1229647391112173	-0.1903278266335494	-0.01542215286203135	-0.9876629451752039	-0.06606718264712129	0.02240903118713723	0	0.3654246701577626	0.1173711161127411	-0.1978646274881638	-0.3011900678663379	0.03177558147340157	-0.0423598343652142	0	-0.09284122609389442	-0.1722239837534091	0.05818118504241408
0.75	-0.04614003601039097	0.1085583254148205	-0.07901227947836439	0.01447374000000001	0.95615827	0.8531954399999999	0.1580369325097062	-0.2003363854641184	-0.02153813841939669	-1.025965582972442	-0.05410087874434512	-0.007558989225395055	0	0.3456219223874678	0.1234635561312995	-0.2034048870447603	-0.287217683917583	0.04062297851220537	-0.03161333898226176	0	-0.0935128258230021	-0.175360060293898	0.05261543599928975
0.76	-0.04663687174568486	0.1106548596064093	-0.07718941126680041	0.01290314000000001	0.95796415	0.8636435	0.1918259928288517	-0.2056010001104926	-0.02450788333684124	-1.059530599738832	-0.04266628974725487	-0.03933683334363891	0	0.326527730471461	0.1290514799316363	-0.2057280333765003	-0.274594802334571	0.0486499022037661	-0.02295355523873646	0	-0.094334221227689	-0.1759835179081162	0.04425971531499942
0.77	-0.04702166624566095	0.1115702426429295	-0.07369939398301316	0.01126589	0.9598380400000001	0.87424662	0.2239423437300528	-0.2096891869192002	-0.02952554157350695	-1.088232148857725	-0.03348982658595081	-0.0663106110482798	0	0.3070947930114554	0.1338610237120308	-0.2056065827206381	-0.2623988967035035	0.05973953629897763	-0.01312901380158799	0	-0.09479935374227354	-0.1752334541099583	0.03471103241637369
0.78	-0.04895596029018771	0.1097890342079659	-0.0683840378008324	0.009595090000000001	0.96159341	0.88478105	0.2554614441829519	-0.2106056305114898	-0.03729865582005123	-1.110229671200749	-0.02858071404065805	-0.09284505272827942	0	0.2895438974909503	0.1358744358861973	-0.2033797464495499	-0.2513542523094865	0.06349117022082557	-0.002037793027553468	0	-0.09392581680071621	-0.1716995091715922	0.02473985312786163
0.79	-0.04693514214015553	0.1052270545963843	-0.06497157363702015	0.008023470000000005	0.96365776	0.89508309	0.2826566696121517	-0.2089310326472947	-0.04465472276916684	-1.127879137681419	-0.02730997716232697	-0.09762094272097112	0	0.2703431322801583	0.1343890189720149	-0.2049566331027697	-0.2447186141659616	0.06840396157111567	-0.0001454293853895023	0	-0.09912899341395927	-0.1653330699137632	0.02037168950172833
0.8	-0.04955077452320189	0.1039265311223286	-0.05519280870543316	0.005847350000000001	0.96515116	0.9057959	0.3111960464021409	-0.2103806181264666	-0.0550305402386588	-1.139694574276455	-0.02656773017028998	-0.1249650874959327	0	0.2499741061508686	0.1389555891840539	-0.1934323608856645	-0.2272177214558616	0.07729568718039333	0.0162183376838049	0	-0.09552393695508279	-0.1614304957294126	0.005439508854728796
0.8100000000000001	-0.05085393383413957	0.09912230323595046	-0.04960405544800408	0.004518330000000015	0.96677451	0.9164399999999999	0.3377693801265274	-0.2060982878730842	-0.06255668306566303	-1.146339410130605	-0.02524333733289655	-0.1303735862131767	0	0.2304878420754304	0.1373484845982968	-0.1923676130016415	-0.2139603936656609	0.08449379886514373	0.02186266878023687	0	-0.09395789141451183	-0.1550842134536478	-0.003344696793177298
0.8199999999999998	-0.05155764537336816	0.09332390943569047	-0.03808932490442952	0.00235202000000001	0.9683115800000001	0.9267666299999999	0.3603377528930546	-0.2028667899935986	-0.07632381105839579	-1.147383065012486	-0.01871804030094616	-0.1416948916481065	0	0.2106276919968337	0.1361588515995096	-0.1839728405753378	-0.200651509198422	0.08989181949822335	0.03930404855537068	0	-0.09554764009712119	-0.1470831742166246	-0.01456507594611667
0.8299999999999998	-0.05288585056788925	0.0886394160128253	-0.03191438462260801	0.0007976100000000041	0.9695938700000001	0.9371016299999999	0.3852505611684719	-0.1988323783499413	-0.08404428495296945	-1.144933381611845	-0.01348016724030516	-0.1437825960308122	0	0.1908021819915002	0.1345970273122675	-0.1845519375050239	-0.1852566826074233	0.09751733491511791	0.04678237965831283	0	-0.09509931457963461	-0.1407288454494094	-0.02236843238527489
0.8399999999999999	-0.05348509546009279	0.08362771029454261	-0.02490091231641486	-0.0007172000000000012	0.97078648	0.94748349	0.4074916946486271	-0.1935731665447996	-0.09136470843903499	-1.138014844620661	-0.005791314348454517	-0.1430992924728064	0	0.1707142432326392	0.1327113042988415	-0.18085522036809	-0.1711142472153892	0.1034983590483484	0.0571718614850516	0	-0.09520977786425673	-0.1340817958196362	-0.02902603497383733
0.8499999999999999	-0.04845882650142395	0.07571323030134945	-0.01580881175082182	-0.002466090000000004	0.9724130600000001	0.9576943699999999	0.4207596212997763	-0.186733349138868	-0.102573454623444	-1.124346324763606	0.003680176128014015	-0.1332367796524516	0	0.1450054887219571	0.1275421350770078	-0.1740904863284475	-0.157588050755787	0.1071112590168834	0.07637002947138372	0	-0.1038655211705637	-0.1239011911580518	-0.03690956415938345
0.8599999999999999	-0.04479251043148565	0.07013739748390274	-0.01074483605496733	-0.003753599999999996	0.9735352500000001	0.96812575	0.4355315772307843	-0.1804675153715129	-0.1092023357247697	-1.107029623979852	0.01436586040010262	-0.1215065091907932	0	0.1204844316399218	0.1239594896929244	-0.1747689289699535	-0.1434014370661276	0.1154339336371164	0.0886211154320822	0	-0.1090799452091054	-0.1168213705596187	-0.04202584379622942
0.8699999999999999	-0.04504204439319155	0.06856683888268475	-0.005886439812876259	-0.004938890000000001	0.97380628	0.97802177	0.4563688713586598	-0.1756868079210199	-0.1097588547261862	-1.089140195147385	0.01734527653599832	-0.1186072933774876	0	0.1033793778588449	0.1244971619309462	-0.1730963956557306	-0.1339282754369003	0.1240630697480426	0.09324434339496415	0	-0.1107540301210333	-0.1147486217287405	-0.04826943700745922
0.8799999999999999	-0.04093873428657441	0.06571361840706862	-3.679967797458759e-05	-0.00612625	0.97459759	0.98835484	0.4672244337628327	-0.1703185530056684	-0.1135528275431608	-1.062180537505458	0.0288086837115658	-0.1072562627164683	0	0.08017775094500788	0.1228704497927735	-0.1719584542479326	-0.1223815130815868	0.1290260255262264	0.1080446635443109	0	-0.1166761589913199	-0.1111575242386885	-0.05343972777787035
0.8899999999999999	-0.03610683269028549	0.06367140229764823	0.002942077776522863	-0.00713606	0.9749716	0.99859547	0.4782361429212	-0.1649180325375011	-0.1140984380622194	-1.033707371176907	0.03907288039407573	-0.09480104880604308	0	0.05651777892751448	0.122270134546305	-0.172296241780705	-0.1120134258498849	0.1371784246029044	0.1169336350240289	0	-0.1234429392549774	-0.108783793029238	-0.05594022364715663
0.8999999999999999	-0.03651676120573782	0.06422750717764997	0.00675352048399424	-0.008129919999999985	0.9746582100000001	1.00863155	0.4939843604630169	-0.1613695514499268	-0.1124511158545086	-1.001922272074028	0.04532267807626344	-0.08889173012886735	0	0.04016984880141974	0.1242015138021668	-0.1754526486144529	-0.1032029406048986	0.1446814585724805	0.1216018519899736	0	-0.1241836548951287	-0.1090509006614241	-0.06247196565643586
0.9099999999999999	-0.03170615459720597	0.06081470282239161	0.01141307750776635	-0.009012119999999985	0.9749478100000001	1.01900709	0.4990985589692628	-0.1543792112642496	-0.1146364523847745	-0.9621199662256665	0.05778645910985501	-0.07097843915486719	0	0.01696987960130631	0.1213707066924919	-0.1765229571174727	-0.09395124153552881	0.1526864385884218	0.1341458605732916	0	-0.1308801170649539	-0.1055701570238502	-0.06400184081905556
0.9199999999999999	-0.03334158151646014	0.06430765933643898	0.01674440349180282	-0.009992339999999988	0.9740531800000001	1.0290227	0.5125730442901881	-0.1538291819205908	-0.1117403814802481	-0.9221930382836588	0.05939485314486344	-0.06836501419979157	0	0.005368420896163365	0.1258485780502141	-0.1789122072710331	-0.09238751920272517	0.1589927146016053	0.1349478575160072	0	-0.1302086519007315	-0.1098114755304692	-0.06797601643783756
0.9299999999999999	-0.02625634699793482	0.0603759736818086	0.01978594349323534	-0.01070014	0.97419462	1.03951965	0.5110032319800256	-0.1456639581645691	-0.1137372236730291	-0.873047556645573	0.06399198616650002	-0.05064563105101724	0	-0.02345974644944122	0.122695321884832	-0.1794214002735184	-0.07613529839495373	0.169797479023366	0.1528629234898567	0	-0.1387856527579725	-0.1046174535182187	-0.07277668242645885
0.9399999999999999	-0.02793432947605284	0.0621831284247389	0.02178849929172377	-0.01123626	0.97306275	1.04968754	0.5203951017577485	-0.1413502097157228	-0.1073987746094802	-0.8242773558777839	0.06312194267597351	-0.04560708419026489	0	-0.03701844408130816	0.1254268508269291	-0.1803079050114181	-0.0708746915481409	0.1783510525005904	0.1556038265953663	0	-0.138099476388018	-0.1066487170945076	-0.07883400868939514
0.9499999999999997	-0.02817315696728229	0.06450628515779543	0.02381360803175773	-0.01167536	0.97184466	1.06043171	0.5248984807534228	-0.1372821992622341	-0.1003868670411702	-0.7708286790987068	0.06093597241665621	-0.03926997711037786	0	-0.05279373325061988	0.1284504354866063	-0.1794808367630634	-0.06562051484335825	0.1859665059198143	0.160688471790454	0	-0.1371726828187312	-0.1098575188869332	-0.08024842316614549
0.96	-0.02346326617077895	0.06082880592311581	0.02720151845811451	-0.01236652999999999	0.9713744200000001	1.07035814	0.5199385655133288	-0.1302584252003399	-0.1030120898983906	-0.708862444584185	0.05240997095282308	-0.0244356198990246	0	-0.0698180296000095	0.1247934750301706	-0.1822931512366488	-0.0658379022339453	0.1998116431487942	0.1628616555931383	0	-0.1437443457439913	-0.1044274533106552	-0.08159429088372132
0.9699999999999998	-0.02267965853535356	0.06251861512855665	0.02940341723629944	-0.01280646999999999	0.9702654000000001	1.08059113	0.5183515917296972	-0.1272675923422081	-0.09836030834894599	-0.6462220269041966	0.04538796927278422	-0.01206643832888499	0	-0.08158686764934674	0.1264453373628646	-0.1821499717551981	-0.06885701413834837	0.2083066508812375	0.1637594435355862	0	-0.1461710775413701	-0.1065528845559391	-0.08426625522910638
0.98	-0.02229300593492993	0.06534760533412856	0.03027143573882347	-0.01308066999999999	0.9687396300000001	1.0909906	0.5165562540822444	-0.1254278851090439	-0.09284030752710909	-0.5834548091341887	0.03609689784441748	0.002711691355286034	0	-0.09574944588627814	0.1298495573884507	-0.1793136446926978	-0.06767215234613731	0.2193705492239637	0.1598161632116242	0	-0.1471326228849921	-0.1098699129935504	-0.08499991520122357
0.9899999999999998	-0.02511175595373631	0.0690872865153669	0.03348476375227828	-0.01356657999999999	0.96689642	1.10147792	0.5150087065882836	-0.1267797763069342	-0.09194753618453018	-0.5166783543496541	0.02444513456144184	0.01831904599116841	0	-0.104120905949763	0.1338075885371188	-0.1722339364934686	-0.07118420579422861	0.22911047378285	0.1537502809956288	0	-0.1442728183515258	-0.1139886493473531	-0.08811767259135057
1	-0.02679562868096087	0.07436263551799686	0.03508175146141701	-0.01391261999999999	0.9650284100000001	1.11161009	0.511792335302892	-0.1294506604680452	-0.09211948497523911	-0.4493127432557567	0.01225510894462435	0.03542495044572279	0	-0.1133688586698933	0.1394995730562497	-0.1662775923630588	-0.07445627873909874	0.2377574370358218	0.1470684668506168	0	-0.1438304145616583	-0.1200822151032791	-0.0890711669056661
1.01	-0.0311322735598345	0.0821506890651176	0.03731614348096363	-0.01429090999999999	0.96271162	1.12201794	0.5105233781367992	-0.134382086349693	-0.08763927539991798	-0.3837863812460948	0.009419441267515557	0.04618273217481617	0	-0.1189832765682754	0.1477556797716141	-0.1576943557934663	-0.08056216704314251	0.2469688094001596	0.1429701904680364	0	-0.1400457455713274	-0.1293119050471824	-0.089436162201615
1.02	-0.03458162043677602	0.08352474757463345	0.04183466964323145	-0.01476401999999999	0.96075391	1.13271462	0.5028434758169515	-0.1353545626904203	-0.1004355887799043	-0.3103210868427103	-0.006016998859772624	0.06064496895808221	0	-0.1246977622211888	0.1485271025600921	-0.1507768420888224	-0.08862459387328143	0.2608097477160251	0.1284081360359208	0	-0.1363411899861898	-0.1302213179296462	-0.09324778274078813
1.03	-0.04044096663936915	0.09054795675080753	0.0452140213968121	-0.01516365	0.95826961	1.14318055	0.5011782941786039	-0.1406401546236071	-0.1056342189849788	-0.2459756268222525	-0.004534408506313792	0.06650277249705606	0	-0.1290891024235252	0.1555827606458276	-0.1423687166720105	-0.09425276444257043	0.2667140661994268	0.1257249647568758	0	-0.131109478810473	-0.1381322072456124	-0.09230845700934029
1.04	-0.04409348838466677	0.08999876729913178	0.05172926406107312	-0.01576406999999999	0.95630895	1.15381602	0.4897510936838362	-0.1390972620972943	-0.1245479897584886	-0.1710675251003791	-0.02767311176276032	0.07005578760096121	0	-0.133627675809033	0.153580774967741	-0.1351793979560316	-0.1044744330362629	0.2786138069097233	0.1146011311095043	0	-0.127532672949001	-0.135639150318664	-0.09881134872608405
1.05	-0.04692789896030133	0.0906284512651101	0.05847581644898919	-0.01625041999999999	0.95429567	1.16480266	0.4762498414699035	-0.1369951128461004	-0.1430925045382796	-0.09914491709992276	-0.03961747268804872	0.06045911443109094	0	-0.14042484417483	0.1522333052124447	-0.1286276841441218	-0.1131007212934485	0.2902152066227376	0.1137515231555906	0	-0.1251335375996231	-0.1352214843020154	-0.1026529337759872
1.06	-0.05130545131768877	0.09098474401070236	0.06455503252028499	-0.01642789	0.9520846900000001	1.17595465	0.466779312320787	-0.1328230186354715	-0.166146240628883	-0.03630823156049398	-0.05184070092495737	0.04743809252790426	0	-0.1443504291291047	0.1497170416896301	-0.1260111739705275	-0.1243117980160077	0.3019621065815089	0.1223510151982375	0	-0.1198862687334869	-0.1359482455111983	-0.1046363097063915
1.07	-0.05595567202741598	0.09751179368733828	0.06279872691029624	-0.01573758	0.94947494	1.18726701	0.472164867463283	-0.1315273835881632	-0.1910103261183687	-0.004675672663443411	-0.04579048600605833	0.04098107172909433	0	-0.1517590816268524	0.1547533695387715	-0.1316043538299066	-0.1273038791336205	0.3063654419081955	0.1227058669896396	0	-0.1143217337413903	-0.1455136720514701	-0.09853966937845524
1.08	-0.05704314494367062	0.09204837257682111	0.07645507087987573	-0.01685724999999999	0.9477880200000001	1.19867138	0.4641636416505628	-0.1246216389877314	-0.2288989121267732	0.03365354213497931	-0.06118885526637276	0.03131268071133158	0	-0.1558081460077119	0.1434016557558829	-0.1279959274893104	-0.1456550569853839	0.3215676358115199	0.146555807973303	0	-0.1138214975940933	-0.1356621055871179	-0.108409329322097
1.09	-0.05919067558105631	0.0950924726472447	0.07778817618125891	-0.01664269999999998	0.94593223	1.21032722	0.4698796640658826	-0.1230332448551545	-0.244740415597247	0.04209129364317921	-0.05579987561335138	0.02316442556989656	0	-0.1649047846158138	0.1437908191495829	-0.130371231065884	-0.1511481741516865	0.3234127882974175	0.1490816912273558	0	-0.1109798867218156	-0.1398475904873668	-0.1036428890655744
1.1	-0.05886665663438232	0.09444989678323673	0.08522913812674934	-0.01741028	0.94448624	1.22189929	0.4773212050244561	-0.1236598451092238	-0.2585236069022834	0.03132268668393327	-0.05308513726225721	0.01061477643150198	0	-0.1745625603665331	0.1388753059583243	-0.1239586882377319	-0.1612560270323296	0.3269977397850414	0.160381569080526	0	-0.1119811623914642	-0.1361978232309103	-0.1019386211276942
1.11	-0.05972488078547376	0.09052247538418548	0.09243004729763285	-0.01792390999999999	0.94292257	1.23345385	0.4863755111951497	-0.1222474981495054	-0.2593837946930569	0.01168463481410769	-0.04134980394950467	-0.004506030848939766	0	-0.1799877535071382	0.1293853254637602	-0.1272305292283445	-0.1757994469330875	0.3318204138519316	0.1770472854406983	0	-0.1114341107540422	-0.1286707885406583	-0.1114959531799611
1.12	-0.0593407584235754	0.08841747411263305	0.09681261906481471	-0.01818527	0.94182657	1.24547391	0.489865092481924	-0.1215916786402967	-0.2485908833258452	-0.004979406204515601	-0.04531467190191869	-0.004828249346652755	0	-0.1886549552490503	0.1228871717923368	-0.1219941454571542	-0.1865242278021513	0.3298187740981027	0.1820340208063418	0	-0.1114976328848332	-0.1238379070901708	-0.1106324689858294
1.13	-0.06595020387499952	0.08544632311453676	0.09958669558462345	-0.01781369999999999	0.9395053400000001	1.25726739	0.5110100565664666	-0.1201885979826429	-0.2292557921652991	-0.04623506587243723	-0.03274481429424696	-0.04233869284291893	0	-0.1845568390876952	0.1139082636707965	-0.1340440888538115	-0.2093937306021056	0.3392395238389585	0.211801710407468	0	-0.1034905459074189	-0.1195856081936287	-0.1122511779167171
1.14	-0.06303740620275033	0.08034350653515449	0.1036373402569831	-0.01796291	0.93869893	1.26985973	0.5172317455465181	-0.1169287552579732	-0.2218122215633384	-0.08393147036077905	-0.02610420876913798	-0.05907481421432035	0	-0.1972033932694837	0.1040264569336925	-0.1310465860454103	-0.2177656894806906	0.3336548933003873	0.2157520060823583	0	-0.1048512354846015	-0.1103513315244511	-0.1129415947386223
