inDegrees=no
nColumns=24
nRows=116
DataType=double
version=3
OpenSimVersion=4.5
endheader
time	pelvis_tilt	pelvis_list	pelvis_rotation	pelvis_tz	pelvis_ty	pelvis_tx	hip_flexion_r	hip_adduction_r	hip_rotation_r	knee_angle_r	ankle_angle_r	subtalar_angle_r	mtp_angle_r	hip_flexion_l	hip_adduction_l	hip_rotation_l	knee_angle_l	ankle_angle_l	subtalar_angle_l	mtp_angle_l	lumbar_extension	lumbar_bending	lumbar_rotation
0	-0.0793224981538288	-0.08445506099739784	-0.1274988676488531	0	0.9295784	-0	-0.106629942413211	0.08325400300925907	-0.1837433831857757	-0.3382032377371795	0.3094488534875713	0.04575471164331436	0	0.5227968832008054	-0.1505402822564022	-0.4154690878158783	-0.1458721466228006	-0.04540404689678774	0.01579621514344436	0	-0.04011655552177595	0.05388044854674014	0.2488923079708499
0.01000000000000001	-0.0789797013853427	-0.08090137462754672	-0.1290896552015858	-0.001254389999999994	0.92925504	0.01323445000000001	-0.109867837273471	0.07186503133376235	-0.1886436823419446	-0.3587011929091104	0.2949046967088031	0.04940798195011255	0	0.5176197699383482	-0.1470862681617897	-0.4216615905275132	-0.1640470819993623	-0.05936140303708434	0.01088531834805729	0	-0.03646515341540909	0.05038284433046025	0.2456058793438163
0.02000000000000002	-0.08294573448782167	-0.06755786419007634	-0.1325206412541011	-0.002653439999999979	0.92915294	0.02647876	-0.1048775351529681	0.04947747729573554	-0.1905032149446152	-0.3823487334699406	0.2747944650339394	0.06555216216479655	0	0.514474461304248	-0.1335649226703105	-0.4284726330391331	-0.1659985885666911	-0.09376687158559928	-0.003529969950994729	0	-0.02565121903375837	0.03566393436594109	0.2468461940860876
0.03000000000000003	-0.08569567050619356	-0.05437287307674878	-0.1317696676611367	-0.004818139999999999	0.9294307000000001	0.03915973	-0.09622093454093258	0.0257863288108796	-0.1981815625251652	-0.4141650111345768	0.2501828349630365	0.08441800218278933	0	0.511952857772054	-0.1170380664507561	-0.4193639394418876	-0.1680792561309185	-0.1179135557176147	-0.04047737965534551	0	-0.01845040872091854	0.02239569442819104	0.2418431997567313
0.04000000000000004	-0.08696760214675202	-0.0476366049645135	-0.1298298088531259	-0.00651665999999998	0.92995008	0.05236981	-0.0911468810509435	0.01061045447267526	-0.2031921029600754	-0.4422510838553881	0.2199387806063916	0.08919883302806052	0	0.5085060253582475	-0.1087269806422234	-0.4137075791871851	-0.1802954482474807	-0.1384035684197186	-0.04336786096840951	0	-0.01298074441643964	0.01578145314863099	0.2364269823208704
0.04999999999999982	-0.08866193650357299	-0.03303703195295846	-0.1254896642205925	-0.008578530000000001	0.9305018900000001	0.06588637999999999	-0.08206535140911023	-0.01425683823384386	-0.2122716509550759	-0.4761487509524304	0.1930561944353053	0.110876641595381	0	0.5042068655930199	-0.09065457951949196	-0.4016214317277219	-0.1928788955123072	-0.1598686902917264	-0.06718000248379778	0	-0.005139299657015157	-0.0008195249353275438	0.2288423315194832
0.05999999999999983	-0.08660218458115701	-0.02453979339618186	-0.1219280563705879	-0.01018772999999998	0.93166784	0.07924597	-0.0771198515414402	-0.03068682937804424	-0.2158176765389256	-0.5071315502979682	0.150328268734582	0.1132508749360573	0	0.4967894007533459	-0.08153618712759318	-0.407163619524076	-0.2103796098497577	-0.1418716695903228	-0.07964355121406591	0	-0.003068461612601978	-0.011475114495124	0.2235431460894172
0.06999999999999984	-0.08352223131901733	-0.01407986341352644	-0.1179040865391931	-0.01190442999999999	0.93297006	0.09269046	-0.07014288406849178	-0.05039129800722521	-0.2204664987080905	-0.5425053837150914	0.1016878455885164	0.1172199723448477	0	0.4891244079086334	-0.07065841453602396	-0.4123378070911081	-0.2289816595828736	-0.1221837793201077	-0.09636052894156681	0	-0.002586869945039455	-0.02422925338999926	0.217997577590302
0.07999999999999985	-0.08004841754203913	-0.003129119804013007	-0.1138162980461783	-0.01404754	0.93426381	0.10580097	-0.05859237169874747	-0.07282454144894365	-0.2256720173786567	-0.5842568170724785	0.04410944770239048	0.1196298077842708	0	0.4828676086636184	-0.05831293122100087	-0.4102297202297989	-0.2524192513463888	-0.1043672947783987	-0.1062513850363094	0	-0.003816971893192677	-0.03650634999254024	0.2123957977955666
0.08999999999999986	-0.07665241834703081	0.008728049945293883	-0.1078552324435608	-0.01619266	0.93535869	0.11883561	-0.04446652182152919	-0.09572599389711911	-0.2294589142817778	-0.6294944017955939	-0.01409653532710179	0.1230213033124123	0	0.4762691818124107	-0.04407525216448785	-0.4062434674561918	-0.275443324344624	-0.08065251034668056	-0.1132649466531515	0	-0.004803103340921721	-0.0509363592711682	0.2062427287039854
0.09999999999999987	-0.07439009614513822	0.02061336083650498	-0.101046665283314	-0.01837338999999999	0.93646354	0.13154191	-0.02599498711174573	-0.1187413582259857	-0.2320053404101926	-0.6786923804941187	-0.06327302204121757	0.1260990713696518	0	0.4678161975940981	-0.02931142039208208	-0.4077406936171591	-0.2917939667123763	-0.0576936629205862	-0.1167853572613001	0	-0.005331280289680927	-0.06466430427312785	0.1978078800273973
0.1099999999999999	-0.07393005129535259	0.03240318810310303	-0.09362360255544422	-0.02062359999999999	0.93738703	0.14382179	-0.003629700856980488	-0.1408632979355343	-0.2314301704713234	-0.7299317544052402	-0.1069051183534632	0.1215805045188266	0	0.4591665802189328	-0.01435252643368323	-0.4125373423814411	-0.3033514513234166	-0.03675701330704705	-0.1116060733328523	0	-0.005349739415448793	-0.07839065613854626	0.1888887679332279
0.1199999999999999	-0.07472587224518812	0.04359848566592087	-0.08587582411998532	-0.02242843	0.93824766	0.1557378	0.02278788963333471	-0.1600536028645204	-0.2280675088296224	-0.7826758026699119	-0.149460104789127	0.1089496719138743	0	0.4481977216862288	0.0004569767655228721	-0.4202976296797137	-0.3072024625475438	-0.01652834707980141	-0.09966764844688283	0	-0.004668534615868605	-0.09225131894388729	0.1799147235207141
0.1299999999999999	-0.0802329576838679	0.05464329772775568	-0.08197152190384918	-0.02369605	0.93880637	0.16674004	0.06038552157598304	-0.1753851640626611	-0.2132487881975706	-0.837997364344036	-0.1896853871674523	0.08808013823858889	0	0.4399376878055144	0.01421595354705005	-0.4294156234384113	-0.3037021712223476	-0.003744558531593282	-0.08581760509737556	0	-0.0001197922440069576	-0.106098607814769	0.1749390118291591
0.1399999999999999	-0.08155316213595866	0.06102083166805921	-0.07555297702379167	-0.02508242999999999	0.93979338	0.17789087	0.09181234751852675	-0.1854191696191913	-0.2054444765397128	-0.8869943336471414	-0.227285129736765	0.06872301613596066	0	0.4266314490828887	0.02449019442487228	-0.4364625356792651	-0.3012575946550976	0.01411005517108651	-0.07709084783446349	0	-0.001054452012232512	-0.1138004691691336	0.1647965281254979
0.1499999999999999	-0.08410871434381208	0.06987715842521294	-0.07285963307344388	-0.02619035	0.94068469	0.18868736	0.1283677388195871	-0.196941798085207	-0.1925139813741686	-0.9357723276591066	-0.249054526550979	0.03677554137332036	0	0.4128297426270154	0.03733460297039116	-0.4429635539595898	-0.2933183510691694	0.02739945687695115	-0.06819771618794042	0	-0.0008464283130824105	-0.1245255568670798	0.158429790067301
0.1599999999999999	-0.08564830045740553	0.07809938061084443	-0.0717388897909027	-0.02735042999999998	0.94174663	0.19929346	0.1642274434515988	-0.2066768058770574	-0.1791697269369735	-0.9809445457874776	-0.2489219043916406	-0.007903969434547927	0	0.3966270148189745	0.05024998532994239	-0.4488183316212395	-0.2816970113185169	0.03836341487418139	-0.06184947896888051	0	-0.00251931278755081	-0.1333576344529072	0.1520224561743015
0.1699999999999999	-0.08541306801887197	0.08248005423672998	-0.07098032970919629	-0.02840613	0.94319094	0.2100163	0.1975974762227463	-0.2114224346530464	-0.168153162621693	-1.022103883701041	-0.2262632136288494	-0.04797372115990484	0	0.3780446202857629	0.05972866272320478	-0.4503052919300795	-0.2703413358127593	0.04482805124264947	-0.05790440758804017	0	-0.005602366923495788	-0.1376243045650431	0.1468311209219015
0.1799999999999997	-0.0845388755489743	0.08656785393919721	-0.07214270196496418	-0.02939909999999998	0.9448132300000001	0.22048834	0.2317255822825221	-0.2143549096351109	-0.1558284663525941	-1.057825917808853	-0.2028847436720151	-0.08944463734592975	0	0.3590645893089316	0.06922924295138215	-0.4498847892297977	-0.2585644467341155	0.0544834550909152	-0.05719527315710492	0	-0.009441013362537281	-0.1413553364458676	0.1420196440148275
0.1899999999999999	-0.08120154027088489	0.08736584033069579	-0.07307827033691347	-0.03031217	0.94692382	0.23139027	0.2604641032345589	-0.2120836491495059	-0.1443739532003619	-1.085005478035352	-0.1757705694134157	-0.1255111392342262	0	0.3365740624158334	0.07588430329335613	-0.4454628012203292	-0.2468907724131774	0.06251930055654627	-0.05902293761843039	0	-0.0157270489669183	-0.1406228139048239	0.1366037908291815
0.1999999999999997	-0.07743608216482595	0.08756406245076176	-0.07353524780165167	-0.03124200999999999	0.94887327	0.2418982	0.289276932626697	-0.2087842139798206	-0.1340637910030726	-1.107736713059436	-0.1496815286026751	-0.1508131465080602	0	0.3136711573301216	0.08212833859648547	-0.4410947690174886	-0.2345132410133633	0.07078909117684512	-0.06045459193393318	0	-0.02291864202144542	-0.1398152673386858	0.1299413236589279
0.21	-0.07239563399388939	0.08692873807463675	-0.07389418403286747	-0.03231019999999998	0.95101598	0.25253684	0.3146201918045994	-0.2054777744547812	-0.1275718182406623	-1.122576601742788	-0.1206869587736586	-0.1729495375438154	0	0.2878811235343058	0.0884324360896966	-0.4361361973318528	-0.2189063033366393	0.07598233791384189	-0.06251372422958615	0	-0.03141222957947636	-0.1366309231941342	0.1240365828058472
0.2199999999999998	-0.06688560362112074	0.08556853547403771	-0.0729497583364165	-0.03344243	0.9530976600000001	0.26282692	0.3392996249498826	-0.2008265250562255	-0.1210926094201376	-1.133500933784681	-0.09739282347534649	-0.1844768783988114	0	0.2618957947255748	0.09386849215956618	-0.4322742095575268	-0.2029695911082715	0.07879423333387389	-0.06370052002114134	0	-0.04136861737711069	-0.1336162524545458	0.1151978881532268
0.23	-0.06211559914247885	0.08065369809757315	-0.07002554007094673	-0.03447436999999998	0.95522347	0.27336057	0.3610020396925964	-0.1917837396293914	-0.1181546287969476	-1.136718524008022	-0.0705796474778156	-0.1893638477773512	0	0.2352498532099103	0.09583194044416997	-0.4257383579959909	-0.1850834358153497	0.08326076197132035	-0.06208448231667379	0	-0.04954699061824982	-0.1267939831125125	0.1071268280519428
0.2399999999999998	-0.05359561949597367	0.07727288673778673	-0.06806264614787011	-0.03553615999999998	0.95749549	0.28368223	0.3786044562854228	-0.1853253004014984	-0.1180051760785664	-1.13319768300168	-0.06745080759600429	-0.2005956537754363	0	0.2054234287415984	0.09943111566706601	-0.4175544642784276	-0.1680684982704751	0.085348870048682	-0.06329958263630735	0	-0.06314800393236429	-0.120922090228619	0.09749869863843096
0.25	-0.04930633510658778	0.07287412783872133	-0.06617342459289474	-0.03655186999999999	0.95901811	0.29403049	0.3972765602185881	-0.1771981534465699	-0.1175207557558852	-1.123418226037104	-0.03939948228620509	-0.2039646546275135	0	0.1804802506899989	0.1008409839101808	-0.4122674245946263	-0.1522283142689157	0.08922672042244766	-0.06248030606133236	0	-0.07007671025896828	-0.1146255367465667	0.09044157726865056
0.2599999999999998	-0.04176835816835295	0.06847992466802173	-0.06307567773274284	-0.03780735999999998	0.96071157	0.30434102	0.410815172950489	-0.1705511488462914	-0.1217873005533809	-1.107450805613212	-0.02115487511123302	-0.2099643719351646	0	0.1520257279685173	0.1028035804741096	-0.4047240532735098	-0.1361811588272123	0.09403347237417066	-0.06069012481462151	0	-0.08193830330780398	-0.1067057446806189	0.08123609888119671
0.27	-0.03725954992859103	0.06441521479391227	-0.05940148297798205	-0.03881252999999998	0.96197457	0.31468232	0.4268683778779128	-0.1637983544295289	-0.127467935370919	-1.087365119899883	0.009476980584163604	-0.2147348388408045	0	0.128105125061159	0.1036288812275308	-0.3983408665343103	-0.1231443434396243	0.1014148303658781	-0.05741770228030222	0	-0.08932050219914504	-0.1002877817324748	0.07293743981693816
0.2799999999999998	-0.02997320708875652	0.06168712579838746	-0.05453689651178818	-0.04022980999999998	0.96325977	0.32507993	0.4368930460974778	-0.1598873888766676	-0.1357394971513428	-1.059757615063705	0.01093384251552001	-0.2336442972547985	0	0.1007569197776926	0.1066242929569552	-0.3902242999398404	-0.1090716587348827	0.1047921941375992	-0.05470583377409711	0	-0.1004533288300203	-0.09386758964980996	0.06045008863539718
0.29	-0.02481761565171106	0.05833712207523162	-0.05079768409884407	-0.04132605	0.96414004	0.3354260999999999	0.447785180130797	-0.1538805680789609	-0.1440752662788218	-1.026537529288183	0.018262216848993	-0.2498934776990129	0	0.07595092425623401	0.1079627185906005	-0.3839166747871451	-0.094924299070897	0.1082499959457544	-0.05431948542194761	0	-0.1081813292824603	-0.08792320381730316	0.05131440683739522
0.2999999999999998	-0.0243065953692512	0.05885264454793511	-0.04839801469157814	-0.04245033999999998	0.96404482	0.34574544	0.4642055203023656	-0.152590763129486	-0.152682100572566	-0.9916896494448845	0.02236235357802311	-0.2581012590399165	0	0.05678037104385989	0.1133164946035433	-0.3840574816680107	-0.08209211550959079	0.1181206894733792	-0.05372467180234727	0	-0.1099189260277365	-0.08508706141063782	0.0437318207605132
0.3100000000000001	-0.02130726421032127	0.05794211195973827	-0.04409690966922133	-0.04327555999999999	0.96417204	0.35637332	0.4738028020685461	-0.1485160162286834	-0.162172200273118	-0.9500851740322457	0.03098836904024667	-0.2733697707424277	0	0.03570911134096433	0.1158545126082865	-0.3770721908943925	-0.07218463288479489	0.1283345541763872	-0.05113827868125945	0	-0.1139246531851373	-0.08205161043190928	0.03439246584558758
0.3199999999999998	-0.01268649833280495	0.052271492504538	-0.03486396931154103	-0.04469649999999997	0.96474783	0.36658768	0.4724981476832622	-0.142029816142774	-0.1805968161692848	-0.8994494812350551	0.03587747313099457	-0.2855280531834745	0	0.01102586988725332	0.1124025033733857	-0.3727107418989574	-0.06741416685181963	0.1344199488243541	-0.04129201679610283	0	-0.1268757840765596	-0.07280856732296477	0.02007609547815574
0.3300000000000001	-0.01224244380322521	0.05474883766249552	-0.03316571607782123	-0.04542916999999996	0.96402754	0.37701228	0.4839727179847254	-0.1407748081716619	-0.1881224687333021	-0.851481841674929	0.03585585373755011	-0.2857529414755879	0	-0.005916964790095794	0.1179708937978	-0.3723227756265913	-0.05918077105881381	0.1411892467254576	-0.04228644920428729	0	-0.1274475427694057	-0.07307698011236557	0.01326003828652908
0.3399999999999999	-0.007315923760135911	0.05263558513323287	-0.02449321688019067	-0.04668917	0.96388914	0.38728898	0.4844943968981466	-0.136338384893016	-0.2032650666239879	-0.7940980141410129	0.03130496303991218	-0.2838059387303939	0	-0.02650542418492182	0.1175760102620095	-0.3662149395351023	-0.05393479460898874	0.1485624048112734	-0.03402075173015021	0	-0.1348875759380385	-0.06802666676539505	0.0005771638030066308
0.3500000000000001	-0.006568178902499412	0.05629556779751316	-0.02286360889488407	-0.04712715000000001	0.9627367100000001	0.3977865	0.4927969361783981	-0.1341491805385948	-0.2070942919502601	-0.7406050581842798	0.0271612927378825	-0.2756358601665249	0	-0.04319271002212195	0.1235303509289709	-0.3613878571155875	-0.04744967540548511	0.1598915312411143	-0.03454956258249373	0	-0.1353999169908955	-0.07093939107804526	-0.005747443403310537
0.3599999999999999	-0.003152447876154811	0.05601842285894378	-0.01619489373070969	-0.04805058000000001	0.96201504	0.40806094	0.4933324066835685	-0.1306467248305931	-0.2193860035908914	-0.6796098217166087	0.01442327143505064	-0.2474217115200108	0	-0.0597823281070451	0.1239797307998586	-0.3577661280499655	-0.04695409666929711	0.1693388523981012	-0.0314989975760417	0	-0.1413179710409775	-0.06676589746242212	-0.0179924584107389
0.3700000000000001	0.001483520726521186	0.05883369923190786	-0.01475404802910549	-0.04826358999999997	0.96104935	0.4187356	0.4935955016292714	-0.1275813819468315	-0.2245646860788791	-0.6203741167686542	0.01333142905971973	-0.2116406449663757	0	-0.07887883782029848	0.1279023106462273	-0.3489222988132187	-0.04505429705185502	0.182647466164773	-0.03678060562067795	0	-0.1463916609788834	-0.0690193772317395	-0.02382571738444197
0.3799999999999999	0.001996145114944286	0.06200282657232258	-0.01078751572987482	-0.04879730999999998	0.95937418	0.42926334	0.4968862319693124	-0.1258582750995382	-0.229658757273658	-0.5615344640289575	0.01886142136792552	-0.1677995426836769	0	-0.09401757190108623	0.1319439926334167	-0.344050297378344	-0.04197105808554225	0.1929750312145668	-0.03521945991744902	0	-0.1469225451078454	-0.07033145485139793	-0.03293432388975776
0.3900000000000001	0.003499166298290582	0.07000962438924459	-0.01036759689297587	-0.04907083000000001	0.95755274	0.4397703000000001	0.5008434285015322	-0.1281993332217926	-0.2324410937974782	-0.5047750184356313	0.02265616439869894	-0.1203688236482636	0	-0.1098682296234868	0.1416688801335994	-0.3396497966408955	-0.03920509100477648	0.2018418745373634	-0.03903395082510999	0	-0.1491352073855451	-0.07781969680649754	-0.03913454217841699
0.3999999999999999	0.005155171767847084	0.07611141925723594	-0.01019240024598454	-0.04913455999999999	0.95566216	0.4503226300000001	0.5026545870350557	-0.1279023657986316	-0.2336708903130124	-0.4478838652354951	0.02600984719406306	-0.07482168296569136	0	-0.1251783147197147	0.1486666454735134	-0.3344300188048734	-0.03837531732154829	0.2122921477527455	-0.04357389848287085	0	-0.1508468788355794	-0.08349456086739683	-0.04176359900040517
0.4100000000000001	0.004262754350774841	0.0833328864846916	-0.0106112592020546	-0.04914162	0.95343088	0.46083187	0.5061177290271233	-0.1288642003433108	-0.2355667055183051	-0.3917101399218335	0.026615829001014	-0.03061796130375442	0	-0.1387442636710249	0.157238674934913	-0.331803321493501	-0.03509362935782894	0.2191013370737655	-0.04634384613606164	0	-0.1495204917849826	-0.09030422020558444	-0.04575455089849025
0.4199999999999999	0.002574375363184019	0.09159829939827178	-0.01147669472807053	-0.04860829999999999	0.95092305	0.4711805800000001	0.510994303573704	-0.1291873613188198	-0.2281018108326094	-0.3410504813105522	0.02374316104189461	-0.007029680954214707	0	-0.1495699802468571	0.1654285488486252	-0.3257341601529069	-0.03612018524902805	0.2295949804993292	-0.04592631817495697	0	-0.1477593631144675	-0.09917823822787014	-0.05120491151237624
0.4299999999999997	0.002697943279869375	0.09713259248434376	-0.01308313323692202	-0.04842906999999996	0.94876947	0.48180988	0.5115868637987071	-0.1296135194094768	-0.2323630758345848	-0.2902076416676277	0.008776676297512991	0.02984663625371458	0	-0.1623145517703717	0.1716349653250571	-0.3260620589992034	-0.0372503185773514	0.2394395071781434	-0.05097992111850166	0	-0.1478674808511079	-0.1047732775610344	-0.05106622677734814
0.4399999999999999	0.0003648088182136041	0.1046658402210559	-0.01472116691718815	-0.04776068999999999	0.9462094	0.49255707	0.5157105418777539	-0.1313955845261001	-0.2324012924365511	-0.2487895913301128	0.01106160236209525	0.03646972984324075	0	-0.1723748123148396	0.1791504925359519	-0.3262369950954601	-0.03838624482799503	0.2454869616842976	-0.05231040410778701	0	-0.1432724586306687	-0.1136705754830148	-0.05216166854519545
0.4499999999999997	-0.000128538084859329	0.1076854129895295	-0.01789394770294878	-0.04691254	0.94408907	0.5026855800000001	0.5146720973272891	-0.127626355416464	-0.2274036229322097	-0.2058468323536299	-0.01309613860526449	0.05725873681936595	0	-0.179843625264706	0.180954395386709	-0.323795396059914	-0.04792630492745129	0.2582881365043823	-0.05388350426919453	0	-0.1440637521672135	-0.1168331126112273	-0.05149070568673181
0.46	-0.002460343337584479	0.1125631360496156	-0.01979488289095786	-0.04603878	0.94172698	0.5134932800000001	0.5186991438560358	-0.1275889339865049	-0.2367788707177355	-0.1791393023574528	-0.01416826085444297	0.05574213540930643	0	-0.1889195862590279	0.185457112378998	-0.3269841038766614	-0.05055658173458662	0.2641963976865643	-0.05616356837007951	0	-0.1402462149618761	-0.1232229612721816	-0.05081193265439843
0.4699999999999998	-0.001873725298961325	0.1128513695188783	-0.01849773683962424	-0.04585697999999999	0.93999742	0.52416845	0.5157435128926534	-0.1241227956131775	-0.2448099912280156	-0.1521032266959582	-0.04240843427996645	0.03790473362011102	0	-0.1973140125865409	0.18401641010212	-0.3253317912490204	-0.06212449276804528	0.2781350685064219	-0.05750098101462698	0	-0.1418239231415748	-0.1217482217587641	-0.0510635862687228
0.48	-0.001099597296603381	0.1148851901728559	-0.01714221077967539	-0.04567095999999998	0.9382125100000001	0.53559638	0.519552507583967	-0.1245514191559359	-0.2554502850713135	-0.1503304718636969	-0.03369871020882337	0.004544875943969704	0	-0.2084085554202737	0.1846513638510552	-0.3283918372330352	-0.06985640659773407	0.2812320444356784	-0.05550595326613635	0	-0.1416655367808843	-0.1222732421050381	-0.05736623129893043
0.4899999999999998	-0.000238658549752869	0.1179060251348103	-0.01742253948519974	-0.04564057999999999	0.9367956000000001	0.54712391	0.5234701594931926	-0.1263355252605864	-0.26315308209669	-0.1548480667406616	-0.03346083108202158	-0.006898312290345121	0	-0.2186901104493923	0.1874843712973182	-0.3341359495009353	-0.07841503419940642	0.2841969176155819	-0.05741804488843438	0	-0.1410005865816938	-0.1237378621994526	-0.05823225407445913
0.5	-0.0003073515238693822	0.1200548289363488	-0.0127406189800851	-0.04565248999999999	0.9355319400000001	0.55882884	0.5277434252045718	-0.1292702023245682	-0.2620243354324573	-0.168935264905331	-0.02217369587772022	-0.03774336396813013	0	-0.227565691763089	0.1868713235248905	-0.3366980705026486	-0.08947919346885583	0.2895600278238972	-0.05290693233884451	0	-0.1397251200356227	-0.124873488078932	-0.06493537066112338
0.5099999999999998	-0.0007287963474049385	0.1188291013179346	-0.01025707900072597	-0.04560953000000001	0.93457453	0.57077131	0.5312829204644922	-0.1290305658257425	-0.259409099349217	-0.1868834402986896	-0.0254027972456099	-0.04517274678860134	0	-0.2361951345283647	0.1833089065068378	-0.3392012650000243	-0.09952596383993639	0.2864426072823159	-0.05091594555117103	0	-0.1376228451207226	-0.1207603315427478	-0.0672448964433808
0.52	-0.0008569102790035471	0.1172890621679536	-0.006652918499931026	-0.04548023000000001	0.9338572000000001	0.58297988	0.5318141484233169	-0.1284180409539588	-0.2525542316200796	-0.2070270482539051	-0.02654638426993932	-0.05261376554466267	0	-0.2452462579166343	0.1786384551703847	-0.3406545263171338	-0.1103987905174713	0.2817521007164939	-0.0481980830607158	0	-0.1342549448732717	-0.1172231348814523	-0.06938432296033763
0.5299999999999998	0.0003700966004220059	0.1165715016616106	-0.003973909475055299	-0.04448261999999997	0.93325443	0.59553716	0.5288944715915913	-0.1261544419401713	-0.2383772795495604	-0.2274910271012874	-0.02222335381106503	-0.08582491122015734	0	-0.2556054759086764	0.1730939267129707	-0.3495784300382317	-0.1216493867302834	0.2813999342886789	-0.03287271114916848	0	-0.1328570267250125	-0.1166324713057473	-0.07353168219027433
0.54	0.0003630151865899459	0.1134071430870565	-0.001782055855946863	-0.04365123999999998	0.93282052	0.60837074	0.5257772885893212	-0.1229760566987519	-0.2337193956309192	-0.2503349056752956	-0.02952796793023307	-0.08600101214915677	0	-0.2636839257340133	0.1653534007306209	-0.3509720995314929	-0.1349492398167748	0.2735161265485841	-0.03123347452828342	0	-0.1288441061930996	-0.1120823597230875	-0.07452482305481231
0.5499999999999998	-3.948692022150488e-05	0.1096772055209628	0.001319429299834714	-0.04250407	0.93259225	0.6213854400000001	0.5208512627563791	-0.1191410147136816	-0.2288543596305563	-0.270098812190285	-0.03740793245531492	-0.08466029367647308	0	-0.2698259146028382	0.1555962447105627	-0.3530039429061592	-0.1510219325670276	0.2627510997832329	-0.02868974772608987	0	-0.1237503205341863	-0.108243085663647	-0.07446668107597354
0.5600000000000001	0.0002874918351874815	0.1054104130108873	0.001814575296243542	-0.04130355999999996	0.93264971	0.63416664	0.5186962052451742	-0.1151758675085873	-0.2285893657666272	-0.2897230967284379	-0.05284288957633768	-0.08475577906905338	0	-0.275010934032274	0.145566673512063	-0.3533743771716561	-0.1693458497721383	0.2504831131012555	-0.02556540032177318	0	-0.120760867882427	-0.1030796950524336	-0.07266839137862376
0.5699999999999998	-0.009651918946071108	0.08892194235257694	0.006458966522411582	-0.03952664	0.9331871	0.64722163	0.518577384451429	-0.09803844973812477	-0.2341493850683501	-0.2887793275632474	-0.08325805775817731	-0.09761046952372868	0	-0.2643171369462234	0.1185439232648745	-0.3585316390592011	-0.1967111296116769	0.2376592343401291	-0.01605640795566705	0	-0.104198283027755	-0.08569627731269269	-0.07432198996485764
0.5800000000000001	-0.008868217793856459	0.08392892718826481	0.004004855356351021	-0.03760076999999998	0.9340131700000001	0.65952655	0.51509062326766	-0.0920664526223185	-0.2326563932506811	-0.3026544347134779	-0.09339675933334939	-0.1002496752607843	0	-0.2633719971739713	0.1063183632680852	-0.3605509459083833	-0.2253842103160749	0.2205912726453814	-0.01622062022540066	0	-0.103077829819062	-0.08187052676242836	-0.06750555438584914
0.5899999999999999	-0.01266702136899759	0.0711927698553524	0.004380514706905714	-0.03594778999999998	0.93476963	0.67244083	0.5122539052514075	-0.07929870225367279	-0.2320282756073601	-0.3141723970417384	-0.1150084604136579	-0.1063260062394126	0	-0.2576200480286638	0.08529314098753411	-0.3610439218350578	-0.254276857454631	0.1999758267951281	-0.01762323994159896	0	-0.09470265429866556	-0.06710262226421305	-0.06413449491791924
0.6000000000000001	-0.01209560755934089	0.06546522387220821	0.004493720991890729	-0.03406357999999998	0.9359477900000001	0.68549267	0.5071966086675667	-0.07435543326585264	-0.2318917376273119	-0.3342289331385658	-0.1237154886492384	-0.1086134686164639	0	-0.2541307803775561	0.07050585303717911	-0.3628624884185914	-0.2872166805277959	0.1746317754122781	-0.0178492522257506	0	-0.09234491362128888	-0.06254485270039424	-0.06073797476139418
0.6099999999999999	-0.01356397474373532	0.05800848031538179	0.00538325949382168	-0.03242703999999999	0.93716292	0.6987869800000001	0.5020824551908155	-0.06823691104695247	-0.2353049878119149	-0.3504140987455414	-0.1160103588167836	-0.120618983784347	0	-0.2475078808686427	0.05412885061266806	-0.3650340811791296	-0.3201177764901884	0.140522000720169	-0.02263984225406722	0	-0.08664771911980787	-0.05500392902902073	-0.05885157246582333
0.6200000000000001	-0.01567569588042066	0.04943633012235784	0.006560905645532914	-0.03091387999999998	0.93838679	0.7119668100000001	0.4980604301488596	-0.06040317139257677	-0.2370074910473884	-0.3675936634249128	-0.1006932674453395	-0.1376095781749465	0	-0.237026454747843	0.03635637594431147	-0.3646855652819779	-0.3573879635466786	0.1045397621064284	-0.03156620566767995	0	-0.08070865898498061	-0.04464819244523757	-0.05869318645419872
0.6299999999999999	-0.01490685150736972	0.04267509556739265	0.006073676288759579	-0.02882135	0.93970602	0.72496213	0.4898521861211714	-0.052316267715942	-0.2381346611557077	-0.383845938512424	-0.08021979557762259	-0.1443377004428699	0	-0.2246409852415251	0.01820765663484518	-0.3706238136641701	-0.4026963831556179	0.06720210672970843	-0.03965828092942129	0	-0.07861266411379504	-0.03920471017393369	-0.05570639473141702
0.6400000000000001	-0.01678944791926163	0.03365152493302847	0.005649068988103339	-0.02681960999999999	0.94086803	0.73750769	0.482997439692417	-0.0419954291650854	-0.2401631702533711	-0.398328197538336	-0.05541747048358092	-0.1496596114560603	0	-0.2046331893839218	-0.004111177158279454	-0.3788732272163861	-0.4545908191030527	0.0227466399981943	-0.04878899307691113	0	-0.07500750712395365	-0.02946680356472863	-0.05361752411970516
0.6499999999999999	-0.02035027108106334	0.02336156417828124	0.00552920334855889	-0.02464533999999999	0.94198322	0.7497926100000001	0.4750437119680922	-0.03034052044973182	-0.2456037400937522	-0.4066702280345066	-0.03435251525900943	-0.1533010164910047	0	-0.1793735246704057	-0.02997117230262845	-0.3902482770985714	-0.5093945145355067	-0.02914494635017081	-0.0612318081683302	0	-0.06986630854871233	-0.02033783255770059	-0.05098121894533344
0.6600000000000001	-0.02436375818049666	0.01140701175779456	0.004573834543366584	-0.02242580999999999	0.94286894	0.7617073600000001	0.4665691917830735	-0.01708609287314913	-0.2544369355629654	-0.4122026899836039	-0.01771867192710413	-0.150625170882429	0	-0.1521121676686503	-0.05781033922827958	-0.3994472660028004	-0.5638687403253374	-0.08102382827237774	-0.07945862642396719	0	-0.06437694087324181	-0.008343717356892662	-0.0445435931178363
0.6699999999999999	-0.03144693344392736	-0.001997286612065384	0.004886919138649673	-0.02040918999999999	0.94345457	0.77358665	0.4586096433856933	-0.002731062939186844	-0.2675053185462012	-0.4120614012173318	0.003927572360694007	-0.1430566181253977	0	-0.1199364537562658	-0.08820250763576934	-0.4051881080472812	-0.6195069008860489	-0.1341250688149785	-0.1010113381680851	0	-0.05542378491028171	0.005136579735908848	-0.04020133279579648
0.6799999999999997	-0.0375710974252281	-0.01247062649304382	0.005616309738784495	-0.01867222999999998	0.94416009	0.78467931	0.4501905485745326	0.008185539737580743	-0.2806238560089542	-0.4108263367745165	0.01905204553069664	-0.1351492524546583	0	-0.08575615257801163	-0.1130991429922059	-0.4012140640263248	-0.677271090467313	-0.1782883758072892	-0.1248896609979127	0	-0.0497681280232677	0.01568626917441253	-0.03657287199524952
0.6899999999999999	-0.04364927566848679	-0.02159060266556967	0.007178442362023952	-0.01718454	0.94492299	0.79537588	0.4405372614615837	0.01845688040178493	-0.2896092274337805	-0.4063736135169204	0.03302834861628705	-0.1292794352908442	0	-0.04972539119307167	-0.1340676015804285	-0.3919746765094986	-0.7334458933472547	-0.2190200087448799	-0.1481310060204714	0	-0.04464113660267054	0.02440952722670727	-0.03267986605492419
0.6999999999999997	-0.0526580680324831	-0.02764889617099452	0.009910771635416078	-0.01610597999999999	0.94552039	0.80546016	0.4342147435889141	0.02553554070533129	-0.2950290720128929	-0.3997443925999892	0.03946714538517934	-0.1243897896244293	0	-0.006574058389658457	-0.1479272835107299	-0.3728217064421407	-0.7895111593633413	-0.2671284073638502	-0.1833366106416535	0	-0.03820487544811554	0.03102630010634734	-0.03359574066987761
0.71	-0.05973184086103261	-0.03191549808489369	0.01171791840738988	-0.01503859999999999	0.94626122	0.8155599800000001	0.4267210237434242	0.03111158562024605	-0.2987730791949755	-0.3953283395826422	0.05134057019554723	-0.123625241687875	0	0.03524030962069336	-0.1587548759664421	-0.3562702004139616	-0.8423738339920794	-0.2985814657795844	-0.2285649489594576	0	-0.03326112195689505	0.03443893244439512	-0.02980403049774537
0.7199999999999998	-0.06832807794625981	-0.03531457507690041	0.01374327772198457	-0.01399814999999999	0.94694062	0.82563224	0.4207413536366274	0.03686094033362045	-0.2980598174094252	-0.3900152986817763	0.06177405718324946	-0.1260456185669143	0	0.0787227460439756	-0.1677339402949505	-0.3411560119456423	-0.8925947548775872	-0.303506608301392	-0.2690547914873929	0	-0.02628482451584646	0.03680212622848673	-0.02643407006364545
0.73	-0.07257116207144718	-0.04019400492665017	0.0146582417579719	-0.01294157999999998	0.94792389	0.8355094200000001	0.4107481114665079	0.04494799201417577	-0.2935454102018063	-0.3855081612940907	0.07048982445692757	-0.1319297053681599	0	0.1176948645660764	-0.1779694884449865	-0.328281087016284	-0.9407710865979672	-0.2739857951738946	-0.2927527233689196	0	-0.02514940074549448	0.04095224761649764	-0.02088579124273482
0.7399999999999998	-0.07233878352211071	-0.04120744154373174	0.01420413338475416	-0.01200187999999999	0.94945415	0.84532861	0.3951367382100228	0.04980591771769896	-0.2870433766634558	-0.3795025308109339	0.08180074029588613	-0.1369869529082486	0	0.150522918150207	-0.1825665294877715	-0.3178496834281099	-0.9819819092810037	-0.2405885603991572	-0.3175275862307799	0	-0.02966836535685615	0.04061229081399786	-0.01060223100483864
0.75	-0.07434683508129622	-0.04231783317898836	0.01464957375875586	-0.01129348999999999	0.9508096500000001	0.8549460600000001	0.3810878828346246	0.05458321776189334	-0.2793188455765029	-0.3712009418624601	0.0871136731608713	-0.1433500687101159	0	0.1877832517758722	-0.1863282278507511	-0.3066986545839326	-1.019888207763322	-0.2033153876079156	-0.3374329237563754	0	-0.03177463864653965	0.04106551581976065	-0.00449842924191563
0.7599999999999998	-0.08216883499514628	-0.04746185733487174	0.01472470066931315	-0.01026795999999999	0.95158482	0.8644804300000001	0.3728526109872058	0.06464230928482835	-0.2694533616821624	-0.3608892387139742	0.09076033896724703	-0.1542598038653427	0	0.2327162100474701	-0.1939260106839631	-0.2931451903218278	-1.053237153815513	-0.1880014870474099	-0.3409914832477153	0	-0.02642744601553536	0.0454857478534687	0.001207467122149958
0.77	-0.08085723905463832	-0.04607766214701655	0.01359435268006308	-0.009499199999999985	0.95324851	0.87425408	0.3536780047712427	0.0669019765954099	-0.2639542149268929	-0.3500605103979848	0.09882145837124331	-0.1584104574042425	0	0.2630730227967035	-0.1927927942315162	-0.2847330124250256	-1.074600514789082	-0.1706166135285399	-0.3453650046855864	0	-0.03142364595264657	0.04225977655905954	0.01213047271381141
0.7799999999999998	-0.08156959208242867	-0.04471592831560975	0.01037411181131358	-0.008532259999999986	0.95482789	0.88410533	0.3363428562063608	0.06954960651316612	-0.2578629983841402	-0.338173584942254	0.1048971053553378	-0.1599747944420087	0	0.2942502678779425	-0.1912201539643665	-0.2787256627925556	-1.090403276138952	-0.1467289294507363	-0.3461096223583464	0	-0.03400204476762855	0.03955902527659085	0.02183627905288086
0.79	-0.08248736233337695	-0.04398663228615923	0.007875801394218115	-0.007514229999999983	0.95613984	0.89361617	0.319669504030711	0.07244462149349511	-0.254878949271745	-0.3263728899216789	0.1089945019174422	-0.1609147680396749	0	0.3279124521852459	-0.1916619980271429	-0.2745878843730148	-1.104101341976782	-0.1295685590298138	-0.3427141673762638	0	-0.03679035555347836	0.03688442897469378	0.03198232986046724
0.7999999999999998	-0.08234746545633094	-0.04138957464105608	0.004581724724255744	-0.006616529999999982	0.9576612800000001	0.90327746	0.3010627190448015	0.07341669571036273	-0.2492836908997597	-0.3136483724058026	0.1134650043205297	-0.1591045280729367	0	0.3555571342798205	-0.1874120527070971	-0.2700145670671534	-1.106793031335241	-0.1186323753296351	-0.3407832207875235	0	-0.04033360798367954	0.032719579451257	0.04290933539770841
0.8100000000000001	-0.0817054550036318	-0.03943681188804967	-0.001041566888405926	-0.005226899999999979	0.9588261	0.9132160300000001	0.2819871709103975	0.07564533682643035	-0.244966998778597	-0.3016738024491561	0.1218965206399768	-0.1574767310381009	0	0.3798695704110357	-0.1856432253892515	-0.2705983554418689	-1.105734501710277	-0.09239553445278202	-0.3432953138460905	0	-0.04317127737890745	0.02806093299826557	0.05434908760232483
0.8199999999999998	-0.08158283888489284	-0.03653077160745147	-0.0047518325537498	-0.004198319999999978	0.9599659	0.9226852200000001	0.2641362866272635	0.07594297340882655	-0.2405471711376766	-0.2897670516239189	0.1278734640188832	-0.1548910515821443	0	0.4064226225368492	-0.181323959081975	-0.2691538287995339	-1.100399474373225	-0.08129009273600224	-0.3432361265895627	0	-0.04687692030416902	0.02224501456881276	0.06534534483722543
0.8300000000000001	-0.08120325531656927	-0.03315790793460131	-0.01282721018070611	-0.002848369999999989	0.96097772	0.9326023600000001	0.2463603916371717	0.07616180994629153	-0.2361478094020981	-0.2785186464974498	0.1351667717206239	-0.1504612062749162	0	0.4306089291335435	-0.1779432437544914	-0.2721126130492759	-1.091817548371368	-0.06025382444114824	-0.3482487752076765	0	-0.04926538366330271	0.01790481844767926	0.07824590254464313
0.8399999999999999	-0.07919746886810795	-0.03089407843822112	-0.0221346615948401	-0.001243909999999987	0.96185846	0.94240748	0.2278541339509857	0.07755094751761697	-0.2287523111018568	-0.2697324726417462	0.143694504725608	-0.1442972691926158	0	0.4488241638134679	-0.1760798719510652	-0.2776401491556253	-1.07517095139502	-0.0397894918155265	-0.3543908471541738	0	-0.05353123172536098	0.01175771628774475	0.09285772643664277
0.8500000000000001	-0.07856416629308072	-0.02758684649197907	-0.03038155877648044	1.748000000001415e-05	0.96245483	0.9520816700000001	0.2113330561675188	0.07674076183911684	-0.22342419212705	-0.261660435505147	0.1514190030003709	-0.1402982517789914	0	0.4689966613311271	-0.1723749760267235	-0.2818861385123886	-1.056059955099909	-0.01743860051283293	-0.3611444470403861	0	-0.05596011848076719	0.006020661782273784	0.107314787620545
0.8599999999999999	-0.07910372638547215	-0.02523663192226946	-0.03737979695606971	0.001345730000000017	0.9627977400000001	0.9619347700000001	0.1947999923354139	0.07715797965521341	-0.2182570035048514	-0.2513996050391654	0.1597815016708113	-0.1365191957675349	0	0.4888999442551271	-0.1695851272567368	-0.2853398504905076	-1.031661011375253	-0.005269424075660995	-0.3612782937227277	0	-0.05695518967945786	0.0003939323313481833	0.1186058063569649
0.8700000000000001	-0.07928401184307497	-0.02381665257565425	-0.0449438351145924	0.002536389999999999	0.96293356	0.9716477100000001	0.1791678254007534	0.07768457411393984	-0.2137433794264679	-0.2434377292452277	0.1679944125343865	-0.1319051573122305	0	0.5068796163837658	-0.1677730773835643	-0.2893935108468864	-1.002787670370751	0.003405252038772793	-0.3603758872900131	0	-0.05776310922245721	-0.002939921080252325	0.1324392390589151
0.8799999999999999	-0.07619486285996359	-0.0185727005689283	-0.06070161556319052	0.004467430000000022	0.96325447	0.98137557	0.162715469782051	0.07446879973115254	-0.2022744016835268	-0.2412011175595321	0.1783557242233993	-0.1207071190718484	0	0.5155850767900793	-0.1667760083064789	-0.3050153120965863	-0.967215921503373	0.02344185385754855	-0.3536482055431929	0	-0.06217794836330953	-0.01130701031569137	0.1525260304383258
0.8900000000000001	-0.07758546061571639	-0.01920071610200908	-0.06650329213551201	0.005505090000000018	0.96300301	0.9913713200000001	0.1476932109470268	0.07631767308448238	-0.2013140864479616	-0.2329448745339531	0.1882786662765776	-0.117884005897115	0	0.5306071116993605	-0.1664226683192748	-0.3084220932183168	-0.9291233717807245	0.02727360694417637	-0.3502625779865295	0	-0.06108746804292686	-0.01266578142696011	0.1622035682030995
0.8999999999999999	-0.07771341219828139	-0.01837374742425477	-0.07452420929632655	0.00682271000000001	0.96271177	1.00145895	0.1313390430141854	0.07689247301355011	-0.1973795432422351	-0.2247364688887761	0.1960531415308726	-0.1111106221802326	0	0.5416490366958699	-0.1659803413238944	-0.3152459878109495	-0.887555841323159	0.03538647466236257	-0.346083597230271	0	-0.06064327389431267	-0.01679714349257181	0.1735613038955062
0.9100000000000001	-0.07718371205304746	-0.01770734310566806	-0.0835433294299351	0.00790121000000002	0.96222573	1.01154786	0.1151452954487447	0.07704169674473345	-0.1932636383360778	-0.2182057243351644	0.2068827990601557	-0.1066528552701641	0	0.5501230531788666	-0.1659528342367513	-0.3253508259843756	-0.8420920013660602	0.03822410216968843	-0.3446740813691323	0	-0.06174257336340565	-0.01862274933804454	0.184090060902159
0.9199999999999999	-0.07037984687858158	-0.01476383094854426	-0.09637826853916713	0.009249710000000022	0.96223974	1.02149871	0.09526972102288356	0.07337207758976597	-0.1841306570860275	-0.2175647286054246	0.2163447588171779	-0.09530165793020116	0	0.5476511437083329	-0.1649160557775903	-0.3420639906910596	-0.7911450872162404	0.03770658673919796	-0.3435773251938253	0	-0.07028470166952722	-0.02472781873360328	0.2003371527108576
0.9299999999999997	-0.07192371466783463	-0.0189915553276421	-0.1005919502216294	0.009880890000000003	0.96109612	1.03192693	0.0803051433997756	0.07810725934845124	-0.1844525642170019	-0.2108854176116258	0.2272241872026085	-0.09442043630394732	0	0.5578717462549182	-0.1669561259362188	-0.3463038508005558	-0.7435476737038315	0.04047959569989675	-0.3460080668851606	0	-0.06863695988466426	-0.02067230989901373	0.2058316022615112
0.9399999999999999	-0.06666931244234225	-0.01960160224146058	-0.1093687281779722	0.01099337	0.96059488	1.04221446	0.05934804760311516	0.07822553141067971	-0.1774638372391523	-0.2057721813053965	0.2341085806667019	-0.08395509164687555	0	0.555674839413442	-0.1669070401218028	-0.3594738417913879	-0.6891706192946384	0.03593944209328417	-0.3503430638449853	0	-0.07436407037672199	-0.02319342508808308	0.2181019695725882
0.9499999999999997	-0.06920273788026536	-0.02675928815286108	-0.1126840158375001	0.01121155000000001	0.95876529	1.05231655	0.04863236304104695	0.08497021737680333	-0.1777191153787343	-0.206057845103657	0.2414360568537418	-0.08441671186087332	0	0.5643096230607617	-0.1697849341203014	-0.3593544398030017	-0.6378535578114509	0.03916843350543098	-0.3472731272546324	0	-0.0726996959531534	-0.0148098737326063	0.2211072609127764
0.96	-0.06412765828081309	-0.02766052324847693	-0.1203217901098658	0.01222378000000002	0.95787769	1.06304879	0.02579563700084634	0.08492395655231459	-0.1710038865561271	-0.1979428159697251	0.2550754874826865	-0.07672304587454447	0	0.5590642745804015	-0.1700060474397757	-0.37554003336471	-0.5821428803911154	0.03849470360197124	-0.3213947391324942	0	-0.07764342134457292	-0.0165763328131899	0.2305223545651252
0.9699999999999998	-0.06710453462301924	-0.03678826715137154	-0.1219877913325314	0.01212009	0.95565572	1.07316784	0.0163592117598467	0.09325655144948307	-0.1722929598635796	-0.1998490664986155	0.2618064677272601	-0.07740744864091308	0	0.5674322863968831	-0.1731856196796193	-0.3771992704116253	-0.5301881717668908	0.03919539395545239	-0.3160787172092659	0	-0.07594868395160616	-0.005899666308280502	0.2331691114691895
0.98	-0.06896431015297871	-0.04007004248412718	-0.126411062794483	0.01252262000000001	0.95373737	1.08365662	0.002233229412138187	0.09585798337460362	-0.1678465669151805	-0.1946730068914277	0.2742188486398475	-0.07591395155042562	0	0.5693372469529234	-0.1735224139455145	-0.3900800786713591	-0.4744799828370029	0.02550629369945684	-0.2678392796191217	0	-0.07404901942264816	-0.00267495374532788	0.2378906049596173
0.9899999999999998	-0.07072488021123162	-0.04461974783615782	-0.1302825097209587	0.01257449000000002	0.9516462	1.09427226	-0.009902464803196417	0.09893186388546719	-0.1640345927723009	-0.1939759066802179	0.284474670010876	-0.07488984034190976	0	0.5713209963837877	-0.1731792129250011	-0.398298585584115	-0.421805220478444	0.02755779349575792	-0.2189644964536251	0	-0.0717573438207826	0.002023309412755793	0.2433298966953871
1	-0.07370005829012931	-0.05123448107333862	-0.1345101682582539	0.01239429	0.9491335	1.10462307	-0.01848532350900591	0.1038709725319494	-0.159983767703292	-0.1984672029360136	0.3014700483489551	-0.07400451160686014	0	0.5750313509998979	-0.1752775060457457	-0.408415363380421	-0.3719914990445934	0.02562649435050877	-0.1686825897497954	0	-0.06976519935621626	0.01039595874359291	0.2481024285000651
1.01	-0.07592101808919276	-0.05706510577137523	-0.1360652653868992	0.01180463000000001	0.94667163	1.1153711	-0.02759384815837977	0.1071548552472031	-0.1603901660488226	-0.2031374334883164	0.3088499976854234	-0.07092237795756266	0	0.5778205323559786	-0.175092294148985	-0.4163319114028881	-0.3258639293970499	0.02647314990545979	-0.1165302663955469	0	-0.06765736888377415	0.01848122739578441	0.250170429860845
1.02	-0.079631121007445	-0.06280636727943502	-0.1372870129808625	0.01120678	0.9439596	1.12588421	-0.03472441752094016	0.1108773756808644	-0.1605280631167592	-0.2088290963432661	0.3171952196906641	-0.07081478765942226	0	0.5808325563037564	-0.175013542624207	-0.422028901002715	-0.2816344869924593	0.02463078837556913	-0.06595047335270506	0	-0.0643985438605913	0.02595640381610359	0.2509071947737014
1.03	-0.08404099180394513	-0.06758033060737391	-0.1393171826082978	0.01062607000000002	0.94138426	1.13651081	-0.03926592445585474	0.1129006077755343	-0.1598835397275353	-0.2185384401156635	0.3217691352953931	-0.0696712786513104	0	0.5821382023851212	-0.1738074415712626	-0.4250062112243351	-0.236226101381684	0.01499204893100144	-0.02526818628358889	0	-0.05989585968049223	0.032583141478575	0.253843804266231
1.04	-0.08652029754559826	-0.07384362113981581	-0.1408150328909456	0.01017790000000002	0.9391113	1.14715499	-0.04604140623303103	0.1165761793759157	-0.1616246646558945	-0.2272575046653645	0.3323421021901307	-0.06522978117693019	0	0.5819366863206201	-0.1744491944248319	-0.4227302842519091	-0.1966734840814419	0.008878425502245756	0.01192173220793752	0	-0.05866645848203368	0.0407294842627486	0.2545202574069227
1.05	-0.08938517115261997	-0.0790074399160056	-0.144030609541356	0.009662110000000002	0.93672587	1.1580012	-0.05231487860839034	0.118477408767081	-0.161766857677252	-0.2370918237860485	0.3337085585096947	-0.06486186018555619	0	0.5831135525849949	-0.1754366566861156	-0.417290608194638	-0.1667452734074171	0.008953343411321762	0.02067245563400627	0	-0.05623699332451336	0.04777257301081005	0.2553690611131171
1.06	-0.09102975501131227	-0.08257126745567341	-0.1444898481951838	0.009286270000000013	0.9347858100000001	1.16897848	-0.05944431979012224	0.1190159873545833	-0.163941668475865	-0.2462610974125648	0.3396265408267444	-0.05992548263028756	0	0.583353017517955	-0.1741861474756835	-0.4095798727136916	-0.1412535882883324	-0.0117005211500252	0.04359653645046676	0	-0.05448137797457241	0.05045742643818817	0.2569977458224104
1.07	-0.09304241976884568	-0.08613903073156785	-0.1472751610066214	0.009011940000000024	0.93296972	1.18043824	-0.06695583012574359	0.1191153688456528	-0.1648990773891598	-0.2546044859494264	0.3409954826696962	-0.05897336119196164	0	0.5835677041860575	-0.1745240116284101	-0.4079261509072126	-0.1245583948878903	-0.01345345305624121	0.0463869128334863	0	-0.0512207234972676	0.05506162280730757	0.2570702284735811
1.08	-0.09429532153062824	-0.08900097400963403	-0.1505324268292226	0.008711410000000003	0.93137218	1.19220129	-0.07489172093417881	0.1178432737520978	-0.1678802744590243	-0.2645853174323007	0.3404385786486468	-0.05642199019671021	0	0.5817588917241145	-0.1747317176776363	-0.4071876935485805	-0.1130808833575715	-0.01920339070958577	0.04675160793280386	0	-0.04872856541488396	0.05871479153594331	0.258542295364315
1.09	-0.09574362951751601	-0.09075573074976631	-0.1514868186298955	0.00870783	0.92995878	1.20438548	-0.08406078634291535	0.1167357183520442	-0.1677124643675706	-0.271989281103013	0.3392369152698584	-0.05565463367632355	0	0.5819721852704082	-0.1749164696801391	-0.4074739470935952	-0.1130163251993366	-0.02028969480613426	0.04592396093326923	0	-0.04406202204515895	0.05900544715039738	0.2584805798238328
1.1	-0.09414720294212368	-0.09179746521384377	-0.1577397618596046	0.008262630000000021	0.92918004	1.21629835	-0.09111647113218846	0.1107081557124409	-0.1720302167762539	-0.2887829285265602	0.3261039362547429	-0.04672633050378015	0	0.5756525070484315	-0.1756829090300039	-0.4131441052232324	-0.1134083383666393	-0.02015794339155971	0.03441073228700602	0	-0.04553425997815959	0.06173058382410908	0.2598044255005058
1.11	-0.08773504515948169	-0.08429422175326086	-0.1627655660668271	0.007532360000000016	0.92913329	1.22947594	-0.1057378545415671	0.09344181047013357	-0.1790759725619454	-0.3000370572857782	0.3233685051055041	-0.009922463483897468	0	0.5602219479825908	-0.16608175717074	-0.417163701465001	-0.1135305711045393	-0.02603912003081043	0.002990190053368265	0	-0.0471522451210065	0.05132687005905078	0.2692045253783166
1.12	-0.08671249922816321	-0.08423312800000637	-0.1647950550948415	0.006876800000000016	0.92842676	1.24225356	-0.1133891160083895	0.08674598586908414	-0.1837980393930323	-0.3144638118744171	0.3130574067136041	-0.006518340673150716	0	0.5573234357115067	-0.1670433016416975	-0.4202756739613224	-0.1320755305942237	-0.02675764241325921	-0.001674882003797307	0	-0.0451489741824587	0.05076091144437488	0.2675982063652558
1.13	-0.08592488921213982	-0.08118076024362313	-0.1697760538175016	0.005813440000000003	0.92804266	1.25571064	-0.1196770744420075	0.07455427077355073	-0.1886986256558633	-0.3300371578971598	0.2978746093523889	0.007057376013318279	0	0.5496156713045461	-0.1644830792091445	-0.4276604943371999	-0.1466743500379667	-0.02631819189501902	-0.01630225782662977	0	-0.04061456811960586	0.04955713359919778	0.2696075934611014
1.14	-0.08464082043173669	-0.07777634533230565	-0.1731625350814333	0.004793970000000009	0.92768015	1.26914308	-0.1243881113158206	0.06212329809017229	-0.1919429225583525	-0.3498556855382878	0.2792518776421697	0.01911912848222752	0	0.5433657137501988	-0.1622445333495718	-0.431466778706718	-0.1679227615326043	-0.02922949585872395	-0.02239123895167654	0	-0.03702509046963268	0.04662519286241728	0.2705703765922289
1.15	-0.08606913539109533	-0.06888353836256009	-0.1776055966093194	0.003716060000000021	0.9276324	1.28288733	-0.1246237321611033	0.0436474862765239	-0.1940421433215945	-0.3692459558067345	0.2583504189278056	0.04021294115518441	0	0.5361496921947962	-0.1534842933412237	-0.4380364086724654	-0.1752352490065611	-0.06218220033443323	-0.03891325135895785	0	-0.02794956161883363	0.03761350588672814	0.2734472628376175
