inDegrees=yes
nColumns=22
nRows=100
DataType=double
version=3
OpenSimVersion=4.5
endheader
time	pelvis_tilt	pelvis_list	pelvis_rotation	pelvis_tx	pelvis_ty	pelvis_tz	hip_flexion_r	hip_adduction_r	hip_rotation_r	knee_angle_r	ankle_angle_r	mtp_angle_r	hip_flexion_l	hip_adduction_l	hip_rotation_l	knee_angle_l	ankle_angle_l	mtp_angle_l	lumbar_extension	lumbar_bending	lumbar_rotation
0	-2.915332984208464	2.074542810308871	4.831526052508088	0	0.8049214866096452	-0.006182214762523323	37.0089411865996	-1.992914612758134	-11.88818808696457	-15.82345390594464	-0.6123864695016831	0	-19.73937902382679	6.29316173103449	-3.068419528959553	-3.929937230416397	14.46946718665341	0	-2.43374412303223	-2.129097241869017	-8.004427323746794
0.01137310466837795	-3.27009703604948	1.636315521319181	4.646327681533942	0.01638090274333551	0.8034692097832176	-0.005667599461562471	36.29511900095076	-1.183185587302225	-10.90537150652577	-15.86256495335518	-0.7637233376259317	0	-19.58605103104414	5.823529572347587	-4.015820223243278	-5.486097961780674	13.5871837405604	0	-1.765765894829197	-1.523414409608236	-7.590627550697887
0.02274620933675589	-3.562919948772009	1.164086669875142	4.453276305850085	0.03302353375977976	0.8026390344777956	-0.005087530767264111	35.45723988158872	-0.3103527771221532	-9.927059742088298	-15.80182027113383	-1.082414558815357	0	-19.38465136011884	5.273038983627748	-4.912703860489755	-7.216063278979656	12.33885476360125	0	-1.154525984166981	-0.8579855405530495	-7.177597096313907
0.03411931400513384	-3.777916698546406	0.5359213060900244	4.210120560273796	0.04960640936559423	0.8025857202458955	-0.004402006215318449	34.7496155076149	0.6910586494683844	-9.068222680301128	-15.90784307307648	-2.211772243444817	0	-19.10796267134464	4.528252398162558	-5.797764669258291	-9.147447750164494	10.79561181936152	0	-0.654281210684173	0.01708520792008736	-6.75025835745683
0.04549241867351178	-3.8978434754014	-0.210030913537301	3.901804993806376	0.06607384866565252	0.803354191421345	-0.00360437235129403	34.22845841698524	1.760894430411088	-8.387746241182953	-16.49664225949751	-3.295653050011246	0	-18.77853889166573	3.631604937979197	-6.659377899405194	-11.27354498796647	8.950601254571163	0	-0.2909153329806433	1.058593710419936	-6.306307966672497
0.05686552334188973	-3.907198955105947	-0.9281275619442191	3.531988269602643	0.08250995129658198	0.8049026234812034	-0.002678940786686361	33.8431992415282	2.767429224097085	-7.87018349715519	-17.69689156116508	-3.525002158887713	0	-18.43238868736405	2.729427674710474	-7.456581602383572	-13.58835074047281	6.825024693782939	0	-0.06740563414841688	2.087331698842043	-5.858934184885499
0.06823862801026767	-3.811365595488151	-1.535374026718426	3.1116354922618	0.09897491932528361	0.8071468454868841	-0.001661995564618721	33.42639230858647	3.650215175548419	-7.476348272646398	-19.14810605145509	-3.264797506961286	0	-18.00199883721768	1.900867695859146	-8.173052882199844	-16.236421277097	4.609189802889388	0	0.0404939290702104	3.003890161870097	-5.40810786561889
0.07961173267864562	-3.630472299733742	-2.01132333224878	2.668758517229539	0.1154446177735226	0.8099615828533466	-0.0006301949551626499	32.82173559254741	4.402462269401449	-7.161872013374889	-20.51095652977686	-2.629962575576843	0	-17.36473810849243	1.153722113347171	-8.806348177298004	-19.42586417356523	2.598293468280566	0	0.06345478209011347	3.783688598817916	-4.962446662677829
0.09098483734702356	-3.397180947899765	-2.392864058817019	2.238770358369867	0.131794549987675	0.8131753672665651	0.0003456857395105657	31.95689010496023	5.059976761679023	-6.887272403008049	-21.56112950940852	-1.732720299522239	0	-16.42586102759214	0.4362117547907495	-9.305093831902711	-23.22386444780676	0.8326478458283705	0	0.02778930108666642	4.464047024426185	-4.53132944439724
0.1023579420154015	-3.151438071812497	-2.714628573385331	1.858006815558526	0.147866598235827	0.8166035261107777	0.001231042006251981	30.82418451537274	5.64141382521772	-6.664461473438179	-22.15428793264678	-0.7722054286941191	0	-15.14305666402831	-0.290444708589938	-9.591468423460832	-27.52564518045667	-0.8688110794754399	0	-0.04278908655868198	5.068719146720219	-4.112769864095785
0.1137310466837795	-2.92812129845532	-3.003991901864648	1.556481841244916	0.1635012231941442	0.820078093420469	0.001994811695322363	29.50112535609206	6.150761042742239	-6.531330751084561	-22.33579482317615	0.2332382788977154	0	-13.47580151688755	-1.048563922872678	-9.645086806261832	-32.21848557231127	-2.799822239134959	0	-0.1313098774328508	5.617037927010857	-3.704631897664156
0.1251041513521574	-2.753470074226158	-3.263762908257819	1.355996390168139	0.1785839426647099	0.823457589171423	0.0026283572322036	28.08457870848198	6.577702761769705	-6.509275761943176	-22.19255668151747	1.197122840375	0	-11.40760888967966	-1.833386409815616	-9.490282085009735	-37.18733878212296	-5.104386935157404	0	-0.2238848942413111	6.101035304393857	-3.308140836045562
0.1364772560205353	-2.643093066073526	-3.502419592982282	1.260451969860898	0.193101618194835	0.8266285621604657	0.003137337301123811	26.66584886055099	6.930174971189699	-6.605404519500165	-21.84660439375389	2.108103294528015	0	-9.021970989953875	-2.62680373481127	-9.160067481044097	-42.14094057697059	-7.813880930547225	0	-0.3043464224914435	6.525401844232957	-2.925650281288933
0.1478503606889133	-2.598958976460215	-3.680582947628299	1.253559131646026	0.2071264688546869	0.8295615753222716	0.003553108026009647	25.28856754530797	7.184395279810948	-6.778004405812552	-21.37729340548227	2.941526346585439	0	-6.466101501215591	-3.347842616575846	-8.703554324706067	-46.67032904701539	-10.50932621761909	0	-0.3627045657738361	6.843054590287966	-2.558821394434427
0.1592234653572912	-2.613596737924685	-3.762258954661864	1.309039325337452	0.2207171489519719	0.83226816705798	0.003898141438118135	23.98145678406995	7.322550056241294	-6.9607768417266	-20.86402834793209	3.713836513291727	0	-3.811320296764728	-3.914733623299964	-8.15145969320141	-50.71660722822818	-12.04405797509542	0	-0.3999766410313625	7.017540561298494	-2.203443730794995
0.1705965700256692	-2.674584257768972	-3.724280927979708	1.401986407277765	0.2339239188108478	0.8347850818058306	0.004196689475138517	22.75272238794075	7.336959517685123	-7.086037648743363	-20.3509648070254	4.400800216748841	0	-1.075056634206244	-4.271849675311366	-7.535804839062862	-54.38672719330246	-12.06770191464537	0	-0.4220201278372225	7.026725655916851	-1.856246226795832
0.1819696746940471	-2.767498891158309	-3.575930111979118	1.511890820438635	0.2468016523524774	0.837167546625345	0.004482503488457318	21.60310474622822	7.247198143174397	-7.106194210658474	-19.87416527181118	4.996690362301901	0	1.731735189979499	-4.424796114865698	-6.902320355640727	-57.70642925902965	-11.34980468271627	0	-0.4361166943037947	6.883594116499944	-1.516032021600271
0.1933427793624251	-2.878475470669558	-3.344401250165203	1.619116973139816	0.2594068010248621	0.8394520768852456	0.004781165314990506	20.53147543934175	7.084303596909787	-7.00282478013429	-19.46314162922783	5.500270967228019	0	4.580364368510595	-4.409734244923587	-6.292115650739584	-60.68522307261345	-10.2444169570748	0	-0.4495648849623323	6.623490994419518	-1.179774480838688
0.204715884030803	-2.994485377042887	-3.056787729827447	1.70748490152019	0.2718099827680684	0.8416542224745797	0.005092408292456592	19.52324145699568	6.874665995224828	-6.780028710131264	-19.13258103360662	5.962920078522514	0	7.430191252285451	-4.264615538391255	-5.733394108791712	-63.30823472689428	-8.908352540008712	0	-0.4668930174113326	6.286165774381721	-0.8435859178907806
0.2160889886991809	-3.103999531077615	-2.737422365647924	1.765341125879482	0.2840899869145851	0.8437750647694717	0.005399431857312189	18.54665690649529	6.640933357333357	-6.454462281130384	-18.85966714062356	6.416339857667569	0	10.23913417315923	-4.030160778253486	-5.251663493890407	-65.53859548437589	-7.4944962020266	0	-0.4899075419873619	5.910608464911088	-0.5039497957444451
0.2274620933675589	-3.196313678988228	-2.394135245516928	1.78932036741483	0.2963320304973709	0.8458071686306852	0.00568278580447731	17.5549456074509	6.387569493479448	-6.06495836884819	-18.5948583070975	6.898927611251163	0	12.9668259339464	-3.732292628538707	-4.866818404162458	-67.34776405506594	-6.070743257129545	0	-0.5180604652086094	5.513724306711169	-0.1605172961507987
0.2388351980359369	-3.262698661625899	-2.031601699820175	1.780399082263095	0.3085893282808774	0.8477366577838192	0.005930520373811379	16.51585470041628	6.115318288638606	-5.650108195063003	-18.30014471923781	7.413630439313639	0	15.5841651509227	-3.392648581777049	-4.58930283772457	-68.73214701375096	-4.652343879973037	0	-0.5544892996719435	5.105194750187801	0.1851076777405612
0.2502083027043148	-3.297347212985643	-1.655110397016494	1.741278323631259	0.3208876415008388	0.8495480514694963	0.006143034259483413	15.41393521400164	5.825364347046712	-5.249393012476466	-17.95667513026252	7.952861156709958	0	18.06924817104941	-3.029243598961274	-4.418601220163429	-69.68993380765184	-3.258501594825763	0	-0.604234356577801	4.69142798985849	0.5311406459039009
0.2615814073726927	-3.298587367276584	-1.268366283999586	1.674736309450047	0.3332497704638515	0.8512310876907072	0.00632750903860009	14.24039684343139	5.517921670266625	-4.897926401875412	-17.54914707650772	8.50705704203027	0	20.39459410617339	-2.653906053626274	-4.349366886120652	-70.18447479756563	-1.906229276078007	0	-0.6685030773378587	4.274869325009798	0.8771277000777562
0.2729545120410707	-3.267873249878514	-0.8662701656726857	1.582134967572507	0.3456643706594643	0.8527729934500111	0.006499111654367343	13.01324791329762	5.184347515498834	-4.622173547941127	-17.10172313111222	9.071390034940416	0	22.5318328849673	-2.267872725324005	-4.378858883734248	-70.16563336143577	-0.6204365749328431	0	-0.7521165818248469	3.846521057497592	1.222410464221784
0.2843276167094486	-3.206983546798247	-0.4513628130923152	1.464949998560651	0.3581140096698907	0.8541608499527809	0.006676388214947405	11.74658687763771	4.827140054883327	-4.429486449238675	-16.62984396744465	9.627773285043407	0	24.46138957788084	-1.878031783587361	-4.496160822241779	-69.60606878299392	0.5734511436394392	0	-0.8598788976186772	3.404931000997289	1.569850651984801
0.2957007213778265	-3.118258934814714	-0.0296641838095207	1.323149339590023	0.3705825078931134	0.8553819534211734	0.006873694084292488	10.45236563546258	4.454073693989611	-4.309521291227338	-16.14679868579277	10.16763618301266	0	26.16923109229898	-1.48960602515198	-4.686700398959587	-68.49472560716715	1.661113306886643	0	-0.9949284231189024	2.953796651153196	1.923280743417037
0.3070738260462045	-3.00489408271297	0.3867043166198843	1.153272477042547	0.383059565621135	0.8564218192586883	0.007090700944963967	9.142356724995192	4.078896429995794	-4.24147270057787	-15.66656241092724	10.6892932009533	0	27.64167739294485	-1.106427569283615	-4.933555284266925	-66.83028539358605	2.658542634171327	0	-1.157724407848619	2.508235830967981	2.287944345281514
0.3184469307145825	-2.871610696350801	0.7738384941494781	0.951461232277263	0.395535831020321	0.8572576085605392	0.007327904545972171	7.822873333204199	3.727583261456571	-4.205218985038141	-15.18885752264556	11.18606575740951	0	28.87664647185798	-0.7515798466418174	-5.222182176329977	-64.6366379323978	3.532197663796804	0	-1.346387352589269	2.097590655449428	2.667984866565583
0.3298200353829604	-2.72398829029706	1.105177933443962	0.7142463044741083	0.4080128463503402	0.8578601442876748	0.007581534292785658	6.490894934062705	3.428655282947636	-4.181877506934766	-14.69708058566714	11.65132625577951	0	29.87545387704104	-0.4513545828140803	-5.538553430386789	-61.95905188255126	4.306018780029406	0	-1.556281303939164	1.755305536988685	3.065649387292686
0.3411931400513383	-2.567437055473829	1.362370763352464	0.4392405937199527	0.4205036309089349	0.8582031363149165	0.007840787310134555	5.136637931377247	3.201103165742663	-4.155453236825828	-14.16457459664637	12.07349735948535	0	30.63814710102677	-0.2195301129173652	-5.871889136163995	-58.83911692606137	4.9832429361211	0	-1.781357148878687	1.506327480349139	3.481109565780393
0.3525662447197163	-2.407137034499605	1.534663374133885	0.1278859872735098	0.4330204790433719	0.8582667845163254	0.008097960189196294	3.749241662954319	3.055478028714444	-4.118758664070138	-13.56363778290884	12.43695368110856	0	31.17044748252664	-0.06311747897363912	-6.215274078333538	-55.3021254553877	5.462700400118969	0	-2.016342231180988	1.364617067034078	3.911094021800629
0.3639393493880942	-2.248452434582975	1.616166086567741	-0.2143628265008433	0.4455568615821014	0.8580286827023553	0.008350693891592256	2.329671322365513	2.996931445811287	-4.069984447929779	-12.887604801805	12.73113439992833	0	31.49461897046887	0.01597370559073576	-6.559659909752279	-51.39594364401956	5.771541957798308	0	-2.259684761283042	1.335248113239416	4.349198954737693
0.3753124540564722	-2.096346981671927	1.606697905877508	-0.5795390961772614	0.4580930159127837	0.8574711458278708	0.008596056744102338	0.892349032694005	3.024133433326347	-4.014373607299003	-12.15596926442738	12.95721283670933	0	31.64066546521042	0.02540960602063144	-6.895231497266418	-47.175058881974	6.000274532023854	0	-2.513110457117905	1.415074017168098	4.787313337562217
0.3866855587248502	-1.955802320853504	1.503577015139373	-0.9577827858404424	0.4706193888708904	0.8565843032717716	0.008828736696899004	-0.5484522801672811	3.138895281456666	-3.966716249996269	-11.39017155233788	13.12271860718268	0	31.64090962971693	-0.03076115431180858	-7.216960191147591	-42.70873211875541	6.201239667078854	0	-2.776339306575566	1.603573508717182	5.217353304722793
0.398058663393228	-1.82887524145636	1.314713592728008	-1.340024965848305	0.4831551279368459	0.8553759787674647	0.009043070096118412	-1.984623244700748	3.332874043594943	-3.945028537361186	-10.60937644595684	13.23776510674377	0	31.50864879798142	-0.1390761011049995	-7.538539775062359	-38.05027100011265	6.384132782611062	0	-3.046577405929209	1.888485532622085	5.632204695388642
0.409431768061606	-1.71699924887841	1.047215748082398	-1.718479347444906	0.4957478087527885	0.8538682813144657	0.009224183945420742	-3.409249615148496	3.598826417972725	-3.963497507050969	-9.833721998140064	13.30401329373009	0	31.23666568569989	-0.2839017115139973	-7.887224278632727	-33.21949336214527	6.506972499579354	0	-3.315527688066982	2.261600155997144	6.026265824072722
0.420804872729984	-1.624442842527129	0.7144604821715167	-2.08572534338676	0.5084348945814318	0.852076469445049	0.009361420075637946	-4.804033442507087	3.923479582063036	-4.032161880631065	-9.099030327475061	13.33884821437739	0	30.82942722224391	-0.440644631329871	-8.276211499233153	-28.25306022749075	6.562891493635025	0	-3.5728307159873	2.706239667496286	6.395788241913957
0.4321779773983618	-1.558073049357925	0.3305682459889144	-2.434985595340832	0.5212490640904672	0.8500118488738457	0.009449876671801704	-6.148620039444285	4.293654057890524	-4.160309389023511	-8.435688055546821	13.34491770309946	0	30.30448658192599	-0.5858548787787984	-8.704637901054779	-23.21004780976044	6.544603478652607	0	-3.805255958628594	3.203935329753744	6.738770291639745
0.4435510820667398	-1.524427927374328	-0.08886342569326405	-2.761683781073713	0.5342148399958677	0.8476871740311573	0.009496448814682855	-7.416623546095645	4.69461530067145	-4.353987456086829	-7.888706732967985	13.35076911865524	0	29.68987694561089	-0.7027527771311297	-9.162036806905448	-18.17625286657342	6.410741800634027	0	-4.000087748183383	3.733200317896626	7.053064306339627
0.4549241867351178	-1.528481951450771	-0.5255370656010466	-3.064222286583912	0.5473242195734561	0.8451184275264092	0.009518350776324612	-8.568525510199912	5.106770495966218	-4.611691775195249	-7.522795713804933	13.37573492276386	0	29.03243314515414	-0.7831230513273461	-9.613396249688041	-13.28157736164553	6.148661348430016	0	-4.151678983734411	4.268334841681625	7.335517626527714
0.4662972914034957	-1.569027622830603	-0.961368909793372	-3.343389788803897	0.5605614869648868	0.8423380567367167	0.00952196917199147	-9.571495389337503	5.506659813968869	-4.915705293937477	-7.402896928061916	13.4445421813256	0	28.37819450033452	-0.8248066983373823	-10.02418263464998	-8.658445418402666	5.758589552635491	0	-4.262648503241693	4.787282533658731	7.582543913880951
0.4776703960718737	-1.641738584593895	-1.360540177243177	-3.595494726225075	0.5738931707896558	0.8393776099231378	0.009507369258831678	-10.41879451332758	5.853053770764162	-5.245323781215152	-7.544879259119593	13.5678496766146	0	27.81855529476938	-0.8143677904372693	-10.34906873230594	-4.533003768792204	5.256714279603715	0	-4.340442508134012	5.246044359871572	7.794119420788999
0.4890435007402516	-1.740008106267457	-1.684174241756681	-3.815113683828435	0.5872905104042869	0.8362772896793396	0.009477002990886356	-11.13131297377019	6.104728756869079	-5.582913309704907	-7.912413854824041	13.74312452333572	0	27.45443232410102	-0.742518988310273	-10.56138216267665	-1.166889937776847	4.729583631799422	0	-4.393449757413967	5.596408958546921	7.968870514992553
0.5004166054086295	-1.854476337423585	-1.912050534962134	-3.99848067371027	0.6007510691231061	0.8330912912143731	0.00943566968869353	-11.74537379927376	6.241540392524825	-5.907760122315005	-8.44878676894726	13.94277597810089	0	27.37470111522615	-0.6234407862129167	-10.65730010969066	1.163191365837086	4.310395861684429	0	-4.428305501934346	5.813267240963656	8.103408793876401
0.5117897100770076	-1.974125412827732	-2.023712454726446	-4.147313601144456	0.6142952007735176	0.8298867468750901	0.009391519309791596	-12.2875936223252	6.241790536066952	-6.201324107395448	-9.118361917985158	14.13454621538623	0	27.63788578682136	-0.4677523501262833	-10.65829422162134	2.22182790284685	4.009733254113746	0	-4.449197516124031	5.87294816307821	8.192860826102541
0.5231628147453854	-2.08862910063376	-1.999695391460583	-4.270974370118689	0.6279962249796698	0.8267336118222794	0.009354135077547119	-12.77432770049085	6.08291227341007	-6.450225849907533	-9.911495711552158	14.2945034208715	0	28.21558909583684	-0.2704077344828867	-10.58743366940191	1.985592575374703	3.760632622102092	0	-4.452969988410493	5.755710684138319	8.230552695101705
0.5345359194137633	-2.189679616146439	-1.829741367654999	-4.381733887154107	0.6419931994297432	0.8236942370609031	0.009338195557535567	-13.23672390920643	5.753772726157704	-6.646801186031676	-10.79182032505421	14.37351708879568	0	28.99381110483292	-0.01759255328322044	-10.43628705663324	0.6663093618969024	3.447005120249425	0	-4.426574692450431	5.452698882612136	8.209905258669137
0.5459090240821414	-2.273783345760411	-1.51983977322846	-4.491341124074719	0.6564551368848132	0.8208202181889175	0.009358124171880538	-13.71417018886329	5.262502707412287	-6.789276416447049	-11.70205771275796	14.30689899708739	0	29.81555729936278	0.3027970900154884	-10.16185824021092	-1.375219386693423	2.819906516248297	0	-4.349304607094131	4.973934498415461	8.126988676241451
0.5572821287505193	-2.341903245213322	-1.095379711852488	-4.61055918851269	0.6715612059837608	0.8181543851090434	0.009430215901043017	-14.24644551096714	4.639218238438657	-6.889125706561593	-12.57533568248418	14.0156187558014	0	30.52077595319462	0.6900561403935886	-9.686297837759641	-3.760377826247662	1.648021500910892	0	-4.193999039155693	4.351422742739859	7.983737884917717
0.5686552334188972	-2.39360671587006	-0.5948287348161465	-4.749760588918931	0.6875198330066443	0.8157350446497026	0.009561881147500248	-14.87230744902897	3.925616067466344	-6.961492992075724	-13.35326169940784	13.4165378739876	0	30.94226916504774	1.140558515134015	-8.931646527425681	-6.123530410388347	0.3356839255623927	0	-3.927820769669736	3.634139421812602	7.79004757475642
0.5800283380872752	-2.425598226305352	-0.09471628464166928	-4.909405146588345	0.7044911147222032	0.8136106021942885	0.009628416981117934	-15.63004678678233	3.194392786042203	-7.013621255960676	-13.97456453176163	12.40145221277283	0	30.98083151813482	1.66028036418313	-8.00345331975057	-8.17217472417356	-0.2944342662470792	0	-3.52987369170296	2.937920828066669	7.579901835731768
0.5914014427556531	-2.436815149887086	0.3829368117329779	-5.058489289245724	0.7222404039530441	0.8119148170732159	0.009506007106932786	-16.46916159091901	2.470218356314586	-7.10253272668592	-14.48607168084086	10.92218162598423	0	30.82749484410338	2.251492183622345	-7.07308114635332	-10.0557232375558	-0.3620705556523977	0	-3.034375635171367	2.300580902851648	7.369293262626789
0.6027745474240311	-2.427287698574754	0.9677612755725605	-5.139120404330424	0.7402533822958129	0.8108200949757369	0.009059811040268491	-17.2552795001781	1.626789560046762	-7.311797985676094	-15.06049973470262	9.079653622507692	0	30.81564992793987	3.00648884553348	-6.304824915951518	-12.25787266331342	-0.04452269696143644	0	-2.514479371359702	1.573079595390514	7.155483076836925
0.614147652092409	-2.38962937921699	1.760508599198931	-5.120370962674499	0.7583763530198229	0.8104436775181445	0.008257345551190136	-17.93394704497299	0.5681683081522796	-7.668387690335115	-15.79344615493215	6.95033706667674	0	30.8606158042873	4.012327252031699	-5.81246726689085	-14.44974982025677	-0.1749780835519756	0	-1.999520513384991	0.6324851050128443	6.920642626772495
0.6255207567607869	-2.308683396096339	2.619870091996972	-4.992708838275334	0.7765775468569025	0.8107380427085255	0.007144695012829426	-18.49905670517124	-0.5567708025013482	-8.135808774944303	-16.76506302415921	4.607890029220092	0	30.9204798323423	5.113479275748609	-5.542599961464007	-16.71480000401992	-0.3501638529439866	0	-1.52566095403409	-0.3729133208624403	6.663964847219497
0.6368938614291649	-2.175274115155749	3.351296150925753	-4.766442347003123	0.7948537297515977	0.8115945035909959	0.005830747372847105	-18.90390352085294	-1.554574442973209	-8.661230877756894	-18.11987729948089	2.150161313372872	0	30.89258710582471	6.10971441106218	-5.401267236627824	-18.97052546266654	-0.415616912016698	0	-1.116198002207199	-1.238219156096568	6.389010747137725
0.6482669660975428	-1.995941390004953	3.913205280991675	-4.454459063590479	0.8130646373461596	0.812874712456809	0.004431501017767075	-18.99665918920929	-2.403394819433678	-9.186654017933602	-20.16663392364051	-0.06346534115327096	0	30.71147540163964	6.96215054628299	-5.275236646909543	-21.13794224632252	-0.07112596911128018	0	-0.7848966851936963	-1.937782670780527	6.088244606127117
0.6596400707659208	-1.789186871640749	4.355913076688454	-4.078152190554992	0.8310124067032892	0.8144641980271107	0.003035518716739774	-18.64523598489743	-3.177343345750873	-9.677531237670857	-23.10478352071776	-1.831617650288904	0	30.29523853599667	7.716287763067085	-5.150297104034598	-23.01463622718893	0.7090326148899682	0	-0.5330271264464915	-2.537570150900429	5.754340739693398
0.6710131754342987	-1.579423678578892	4.727133841159256	-3.673069452459686	0.8485049015294837	0.8162559311354179	0.00169245333924458	-17.80154707517737	-3.942094789226255	-10.07012402320379	-26.87424695549432	-3.324966152487813	0	29.61133237945571	8.400991155983061	-5.054959608553094	-24.45598819820857	1.815147438740967	0	-0.3542696939509428	-3.081860414831499	5.389142104171384
0.6823862801026767	-1.389820366596252	5.048366172685466	-3.277285739094971	0.8654081508778312	0.8181618414390408	0.0004204491507734991	-16.48933783532388	-4.721983550634938	-10.2824005640513	-31.23836419814568	-4.90535637818548	0	28.68424113610124	9.018809288238671	-4.996000300905751	-25.41113678804993	3.044145050949743	0	-0.2369835257809195	-3.575246066036061	4.996331548464291
0.6937593847710546	-1.238118416008733	5.332257718160135	-2.926782934621053	0.8816581906666716	0.8201309602926177	-0.0007766067056030833	-14.7380825013845	-5.528819156870767	-10.28433064168982	-35.96685167042912	-6.93779780370561	0	27.5672503929988	9.565889943131195	-4.985996647665208	-25.90656865072298	4.275687499375437	0	-0.1636112085731346	-4.011664017721448	4.584788403547956
0.7051324894394325	-1.133991863007291	5.576030953904253	-2.645422329348109	0.8972249064804438	0.8221352743518071	-0.001914375622888367	-12.58768224140878	-6.344758657691816	-10.09015480944	-40.85296198082219	-9.551519422483006	0	26.32033848290794	10.03170248245353	-5.03875523503841	-26.0033539465687	5.42532564817328	0	-0.1209484596995004	-4.36895564161343	4.1656350036459
0.7165055941078106	-1.078040620158567	5.765853201596411	-2.420309784976041	0.9121525414717043	0.8241763355613606	-0.002967994168531364	-10.17075460985975	-7.069980274126002	-9.70055350653876	-45.55845251680628	-12.33806302144179	0	24.99337647517939	10.40573911388782	-5.145329411689474	-25.78322404062443	6.451858399909026	0	-0.09816162594514355	-4.635136742760178	3.736409347686172
0.7278786987761885	-1.062772715167229	5.888102035008814	-2.233413241965975	0.9265255330560698	0.8263037592865723	-0.003924515680276719	-7.608115662620015	-7.619369793466236	-9.153148209017889	-49.89335719739658	-14.20854018808423	0	23.61463881753198	10.6870720002317	-5.262449041633151	-25.31244399476601	7.31255673371755	0	-0.08821499004875329	-4.800928051434633	3.296974124112512
0.7392518034445663	-1.076281456591427	5.93716273476029	-2.069892859748946	0.9403700806562216	0.8285597987036357	-0.004788104543921398	-4.930035852618141	-7.958403909046461	-8.490945612446252	-53.91535886982091	-14.62200636932947	0	22.21369721158477	10.8823262750287	-5.34383685919837	-24.66238237506183	7.982419528189408	0	-0.09948284182223735	-4.865019910427432	2.844655083535798
0.7506249081129444	-1.104717762057533	5.917142575831749	-1.919130739172726	0.953733449712485	0.8309646176166025	-0.005580911379862287	-2.159620109126402	-8.10690403258949	-7.787852624837014	-57.62616621600047	-14.07594279676587	0	20.79531888732741	11.00380534508546	-5.362179096782363	-23.87474151467177	8.487993190598282	0	-0.1402244515407271	-4.834278346661659	2.377918701246434
0.7619980127813223	-1.135076678754974	5.826665278839975	-1.769736509387175	0.9667067083939361	0.8335122692022598	-0.006309079300229773	0.6601668990195836	-8.084217352122669	-7.110045090523482	-60.97945436396577	-13.07491112955871	0	19.33758389916806	11.05273641118323	-5.309553142808021	-22.95601847988424	8.885597284987648	0	-0.2113176437005164	-4.713073535059229	1.893063713373845
0.7733711174497003	-1.160135902648844	5.662391260247555	-1.613006430220356	0.9793917055999474	0.8361727929690367	-0.006962314216449956	3.486029268483673	-7.903438185487954	-6.500984414307864	-63.93417669776841	-11.85648507954107	0	17.82081980588291	11.02490659130143	-5.183136077084504	-21.90405734566036	9.212452080226177	0	-0.3049872254149375	-4.505946239774672	1.389521892117653
0.7847442221180781	-1.177278116558405	5.42630827409374	-1.442040005043001	0.9918659372164346	0.8389011649759925	-0.007528837285529159	6.286076726488928	-7.583819573069018	-5.989167045258646	-66.45288534106646	-10.62241679480063	0	16.24291053625038	10.9190160252897	-4.987152510591367	-20.72988526700455	9.483467487982102	0	-0.4129443585660068	-4.223630096497222	0.8699065039882938
0.7961173267864561	-1.18651284212915	5.121334234685089	-1.253755547000824	1.004174654855289	0.8416442419786244	-0.008005937871090869	9.035401914411693	-7.153201641138803	-5.601544748621903	-68.48515560554576	-9.439454911883349	0	14.61294540665604	10.73247872731151	-4.740393014374671	-19.45260375688562	9.708088574152084	0	-0.5309428196488297	-3.874907583011126	0.3407685066565506
0.8074904314548341	-1.187757681627785	4.753471947022826	-1.046652389746994	1.016347051826139	0.8443384348579726	-0.008392893421766644	11.72038394594035	-6.641705622807108	-5.352179119050895	-70.025551686181	-8.283088179698261	0	12.94207186620315	10.46577857322657	-4.469535101575759	-18.09297535223768	9.902795423186671	0	-0.6571793910460353	-3.470640628782991	-0.1931718163374004
0.8188635361232121	-1.180278932902553	4.335613433147508	-0.8198346503013392	1.028402839917544	0.8469129579893767	-0.008691379355077444	14.33633103860394	-6.083669068791473	-5.24312554963363	-71.11351724817321	-7.09635981338156	0	11.24197259272965	10.12839490675668	-4.198504105609023	-16.67231337042428	10.08117973388906	0	-0.7916292289169762	-3.028434144683263	-0.7291550284780182
0.8302366407915899	-1.16250542176376	3.883575616812173	-0.5724404942374165	1.040357293533868	0.8493005375964827	-0.008909324283183714	16.87876894347414	-5.513680183782967	-5.268610780849201	-71.79813499409292	-5.830104116507386	0	9.524676044371276	9.735225924577852	-3.943907388750238	-15.21239717355404	10.24358444862571	0	-0.9358963502637071	-2.567365718838046	-1.265936808587
0.8416097454599679	-1.131980729814266	3.410643092828055	-0.3035288186556442	1.052227296299917	0.8514476570038221	-0.009062055092047208	19.33349762770209	-4.958511859325177	-5.415300479802366	-72.09636134048806	-4.494547301239876	0	7.802858775329682	9.300831464636653	-3.709501497857647	-13.74152239688586	10.39694477310684	0	-1.092512852464563	-2.10140998728785	-1.802461316970637
0.8529828501283458	-1.08558884313859	2.928553154109341	-0.01198156755882196	1.064044243511097	0.8533215450346124	-0.009169959348960418	21.66633049932397	-4.436488350572307	-5.662433178549537	-71.96527504526475	-3.125898994822881	0	6.078776547964418	8.83954233263483	-3.488727645872302	-12.27371087168873	10.54701986491546	0	-1.26268009244192	-1.641088464752519	-2.33816729101941
0.8643559547967237	-1.020789846350848	2.454378493994993	0.3035229376064666	1.075818136324073	0.8548937671245882	-0.009256360564884608	23.8443692544863	-3.966897030958852	-5.981735154107734	-71.3648601849489	-1.720734060914052	0	4.361841949781656	8.371052430007442	-3.267416085458445	-10.83232922255505	10.69341063086329	0	-1.451245004386773	-1.202099196609614	-2.872627795600716
0.8757290594651017	-0.9358927205963399	2.009715596684807	0.6447240194281441	1.087538571208035	0.8561363912637269	-0.009345019098638347	25.84292339072129	-3.570469318731191	-6.341191832065491	-70.27825762591468	-0.3026348671714925	0	2.668169903616169	7.918580516607839	-3.032256912071057	-9.449891767980095	10.83436664874664	0	-1.665970517669629	-0.8048541084491172	-3.405676815968848
0.8871021641334796	-0.8301743798523339	1.616027907881866	1.011262236955911	1.099228972723416	0.857028850419056	-0.009454865061022314	27.63364440072015	-3.265062903707376	-6.710223021382009	-68.6952473025987	1.066304011689288	0	0.9894640284677262	7.504677996915418	-2.77811739089324	-8.11900910661271	10.97037816347967	0	-1.906746033264615	-0.4695219672074073	-3.93697214664381
0.8984752688018577	-0.7044319839067998	1.294047598429727	1.402175673184908	1.110936226003949	0.857560109271331	-0.009597268175440411	29.17818358549843	-3.065767263987309	-7.065462398695687	-66.59646249257401	2.343856623044579	0	-0.6938407735291763	7.150493824700889	-2.505005118981396	-6.808146645878927	11.07418051272821	0	-2.167391320995806	-0.2172051549304398	-4.465886167798415
0.9098483734702356	-0.562167749687194	1.059422430901372	1.817488032792786	1.122699273394365	0.8577285562237338	-0.009768488455067444	30.43371150392234	-2.977759888903761	-7.396526480737385	-63.94396722537898	3.458112468290628	0	-2.384389843891731	6.870011822093995	-2.215337022041575	-5.508874221350001	11.10528740146061	0	-2.440060756853602	-0.067271719744589	-4.990447501117618
0.9212214781386134	-0.408043035353172	0.9176899060325993	2.256669812204017	1.134538937311524	0.8575319060356612	-0.009942410624010901	31.38043631141994	-2.986140495695823	-7.701757098438214	-60.7527167970735	4.304597193382849	0	-4.06713874202982	6.664834123821085	-1.911479426137117	-4.246018924004109	11.05533817996685	0	-2.718015796183112	-0.03129660927935383	-5.510311321262488
0.9325945828069915	-0.2470279177872582	0.8695168087922878	2.715770625497225	1.146473666192215	0.8569728223306293	-0.0100944655338254	32.01404138587329	-3.07582074219864	-7.994381154654726	-57.05584345477784	4.790107863575329	0	-5.730379925102775	6.532828879924321	-1.598723737292501	-3.041433524646917	10.94303806842096	0	-2.994603818731068	-0.1136431041619319	-6.023765459962879
0.9439676874753694	-0.08419187087681325	0.9113587650269613	3.183127148494259	1.158509879350029	0.8560466680515948	-0.01021702606349274	32.36216901072324	-3.235484711142224	-8.289801606816283	-52.92665641681435	4.924098182758516	0	-7.379808671868465	6.471193697416606	-1.279952067286225	-1.885737031326706	10.79323356647751	0	-3.26612215513105	-0.3068139680126994	-6.526522619030674
0.9553407921437475	0.07282269435505409	1.035451894253911	3.641114100710863	1.17062329521293	0.8547297654412899	-0.01031316721457456	32.49588741787328	-3.451948971733986	-8.592319935685934	-48.49381272732318	4.840759791104984	0	-9.021902524255941	6.475088858423336	-0.9525225480096674	-0.7622200979156906	10.64398845508561	0	-3.532331154889916	-0.5929092421182798	-7.012659157890938
0.9667138968121253	0.2117398435800772	1.232686527408948	4.073062472263735	1.182761772659685	0.8529852939510731	-0.01039077147912042	32.51085357524583	-3.712699686341641	-8.899838585488961	-43.92743487847726	4.853957253070002	0	-10.64343594945862	6.539064835125736	-0.6125800833083641	0.322908367942239	10.53810862845917	0	-3.793396235007457	-0.9513481760148863	-7.475569635398332
0.9780870014805032	0.3157647819491353	1.496515612329203	4.465769638370166	1.194846374055692	0.8507828521113306	-0.0104544896257696	32.51216272074677	-4.012217348920863	-9.214996544741448	-39.41123134969848	5.150936192676462	0	-12.19702125770855	6.660784400233553	-0.2605107712312948	1.31395189572819	10.52643584114233	0	-4.049251350596386	-1.36718892280809	-7.905604029325889
0.9894601061488812	0.3742033468043654	1.815591229740409	4.812362748259273	1.206841008671602	0.8481364502791214	-0.01049553122473987	32.55989635295972	-4.334535888574807	-9.549797308240683	-35.04768337292245	5.625367172640416	0	-13.64826693657627	6.832341142149656	0.09593744301487234	2.169897531543111	10.63134225437554	0	-4.297322576198973	-1.825531086047439	-8.299539482018105
1.000833210817259	0.3812431054472954	2.177377657685128	5.110602437665038	1.218776729086462	0.8450998982189556	-0.01049730687710036	32.65491804739591	-4.657767079375289	-9.926391765365061	-30.84379311996556	6.140538608506323	0	-14.98144779352593	7.043643022525361	0.4480362305489614	2.873487995657847	10.84015976662984	0	-4.526588873078103	-2.315203992655091	-8.653560854250872
1.012206315485637	0.3339857637868172	2.567684874007182	5.361816411972138	1.230720482080645	0.8417498714944397	-0.0104466974185641	32.75958763995716	-4.956339427608657	-10.3605002019065	-26.75190588613415	6.643766304773068	0	-16.18130596711615	7.283765663198121	0.7778315226772969	3.401494855542726	11.13691927506229	0	-4.721502126988701	-2.824686616218377	-8.962515525542885
1.023579420154015	0.2304974126786963	2.97206885316684	5.566997222471347	1.242731070422752	0.8381675921605711	-0.01033332539784096	32.84020037994283	-5.206009870488531	-10.83970826404197	-22.74337663437658	7.074724355533122	0	-17.22397647494781	7.543592267389621	1.059027050762199	3.71554690105652	11.51216166953162	0	-4.868639391667524	-3.341446502831512	-9.219683362151615
1.034952524822393	0.07198937902021205	3.369381442625462	5.727869803408569	1.254859477122684	0.8344361528017643	-0.010158003442663	32.87098413870459	-5.384252017450806	-11.34040155809749	-18.81969584116675	7.428048202892517	0	-18.0887608153013	7.808115857826896	1.263597578890632	3.779680328940694	11.95933641272184	0	-4.958755487302581	-3.842589960023229	-9.417273596542296
1.046325629490771	-0.1366110239286227	3.726256752167445	5.843106483180333	1.267167707244724	0.8306279759208071	-0.009916992459895429	32.85154488646403	-5.461643262505286	-11.84398899175464	-15.03983086016052	7.691058396736592	0	-18.78754583875836	8.048664367822175	1.367339801243298	3.613680995482277	12.45107038919038	0	-4.982738198683089	-4.290432041956079	-9.550464328758316
1.057698734159149	-0.3891566390774033	4.007960534401244	5.909242884101314	1.279701939503515	0.8268055019255618	-0.009604784263148994	32.81841201779973	-5.416304042551826	-12.31960907244205	-11.55540668479767	7.858164148840112	0	-19.34431720644011	8.233851062290295	1.352517288315765	3.262337147037259	12.94295833513338	0	-4.935032535011842	-4.644787917307461	-9.615414456600629
1.069071838827527	-0.6783824127528681	4.179710533029815	5.919907951017587	1.29246836950841	0.8230200528210924	-0.009226908292335936	32.89747085696101	-5.251015716592706	-12.72383637379156	-8.791536578087864	7.928048268366738	0	-19.77794173388999	8.333337963263181	1.202183186552762	2.76014964686149	13.41159654815814	0	-4.815543440658826	-4.86146786749258	-9.609441863443065
1.080444943495905	-0.997121397063066	4.202096519463919	5.865167091319654	1.305437505316225	0.8193246972075909	-0.008782560216708249	33.27987068100715	-4.978438214117753	-13.03778609345469	-7.398859687785822	7.863288846865456	0	-20.08108013254351	8.311853072002958	0.8999467054463434	2.094174840413773	13.86996984875424	0	-4.627144005862907	-4.890631876280509	-9.529716268157298
1.091818048164283	-1.342020144088568	4.045343950568609	5.740293748404039	1.318612723499671	0.8157878592081359	-0.008279464583166299	34.0477942593614	-4.602710029165969	-13.23488949511547	-7.70699201112062	7.366108634582765	0	-20.23483556190827	8.142564132957437	0.4261203528605199	1.230234530540648	14.32574203479686	0	-4.367638626913468	-4.693670245526091	-9.372473443862223
1.103191152832661	-1.71304090399304	3.704305051217777	5.555444264509932	1.332100878407404	0.812494584169857	-0.007745153408562654	35.06737742209916	-4.112708108391135	-13.27393250234142	-9.406805425081394	6.035968728323807	0	-20.23808220218726	7.816615473299967	-0.2240756554748013	0.158977868820088	14.72345911681643	0	-4.024224405000125	-4.261554073504842	-9.135313586871984
1.114564257501039	-2.107161832353451	3.205626894986248	5.323772283401312	1.346038494235797	0.8095114213433643	-0.007212102792158854	36.14629157866469	-3.5074684023252	-13.0986547657058	-11.98888662501657	3.939731078903554	0	-20.11559721082113	7.353725807141784	-1.044635462698006	-1.099037097009071	14.98090364601538	0	-3.590449597037531	-3.62091925856047	-8.81607028281001
1.125937362169416	-2.516518000539926	2.612476094657247	5.066378002018873	1.36061471963698	0.8069328620325517	-0.006693946128517277	36.98838932582776	-2.788456662049565	-12.66679093919726	-14.63864937695695	1.376277028827332	0	-19.91649153230451	6.80540516156692	-2.023200676438635	-2.488853330821294	14.94525731661717	0	-3.060718425534658	-2.846725520895919	-8.42574575944117
