inDegrees=yes
nColumns=22
nRows=100
DataType=double
version=3
OpenSimVersion=4.5
endheader
time	pelvis_tilt	pelvis_list	pelvis_rotation	pelvis_tx	pelvis_ty	pelvis_tz	hip_flexion_r	hip_adduction_r	hip_rotation_r	knee_angle_r	ankle_angle_r	mtp_angle_r	hip_flexion_l	hip_adduction_l	hip_rotation_l	knee_angle_l	ankle_angle_l	mtp_angle_l	lumbar_extension	lumbar_bending	lumbar_rotation
0	-0.9889428426788677	1.603064596862925	5.298278850788728	0	0.8768651707307542	-0.07954125877948397	31.63787053044828	-5.548962590482817	-19.7017867627056	-18.25698782304006	4.37897414389274	0	-12.61463315287686	3.341457148405239	-12.14503935849445	-10.83002381391779	16.03490123330644	0	-7.303887373514517	-0.867767695676568	-12.24256344533475
0.0128030520949917	-1.01798177717321	1.412756982599133	5.744466582850573	0.01481914548004504	0.8757714977020381	-0.07847832375890128	31.17650678431876	-5.250438514564107	-18.91384435308569	-18.90966067411866	3.212015018809868	0	-13.16451985691493	2.737227839968798	-11.8370707198371	-11.48466309351832	15.35666789453409	0	-7.110858842287259	-0.5151050811742504	-12.32293369461932
0.02560610418998341	-1.031607396160817	1.290264775874812	6.205091945994435	0.03036564285173837	0.874984767401049	-0.07713352526645967	30.43610045390344	-4.926228357349699	-18.19563022326802	-19.36513139281114	2.874504379318342	0	-13.7187061359341	2.153469472394447	-11.51350069469682	-12.19564964478104	14.40626280946757	0	-6.839684300334077	-0.2851503215897123	-12.40751939824069
0.03840915628497512	-1.031064590580125	1.088966158967646	6.615866941024613	0.04607071835501408	0.8745164843110541	-0.07552981529137587	29.80313053720547	-4.520728450581789	-17.53279221053328	-20.05399642272994	2.612370521487351	0	-14.17051801925637	1.454414666089113	-11.24793250242975	-13.09247436403268	13.34277735890487	0	-6.571075803822535	0.0217016993773346	-12.45182828753512
0.05121220837996682	-1.013175314677657	0.7192207795505611	6.939249921341236	0.06167098767718271	0.8743771442957956	-0.07368403860163102	29.38211606918583	-3.952462834067519	-16.86541570600419	-20.95651170400073	1.757825277302002	0	-14.47384553369487	0.5590987771295668	-11.04456316428628	-14.23663319347832	12.24622161482072	0	-6.341716328671626	0.5293966613148986	-12.43027539481547
0.06401526047495852	-0.9665793019264114	0.2862626156446383	7.187139377503012	0.07715874471120676	0.8745531135420604	-0.07165486154593735	29.13708384924283	-3.329205342375642	-16.13906277793884	-22.22541492124712	1.137299810353629	0	-14.62008959575445	-0.4282198884447785	-10.83098412089885	-15.68134866088561	11.06511381498805	0	-6.1727146893149	1.126311846179972	-12.36337251113986
0.07681831256995024	-0.8925882662130539	-0.1496244903152152	7.376776578144453	0.09256594857270362	0.8750242908433282	-0.06952232924614614	28.95693281955747	-2.701707995890294	-15.38699018746106	-23.78163139242945	1.217552126551263	0	-14.54210960412758	-1.455499888269371	-10.54390104745064	-17.56167544810743	9.764725353344106	0	-6.055349071190238	1.750501269250029	-12.25351902807025
0.08962136466494193	-0.8053768923114273	-0.5883350424022572	7.509607137914634	0.1078722658486913	0.8758152219908574	-0.06732761552421027	28.65278089619991	-2.052120775762309	-14.75100596014587	-25.16897177094353	1.550729184803531	0	-14.12569924936173	-2.528295446704529	-10.15140005125028	-20.05438487373259	8.31821463986264	0	-5.966701166048107	2.40035523389783	-12.08526792653224
0.1024244167599336	-0.7171164279253698	-0.9914813672488156	7.592968280108437	0.1230552485256808	0.8769079189388121	-0.06501447526361701	28.14156180580388	-1.402203251908217	-14.33069737825748	-26.27334410441192	2.375491000962583	0	-13.27484944322612	-3.612755326380827	-9.608017372836077	-23.30272455979151	6.697376109759665	0	-5.887886868027211	3.007050098537119	-11.86752808318567
0.1152274688549253	-0.6426665176643851	-1.310327133124651	7.657651802692943	0.138046114156674	0.8782771646501586	-0.06259140471162541	27.36439193664079	-0.8022301180010154	-14.15354772279787	-26.8573833379041	3.170483320600254	0	-11.92827368256666	-4.648548770051547	-8.898573529260837	-27.38338658520827	5.143699419332433	0	-5.802903731371724	3.493372174929714	-11.62144046132906
0.128030520949917	-0.5934494883953241	-1.608267052557802	7.719357848496417	0.1526713358533949	0.879774689926761	-0.06009954482145772	26.4563615598567	-0.2078768255667578	-14.14627796921082	-27.13270297492564	4.06958316791626	0	-10.08412971769364	-5.668581813954361	-8.049829482439415	-32.26824330580113	4.064200673817019	0	-5.708038221553482	3.925837930026942	-11.34146180745955
0.1408335730449087	-0.5715481024299066	-1.896271978943696	7.79138112124853	0.1668591203036032	0.8812824307790356	-0.05756890196614233	25.48181665258839	0.374514171805913	-14.28466325489648	-27.15879827831797	4.858601839537489	0	-7.859330791857905	-6.643866329091213	-7.063696897914354	-37.62972190088712	3.257474350840897	0	-5.605765546963093	4.306518226942047	-11.02437944795551
0.1536366251399005	-0.5737284895459258	-2.183254336483997	7.876326643121658	0.1806341111221291	0.8827625783293128	-0.05503185677249094	24.48877956279617	0.9473505692605174	-14.53221721001704	-27.03798287437568	5.582586681154056	0	-5.42995850459908	-7.545130056225938	-5.965699645019821	-42.99882841139284	2.28091080930073	0	-5.492983623848154	4.642212455802552	-10.66459193316609
0.1664396772348921	-0.5892550615009304	-2.473289168232883	7.968900936190039	0.1940635649751425	0.8842450383319461	-0.0525043082989354	23.48644455638547	1.519958661428583	-14.84772492194918	-26.79776506444324	6.166476281430752	0	-2.922155207099782	-8.376144215962542	-4.85894542468241	-48.09279775467336	0.8679340424462333	0	-5.368654943670175	4.939159824179489	-10.25973611687479
0.1792427293298839	-0.6053396651957225	-2.78041772037576	8.047760668654202	0.2071856446029792	0.8857622801411836	-0.05000827360002444	22.48836693469686	2.10996498468759	-15.20765391451862	-26.4874554222406	6.628436232897038	0	-0.4159184743886466	-9.167290918708479	-3.863094305104222	-52.73001422744625	-1.14593011752311	0	-5.240932804896327	5.225588480690216	-9.7919534072524
0.1920457814248756	-0.6098980245635062	-3.056897011998658	8.079361954070716	0.2200595741309944	0.8873823866758538	-0.04757989467739528	21.46368736881607	2.683830762353667	-15.55636678321263	-26.09645003505718	6.991354206937065	0	1.966906221496618	-9.854851245155061	-3.066228009552485	-56.6320711879409	-3.522047202459083	0	-5.129720296913332	5.465451360081749	-9.241509276091714
0.2048488335198673	-0.5931744578402598	-3.248384780498883	8.037986072018397	0.2327245065295271	0.8891464242111388	-0.04526253020211786	20.37224749744702	3.201910494569161	-15.81639998916331	-25.60608329896363	7.328939879053506	0	4.125908611369216	-10.35670997495536	-2.50930472581127	-59.6893343519795	-4.777782347139481	0	-5.056078203728134	5.614066327579277	-8.595439734837482
0.217651885614859	-0.5498913613521492	-3.347565074224473	7.926673759995615	0.2451302827146258	0.8910572702079443	-0.04305360922997102	19.2022927386323	3.659746761172118	-15.94818771217612	-25.00427331725239	7.633881473911696	0	6.112060314178271	-10.68916971615867	-2.213880927112072	-62.01300001912775	-4.680491444313425	0	-5.037771804647552	5.667244288639615	-7.859987811625416
0.2304549377098507	-0.4793826288469759	-3.350725877693162	7.756250740530495	0.2572054402520271	0.893082302470341	-0.04092680033877154	17.95748516194222	4.046761206919991	-15.9591226271039	-24.2974653416805	7.921868714064489	0	8.02965047244663	-10.87133375790844	-2.146864839571082	-63.81709582350838	-3.787889773833635	0	-5.087244238203311	5.615765096978675	-7.046531726933013
0.2432579898048424	-0.3840465090017299	-3.259424396431975	7.539376250693769	0.2688855300871091	0.8951665494825897	-0.03885886628041391	16.6571662108176	4.352343043654495	-15.87020816106887	-23.51245872215248	8.207804365181323	0	9.96189411741083	-10.91604528883037	-2.255470446543031	-65.26198070268296	-2.587928535134921	0	-5.211506071335202	5.4551189036979	-6.174189172604462
0.2560610418998341	-0.2672790569472641	-3.089833514108606	7.28837863018024	0.2801468301338433	0.8972383673520025	-0.03683655860084913	15.32180395291176	4.579953540529243	-15.71877031402989	-22.67939504262132	8.526433573251913	0	11.94790745874235	-10.84977566772789	-2.495185337587733	-66.44243070870304	-1.207381714669982	0	-5.408606450299777	5.198833658585778	-5.265031136608186
0.2688640939948258	-0.1332494705199621	-2.862181686803274	7.014525199252319	0.29099954401727	0.8992330621349377	-0.03485177777318561	13.9702882029258	4.739761113290458	-15.53998446761453	-21.81740885057386	8.862627070418863	0	13.99019980556277	-10.70260556382794	-2.832721997716002	-67.37374789817251	0.2958030293210739	0	-5.670742027106398	4.866042891326487	-4.343004333712072
0.2816671460898175	0.01325164445168218	-2.587445282426769	6.727412359835354	0.301492340092029	0.9011090521283158	-0.03291035865099061	12.61441522812681	4.834324048551151	-15.37052511479965	-20.94345482388889	9.231763824691303	0	16.04969282377223	-10.48849261949889	-3.244294605941529	-67.97560614797611	1.879425579593866	0	-5.985275401751596	4.467816147141146	-3.430503624433941
0.2944701981848092	0.1667102206033085	-2.29232675411642	6.434980307692518	0.3116881003787771	0.9028341465955161	-0.03103874298438532	11.25808592987998	4.887670270889041	-15.2306804134356	-20.05066895342593	9.616121567693668	0	18.08160313169047	-10.2320561352284	-3.702033183540268	-68.15659108048322	3.434114696579106	0	-6.334965164612543	4.038156950656417	-2.541529446436704
0.307273250279801	0.3197816916015999	-1.99160824660835	6.139672195958604	0.3216410204444375	0.9043800320425314	-0.02926539371381455	9.919165647288287	4.911047489985304	-15.11882806103627	-19.15841367461587	9.997640460696367	0	20.04246293939259	-9.939771775394869	-4.179956643183101	-67.85769870346208	4.897323745846325	0	-6.703437683626204	3.59882488635343	-1.685936516428514
0.3200763023747926	0.4658357578252913	-1.689651526187613	5.839775511136523	0.3314213646639288	0.9057317095113311	-0.02761217282960056	8.60885863983899	4.906927446215295	-15.03092782795934	-18.2837942124036	10.3865822363038	0	21.87333681790735	-9.608389170566957	-4.667669742990125	-67.00815932265472	6.242940049083158	0	-7.074004258248166	3.159408599269577	-0.8723820412841768
0.3328793544697843	0.6000120430591054	-1.394446302553513	5.52807939284919	0.3411324674858932	0.9069023166063379	-0.02608847443374044	7.32471661481231	4.886319183116584	-14.94873725237027	-17.41897538252513	10.75593743544344	0	23.47840098340888	-9.24344833327415	-5.177178745814492	-65.45768186998535	7.426877869673725	0	-7.426844778683954	2.733565781406488	-0.1092646396572846
0.3456824065647761	0.7199770635645987	-1.119095890836168	5.19618127026341	0.3508413567472917	0.9078867357609209	-0.02469870053152892	6.067011091927339	4.863717451589431	-14.8599553221623	-16.56294926365927	11.09133200561459	0	24.81090813644915	-8.859540110924277	-5.71991832415345	-63.20421636206971	8.394173666691714	0	-7.749199438853559	2.339859884984379	0.6018689321237216
0.3584854586597677	0.8245465438651662	-0.8727618067722254	4.835075742898137	0.3605982126614984	0.9086817410787903	-0.02346352852039038	4.837524365400456	4.846823893496924	-14.75278858950174	-15.71949664903767	11.37875825123873	0	25.84156229022242	-8.456273990261929	-6.303665136003929	-60.27726003109395	9.038553119907778	0	-8.032052909235766	1.995056417821555	1.264605409212896
0.3712885107547594	0.912530396007096	-0.6616805688025001	4.437924615771952	0.3704476140928521	0.9092863532644021	-0.02238547240918044	3.637884187039317	4.839989903358192	-14.6279452510478	-14.89243732043513	11.60926838841417	0	26.55017088817041	-8.038640838572464	-6.942522930120692	-56.70097147624255	9.270762944741268	0	-8.267708512956405	1.708073785828067	1.883801731428921
0.3840915628497511	0.9805605667398196	-0.5047698071633018	4.007311477719625	0.380405124916524	0.909680219303685	-0.02144539368314328	2.472975106509934	4.862906776375394	-14.49475772301714	-14.08261969824398	11.7764959024955	0	26.96237175057802	-7.637318958226868	-7.642086970671666	-52.56149370783507	8.966217558912914	0	-8.450146409848415	1.496136102629434	2.46125984023129
0.3968946149447429	1.025127271606249	-0.4088832912234811	3.550370570310018	0.3904634567234759	0.9098159210329808	-0.02061601430876648	1.349116612423953	4.923531133375662	-14.36032830499217	-13.30368009667405	11.9279523156561	0	27.15861228675102	-7.276175653238547	-8.414451682953572	-48.09001546380151	8.082207244099347	0	-8.577946611362945	1.359702832812928	2.994061247108261
0.4096976670397345	1.042619822045053	-0.3783899679959228	3.076432648346809	0.4006146862496993	0.9096451707494188	-0.01987161771216794	0.2636191305371173	5.03010065323103	-14.23403871428839	-12.54959771131466	12.09057065369378	0	27.22587106156404	-6.973434078860838	-9.276382528227057	-43.52737012159675	6.84702770711725	0	-8.651180852799369	1.296071744879721	3.47987262608361
0.4225007191347263	1.030334472888661	-0.4135631153774698	2.589837446459082	0.4108178363273061	0.9091386034196863	-0.01919898632216813	-0.7562447802111577	5.178196812361493	-14.12506167751893	-11.87189404479219	12.30705164466831	0	27.2050011619767	-6.73091383340305	-10.2501996037347	-38.96503050857947	5.840775191239043	0	-8.679502487176064	1.301847212735955	3.917473123548849
0.435303771229718	0.9883809597990658	-0.5172167336257548	2.10091387054391	0.4210808180561632	0.9082864727768947	-0.01859447343542273	-1.733031246346505	5.37767773297814	-14.04047274440605	-11.2320631948615	12.57258458600733	0	27.12868718727466	-6.543748478006553	-11.32739411635131	-34.45368834054557	5.234592990816144	0	-8.666863904905226	1.376532912798615	4.310949256112862
0.4481068233247097	0.9172113006141152	-0.6840782875304708	1.614648263068369	0.4313984385353482	0.9070955048361535	-0.01805707175636065	-2.667936733112066	5.623806740793853	-13.97953629594738	-10.63428589416449	12.89333356919689	0	27.0194289181568	-6.401838359258083	-12.49272044383293	-30.02777339513636	4.815993731011802	0	-8.619709384096602	1.512961098392889	4.663765167914946
0.4609098754197014	0.8202526579705104	-0.8963649504568665	1.131179472379899	0.4417689364039243	0.905587309271108	-0.01759043334027718	-3.55530019337668	5.89527407439468	-13.93856046181941	-10.10082679167396	13.2689676783197	0	26.88475838165164	-6.282067511331128	-13.7149709493225	-25.71290233060017	4.336586197639265	0	-8.546984768025863	1.69147366346202	4.980911772210938
0.4737129275146931	0.7030616139431105	-1.133308976941611	0.6497488344991542	0.4521979208788067	0.9037930936385037	-0.01720359980139742	-4.389429161410501	6.166441342792199	-13.90890146301485	-9.658242048311493	13.69742957053274	0	26.7325706239028	-6.161338269044979	-14.9394201708586	-21.56643922711423	3.76231081776393	0	-8.457860210642364	1.88986411799418	5.268371746032791
0.4865159796096848	0.5719624999232776	-1.376150672188056	0.1699281992313289	0.4626870996548771	0.901755187127682	-0.01690889617038864	-5.159070374022217	6.412146610064987	-13.88164755386024	-9.342697051561608	14.17684035533323	0	26.57719549241294	-6.026324763682949	-16.09596335759528	-17.67467895549201	3.166288773935065	0	-8.361989473937188	2.088813513972357	5.531856020314132
0.4993190317046765	0.4361498608205573	-1.60524839083396	-0.3084308624158883	0.4732334604028501	0.8995314218262769	-0.01672281202679069	-5.856967545156263	6.606379999381605	-13.84591205019221	-9.18617496501774	14.70456542371516	0	26.43732306970344	-5.870061892944504	-17.13573437684345	-14.13324775810891	2.549504077540814	0	-8.272256986972378	2.268611637798182	5.778930576228552
0.5121220837996682	0.3051314771615553	-1.812753219790429	-0.7798690916973272	0.4838275282505926	0.8971768275354887	-0.01666282138536175	-6.483535219274432	6.738626967806614	-13.79624178829802	-9.202974384577725	15.27017116484767	0	26.35864566037641	-5.706348294139615	-18.00442412566259	-11.10505204807213	2.091147890707268	0	-8.202167811013842	2.421646315387463	6.016780554533331
0.5249251358946599	0.1874591190634855	-1.989054851366961	-1.238409938135828	0.4944695772083558	0.8947562155509683	-0.01674329305605477	-7.047085642998684	6.79909411941919	-13.72537576805201	-9.388410390407332	15.85015953114031	0	26.36699459698475	-5.544190940586877	-18.68170266447425	-8.68300894659702	1.781756707194975	0	-8.16256991623653	2.537185841622318	6.25059177904074
0.5377281879896516	0.09091997010773119	-2.130097458870823	-1.678012775069394	0.5051769951433349	0.8923376961052488	-0.0169761129592637	-7.569288249910256	6.787370932200926	-13.62738209274813	-9.709675231423367	16.40574158458034	0	26.46405521439495	-5.389185373476079	-19.19152760852766	-6.887185093431472	1.539878012235284	0	-8.161292337164873	2.610047007242536	6.483704682855574
0.5505312400846433	0.02030446132801095	-2.240702347016778	-2.089176754162594	0.5159675871560891	0.8899731991204987	-0.01736287378687324	-8.084912117642727	6.717771361124315	-13.50475800936016	-10.10227696706736	16.89281276052448	0	26.66590091120158	-5.256507532427509	-19.56990895092724	-5.767854288346851	1.443208840079191	0	-8.203538440390446	2.642354265211288	6.715478934181818
0.5633342921796349	-0.02414562091357468	-2.298358421398326	-2.465822403379658	0.5268562626888311	0.8876992099261586	-0.0178814072916363	-8.623081652805878	6.576934154185739	-13.36212988622536	-10.50799522532949	17.3067185918535	0	27.00622964442224	-5.142093868785619	-19.87630465411516	-5.427489105330114	1.416186821185168	0	-8.287835232572041	2.601036649000415	6.940515982778753
0.5761373442746267	-0.04577116859557941	-2.308768813423664	-2.801909906817571	0.5378953935213726	0.8855430595680287	-0.01851961140201533	-9.219691263018209	6.382097434136549	-13.19778698139854	-10.85063172093664	17.61105580819818	0	27.48198158115079	-5.058724974573271	-20.15518481320664	-5.873379390694953	1.382353854790092	0	-8.403747790285644	2.489414752690077	7.150019604192475
0.5889403963696185	-0.0529479980461502	-2.289920967185638	-3.094226858252023	0.5491531212384488	0.8835223897166994	-0.01927705282723811	-9.881358610687034	6.155869522904685	-13.01299536912217	-11.10436095655585	17.76821594755729	0	28.04328061514014	-5.014827760712061	-20.39726394867086	-6.972560091956111	1.298626366837332	0	-8.534071775164881	2.3286751008843	7.332437890242422
0.6017434484646101	-0.05976697425242115	-2.229559718890698	-3.345468895046353	0.5607002200812163	0.8816500200366474	-0.02015028683429074	-10.57342958112596	5.881295828028687	-12.8273338554474	-11.30983295523418	17.76973116420065	0	28.60670981453021	-4.977777436901778	-20.55968721539838	-8.488554465673566	1.024544775330333	0	-8.652929200713162	2.10601457735872	7.472483367765608
0.6145465005596019	-0.07715809089579066	-2.130397755398225	-3.564471223449301	0.5726251696958735	0.8799546219804367	-0.02113049396397743	-11.24188931691664	5.550871916040601	-12.65995674825345	-11.55803338900888	17.61805232525902	0	29.04915702153033	-4.924454085545457	-20.5410200506345	-10.08828552393546	0.240322105430951	0	-8.733942400009301	1.826971347024562	7.55919547899108
0.6273495526545936	-0.1116942161254965	-2.007205246282273	-3.76914020074461	0.5850265931537	0.8784786306244341	-0.02220977212114031	-11.8230473029269	5.164225784035605	-12.52597146502755	-11.96424113076093	17.30270410157682	0	29.21602748586275	-4.835381493510817	-20.21568813237232	-11.37071349058002	-1.206741868726577	0	-8.754015553469673	1.512710386215051	7.593368396583075
0.6401526047495852	-0.1582248037724958	-1.903892134195683	-3.970590599834591	0.5979595512580067	0.8772325442694562	-0.02343632946827696	-12.28996092957019	4.752924516372805	-12.39279982307241	-12.60382936090548	16.8522669553145	0	29.02091404297201	-4.718652080020465	-19.62718162098997	-12.16935660079404	-2.672089064792758	0	-8.714376111195051	1.226347614410366	7.587040630753781
0.652955656844577	-0.2107345474244198	-1.827825401316264	-4.16745530424544	0.6114446837074137	0.8761673452402551	-0.02486615912546347	-12.73450705605001	4.334715205768512	-12.15587816709311	-13.31589378752192	16.24367186035893	0	28.52605680072444	-4.565590176235482	-19.04755011246338	-12.67239190641363	-3.656267646438288	0	-8.620846005683068	0.9883539290284045	7.547765580328802
0.6657587089395686	-0.2591112745607462	-1.755952650993124	-4.340344651462398	0.6253195130682565	0.8753093919916825	-0.02652540259150764	-13.17927786562377	3.897706174303566	-11.8584830282578	-14.04769855598389	15.43171700524403	0	27.93591306657985	-4.376667914895142	-18.59207447130878	-13.32845904239916	-3.222511709387856	0	-8.507945872929275	0.7711581803567331	7.47475082957062
0.6785617610345603	-0.3052431202307607	-1.490896619155462	-4.433955150794129	0.6391321162564061	0.8747684356399085	-0.02841410551880678	-13.52397619430154	3.24987997431973	-11.59372282495153	-14.92920616436897	14.59005863334931	0	27.52438842658389	-3.986385423519315	-18.13660807978033	-14.19141966010844	-3.140339698400922	0	-8.429355778526412	0.3283232388828578	7.324722419729613
0.6913648131295521	-0.3455506315284795	-0.9699335622366818	-4.418710766521872	0.652707172586809	0.8745878054853519	-0.0305133874909273	-13.73748237530166	2.337626006045055	-11.37138421379776	-16.010333411183	13.75704632706103	0	27.39752541902904	-3.347757275616702	-17.56726617565896	-15.33255914224767	-3.772528843735259	0	-8.409940215536098	-0.4232273644009032	7.074953969505216
0.7041678652245438	-0.367569077296301	-0.3374331165157329	-4.304100854558286	0.6661322896978545	0.8747584525819673	-0.03278188787212773	-13.82133684644709	1.307214599356594	-11.15011540430891	-17.3410677748997	12.84797084074182	0	27.51212008666732	-2.610790945964317	-16.84965911956951	-16.98550600494195	-3.897910380999044	0	-8.455664343164161	-1.318580959682813	6.749536655400982
0.7169709173195354	-0.3682533087345718	0.2833099351968325	-4.120500649281873	0.6796648242323884	0.8753184625171756	-0.03516594149754595	-13.75988258660543	0.274863150952506	-10.87794510215831	-18.98258114349307	11.73452697105071	0	27.60381034431677	-1.857098188612923	-16.10430652427403	-18.75687224091811	-3.417448179963302	0	-8.523196169936151	-2.209903236319565	6.378169114377171
0.7297739694145272	-0.3577609619355298	0.8208831724672198	-3.888774717894123	0.6934260589621366	0.8762787433130315	-0.03762989478530829	-13.49620238998269	-0.6941421060601349	-10.51556351147092	-21.02140160461118	10.33225559148939	0	27.48122554524706	-1.132333275446347	-15.48393305547082	-20.25947614166237	-2.57353394133118	0	-8.571223285051868	-3.007678651069789	5.978080087386923
0.7425770215095189	-0.3503183096259747	1.253772183319582	-3.634087040582413	0.7074240789374866	0.8775961938097853	-0.04014766052695673	-12.95710220759789	-1.58393338930818	-10.03156692709724	-23.55668836660045	8.65716576414709	0	27.05900830953041	-0.4477115059010685	-15.02301927975025	-21.28236216896073	-1.555421792295725	0	-8.567750840182184	-3.67965643504531	5.570938290514655
0.7553800736045106	-0.3581274240974862	1.570139538819333	-3.381487269132062	0.7215447058630187	0.8792029853145297	-0.04266918279007084	-12.05319446627081	-2.381580160867853	-9.423827701972405	-26.71492814151878	6.878195908491286	0	26.34398257698796	0.1691208737141207	-14.70309413496755	-21.78108611140873	-0.5143816507594131	0	-8.501485981042515	-4.210769252551085	5.180247039543099
0.7681831256995022	-0.3890516024133418	1.793566577890878	-3.151484789882181	0.7355659409874138	0.8810058879748935	-0.04512541683689589	-10.69077583039795	-3.101425813320467	-8.748398329970017	-30.6498878395796	5.43974466355024	0	25.42973851005301	0.7074630445667349	-14.52139682354191	-21.88094611828087	0.5322391192234412	0	-8.384167867126447	-4.630760627402643	4.817581849481538
0.780986177794494	-0.4431785657038557	1.961592449081796	-2.967001435897517	0.7493222343099122	0.8829043681261955	-0.04747782762087021	-8.88307207306198	-3.771023803343855	-8.054136245239294	-35.26495775184075	4.36177326812672	0	24.40818630007269	1.175310807935204	-14.48317757604965	-21.71501242439797	1.529750247337844	0	-8.231351154683583	-4.975792845417172	4.48743910372874
0.7937892298894857	-0.5127136277037934	2.118571209606736	-2.83353397198326	0.7627486955162419	0.8848065888090604	-0.04968603540373163	-6.759485358291475	-4.407034695292674	-7.356123561761943	-40.25144435482819	3.524519502557741	0	23.35094135429785	1.601558074713769	-14.57600825344658	-21.40470502432376	2.429401393745254	0	-8.056967993345951	-5.295423208808008	4.181519363802029
0.8065922819844773	-0.5837878794814056	2.272464706901349	-2.743135357379903	0.7758541576652875	0.886667367012092	-0.0517412809349486	-4.474580169974979	-4.989531726474431	-6.647178142684218	-45.29824249278777	2.739244315355076	0	22.29738000856035	1.993309938156127	-14.75965126933288	-21.03711829487299	3.186838932231638	0	-7.87451627823615	-5.5958592717971	3.88419897372469
0.8193953340794691	-0.6395492084611366	2.440430470688129	-2.681084881845902	0.7887303659958402	0.888536480435994	-0.05366044551349099	-2.177492410261906	-5.536298223598114	-5.990829131713932	-50.02002682260529	1.400496587062454	0	21.23851503355958	2.37900610724964	-14.99733163770976	-20.63029989489176	3.780847050683998	0	-7.690229001345301	-5.894945010910726	3.57499625240153
0.8321983861744608	-0.665528537528533	2.603219361933506	-2.628607092661944	0.8014817790491497	0.8905082619110016	-0.05550310307133563	-0.007574091079563913	-6.057416838575255	-5.48430118801992	-54.02529071075249	-0.4568238410330618	0	20.13268363162665	2.759374693094593	-15.24552243998338	-20.15566574331699	4.25285156076609	0	-7.513015588578423	-6.163993466219271	3.234319467198287
0.8450014382694525	-0.6538498412758325	2.736669950747084	-2.571122088345568	0.8141370504033187	0.8926239221856743	-0.05732186420080403	1.965180011765746	-6.5565386315539	-5.178381213655205	-57.15751475011425	-1.867633304320326	0	18.94924094520711	3.126968948242772	-15.45676460157932	-19.58547993042925	4.651441584763575	0	-7.357833665520932	-6.369776380004996	2.844079337518953
0.8578044903644443	-0.6028527751588445	2.806852079276564	-2.49987539986418	0.8266284298183546	0.8948753038804683	-0.05915235748647723	3.788691471395332	-7.014955422396711	-5.075599358818877	-59.51018400241276	-2.34287960927466	0	17.68347162560028	3.454118187920906	-15.59908536779962	-18.91289017545581	4.996668666820314	0	-7.245106208087161	-6.469398677698446	2.390544583003388
0.8706075424594359	-0.5140293542843776	2.795654945924313	-2.410772528942098	0.8388638410667646	0.8972167355597708	-0.06101683819842474	5.562218878949015	-7.421526162734662	-5.156691245055503	-61.29742262562043	-2.052802623123943	0	16.34684532905883	3.721031155334964	-15.66283485789744	-18.15299113459904	5.321341056248527	0	-7.191808094556818	-6.439376676873027	1.865643063872551
0.8834105945544276	-0.3913169866844201	2.703997766494934	-2.303608634131124	0.8507789962008825	0.8995809037380369	-0.06292196204354532	7.373398997428772	-7.774621157399241	-5.39275571678155	-62.71110835115352	-1.357855331960657	0	14.95239428244983	3.923881546501842	-15.65551861878934	-17.31769605039122	5.644692502419574	0	-7.205596797697041	-6.280163123194243	1.269690493591415
0.8962136466494194	-0.2407706959726255	2.541341194599176	-2.178088336415521	0.8623326241353038	0.9018906270658636	-0.06485598054057116	9.270650103453542	-8.068187059540442	-5.750314951962452	-63.88271292283293	-0.3804911169812527	0	13.5273183503629	4.063018995134892	-15.58632068401297	-16.44150560098056	5.976768709606636	0	-7.288290925626032	-6.005750975982418	0.6128164848366033
0.9090166987444109	-0.07029402819675463	2.325809697021218	-2.034593440708537	0.8735172884450886	0.9040756926658515	-0.06679520121813218	11.2616538569397	-8.301611803668104	-6.198855463270293	-64.85072941787604	0.8053486226181112	0	12.1039726198984	4.145208932314391	-15.4738517766873	-15.56665598189218	6.320604188055662	0	-7.434529911955879	-5.642562842466214	-0.08933153344789412
0.9218197508394027	0.1112219286381708	2.077331770626009	-1.876245711262924	0.8843831349109035	0.9060848180426404	-0.06871401148692916	13.30941534250083	-8.478071775440586	-6.713418762675964	-65.54346666332201	2.110853698129181	0	10.69950074215692	4.182403786922894	-15.34691600504115	-14.71362690671604	6.688812256404731	0	-7.628742091142652	-5.218885458089035	-0.820047125963461
0.9346228029343945	0.2950974469981198	1.821732855559326	-1.708077244283426	0.8949846973097786	0.907873137723522	-0.0705790258493708	15.36650299837958	-8.608690310769695	-7.269083353646125	-65.88027825464886	3.497495932008551	0	9.329567574940414	4.194219802439711	-15.23243634817064	-13.89845086672144	7.08126774833685	0	-7.855399365906023	-4.771136108852732	-1.565944138149092
0.9474258550293861	0.473791781032832	1.578619753426283	-1.535136482034935	0.905375889158101	0.9094042183005345	-0.07235548283898882	17.38574864149424	-8.698947150259459	-7.84443602472438	-65.79605796828208	4.889799625529633	0	8.008167538001709	4.195955333713536	-15.14374382086704	-13.13646162817382	7.490411737314088	0	-8.100500820579718	-4.328963671786306	-2.3145369896177
0.9602289071243778	0.6417776108308095	1.357620822705849	-1.359526757920742	0.9156393876602924	0.9106675394363236	-0.0740066059823648	19.29830142423328	-8.738498080723108	-8.423466028329873	-65.18961306446677	6.229610829369859	0	6.732077125074247	4.196930834356423	-15.08380863270698	-12.41841388844956	7.902207842226925	0	-8.34782090698361	-3.911481130774085	-3.056991679617544
0.9730319592193696	0.7952833899433983	1.164114373672906	-1.18061331817057	0.9258912433977526	0.9116836108751608	-0.07550870535177151	21.00778318185841	-8.717358269837655	-9.004974046232672	-63.9061003204473	7.443676429466235	0	5.480727268039581	4.207014326743837	-15.04470838284801	-11.7075231621721	8.284767423172507	0	-8.577413747524094	-3.53140237030167	-3.786660099705408
0.9858350113143612	0.9329383414660685	0.9975383440494234	-0.9939353777584006	0.936206876134912	0.9124639981288404	-0.07682971190880672	22.45989640154374	-8.616851713515274	-9.585224762092745	-61.9314482092806	8.463234867966982	0	4.246741265638449	4.226101393955404	-15.00274523321349	-10.99759252931208	8.632581877792486	0	-8.7773528158017	-3.196247500744308	-4.501859985553361
0.998638063409353	1.053531713454899	0.859799267287798	-0.7924689012621653	0.9466448858541996	0.9130191244852341	-0.07793903978153405	23.61996821753012	-8.424521574947876	-10.16312520155735	-59.28926757182602	9.198545601228972	0	3.030431934256193	4.253717965027881	-14.93775082174268	-10.29565231812834	8.945781051124243	0	-8.937883106588956	-2.916563182073372	-5.204058492109803
1.011441115504345	1.155224549384534	0.7642680229245828	-0.5727931237218858	0.9572482304031258	0.9133497811470949	-0.07885855706086481	24.47711588830112	-8.171555916977166	-10.74969715478226	-56.02566988395849	9.563976816979629	0	1.831526644519141	4.304598125103603	-14.84285618394672	-9.601236575934967	9.212506636290088	0	-9.050950715490206	-2.705755347957508	-5.890528577115745
1.024244167599336	1.232645556850368	0.7180483249141999	-0.336750102440432	0.9680141047687207	0.9134374261060004	-0.07962153924103481	25.06458668458651	-7.887689959995508	-11.35015778291377	-52.25005249703803	9.461922934288493	0	0.6664546011957756	4.384873190634151	-14.71338390973896	-8.936206929130982	9.435690922544758	0	-9.112405575658551	-2.566219150139181	-6.551213118581053
1.037047219694328	1.280393135595596	0.7320351925526053	-0.08826660910502981	0.9789171826387222	0.9132395830545712	-0.08025299898703653	25.47842600537584	-7.612372302407009	-11.9687999451141	-48.24276644449946	8.813072678534315	0	-0.4444915314718144	4.503552104849548	-14.55779826665385	-8.332291311662862	9.64845981130226	0	-9.120662368573312	-2.505161703312007	-7.180071694498687
1.04985027178932	1.291993798366793	0.7961000458028895	0.1682404517448013	0.9898983879816008	0.9127246801137103	-0.0807789138413872	25.80307414898748	-7.35612039800728	-12.6148931699631	-44.19645745909011	7.719781309033417	0	-1.471669998589342	4.646424591861903	-14.39374374620666	-7.838092090981575	9.918792688629066	0	-9.081363587501714	-2.504418558460481	-7.772053309987315
1.062653323884311	1.263582792912752	0.8971189989022116	0.4291382260187349	1.000935936123547	0.9118779011369484	-0.08121577061723588	26.07326754597071	-7.115900744380086	-13.31430672702805	-40.18147531256965	6.762501418242557	0	-2.408279772737179	4.800830717633709	-14.23811371681812	-7.46103040908273	10.27380664073215	0	-8.998533293206915	-2.544605657174512	-8.323513326302731
1.075456375979303	1.192060368678523	1.026629495725238	0.6907210347638028	1.012034125025901	0.9106963065874354	-0.08156586829936112	26.30123077249661	-6.885927033896522	-14.09563854386408	-36.20158520556417	6.37762684571348	0	-3.252999743194482	4.959442489081947	-14.10347030443723	-7.203213118647508	10.74009936893358	0	-8.872254622069541	-2.615255086984063	-8.830305309578341
1.088259428074295	1.0761180962581	1.172833220628849	0.9514983462921145	1.02320591382766	0.9091992318640006	-0.0818382616962178	26.48925702907822	-6.659861235669207	-14.98683840174751	-32.24310095931558	6.380548894731624	0	-4.011527537853985	5.113049847448307	-13.99737184514326	-7.047887489664501	11.29246494915767	0	-8.702557535554391	-2.702028250490436	-9.289148049818214
1.101062480169287	0.9162966616192285	1.326333169517391	1.212041383509449	1.034468722725272	0.9074203560768298	-0.08204221409151902	26.62338901504663	-6.428135922283697	-15.99435493157652	-28.2678704403761	6.503901859543675	0	-4.686166213798931	5.253230700601081	-13.92103965918461	-6.990791642444899	11.91227018769573	0	-8.490619975490628	-2.793599106472846	-9.697471328632263
1.113865532264278	0.7165648467745593	1.476588148007557	1.475345299093289	1.045847056037967	0.9054000464711671	-0.0821841523839861	26.68312496660391	-6.176155051322423	-17.10761381826707	-24.25727447272189	6.616340632906544	0	-5.281781556787964	5.369078236465077	-13.87028689796338	-7.029745115025319	12.57740476459066	0	-8.240033040618552	-2.877969401218286	-10.05406044350831
1.12666858435927	0.485696119697472	1.618183342480522	1.744815782009114	1.057358780326333	0.9031817049030614	-0.08227395148093565	26.66995200244134	-5.902282259587056	-18.27145988600269	-20.28822644119107	6.674725471385863	0	-5.809668751256629	5.455190748659428	-13.84122227054362	-7.159696737119781	13.26639539358061	0	-7.960190958768018	-2.948018936520933	-10.36160587994937
1.139471636454262	0.2371951983325378	1.751948662375387	2.025551897535824	1.069028166196546	0.9008180501597418	-0.0823237822662963	26.5857558701764	-5.620958073859865	-19.42029968478845	-16.46729059240213	6.70151279025922	0	-6.289022521745035	5.512582499378397	-13.82070205127461	-7.37021994229338	13.94860241500801	0	-7.66406239855321	-3.004205998814147	-10.62407798889229
1.152274688549253	-0.01345314059816644	1.869756945053992	2.319689903245477	1.080829921169553	0.8983557594243643	-0.08234699374355037	26.47148650998866	-5.346644528344974	-20.47484316577557	-12.95705542855973	6.723419547370236	0	-6.739005006942729	5.533480686653594	-13.794946078828	-7.649093719711046	14.59902474437548	0	-7.375042370879841	-3.033947665933837	-10.84990836490365
1.165077740644245	-0.2495296839539525	1.972778191993139	2.620323880908955	1.092702432600077	0.8958378364871374	-0.0823313235065509	26.40607322250712	-5.106739834989193	-21.38205845374041	-9.971112274984558	6.74081703533315	0	-7.189526555641831	5.522456577317588	-13.75421210008675	-7.963552613547454	15.19718199110904	0	-7.124373165397929	-3.036989443731564	-11.05133997830201
1.177880792739237	-0.454980153471008	2.059157305736961	2.918839636857662	1.104592890302082	0.893312372674425	-0.08227341080694209	26.46523709859334	-4.92932231570482	-22.10138561046067	-7.715710599878657	6.785163600783683	0	-7.678481829775037	5.483820404374296	-13.68866652057679	-8.262230445296243	15.70949610369998	0	-6.940611075531039	-3.006540501929872	-11.23809993820953
1.190683844834229	-0.6176896620165313	2.149663482212272	3.205249280191563	1.116454217034476	0.890828904929804	-0.08216875043264071	26.73246949452872	-4.871582550486528	-22.59314308381583	-6.428193516887974	6.791125575369119	0	-8.235635416110316	5.444485458696144	-13.59047324376909	-8.504118329365554	16.09790657670206	0	-6.846604437922108	-2.96229684104609	-11.41801748770303
1.20348689692922	-0.7335152678244782	2.229324392474432	3.475002917806203	1.128264325103081	0.8884174155118191	-0.08203278430606671	27.27463991463216	-4.951094227067699	-22.82049608539153	-6.320422948621768	6.84389938708169	0	-8.860042385528134	5.38875330140141	-13.45575425577079	-8.69936475812581	16.38620602224921	0	-6.848878812907983	-2.879593194818725	-11.5902005239245
1.216289949024212	-0.8080056300443835	2.274213430696005	3.732072045928774	1.140070568305678	0.8860999688476963	-0.08186869296775991	28.07355359519361	-5.138438945906503	-22.76618029665559	-7.361354144500863	6.988220686286915	0	-9.537850937142167	5.288104245654238	-13.28707312449273	-8.864192087417456	16.57540708737961	0	-6.932091256989561	-2.728846476931322	-11.7496654868578
1.229093001119204	-0.853775460766694	2.269398765544944	3.988355334402283	1.15197379861808	0.8839005891359868	-0.08164912721262044	29.02869859911845	-5.373626541168218	-22.45509063199656	-9.278608608628083	7.16275351468971	0	-10.23189518700538	5.115672558426911	-13.09205903770151	-9.05274667735473	16.67625919124692	0	-7.06554393357429	-2.500324364684996	-11.88939430336445
1.241896053214195	-0.8852433359756325	2.19813725806093	4.261257464514049	1.164107348020299	0.8818429879559031	-0.08134163007268463	30.0123567144293	-5.585991067373837	-21.94720332029666	-11.73005091952726	7.23383537764886	0	-10.90198331925906	4.840942742972407	-12.87685249983416	-9.322633530029593	16.69258517361275	0	-7.209403002417326	-2.185806743905505	-12.00745108321879
1.254699105309187	-0.9155612112012772	2.054211747439649	4.562953369328829	1.176606537922108	0.8799527236258325	-0.08091239192076921	30.90161435987462	-5.719451178567336	-21.29098367789785	-14.37159090426948	6.895464720665657	0	-11.52196244585225	4.448768951060033	-12.64740056550565	-9.705960979577215	16.61682210138852	0	-7.323838664597678	-1.789388617359653	-12.1031878051367
1.267502157404179	-0.9509314043978894	1.844258215137129	4.902810490178015	1.189633038332832	0.878270685918532	-0.08032158622196639	31.53021262360913	-5.720759241398994	-20.52041895912834	-16.74536047684526	5.858454096784182	0	-12.08091402163589	3.938641293325204	-12.4078933713152	-10.22217076750197	16.42519444752798	0	-7.372402785954402	-1.331435276270067	-12.17760392264087
