inDegrees=no
nColumns=32
nRows=104
DataType=double
version=3
OpenSimVersion=4.5
endheader
time	pelvis_tilt	pelvis_list	pelvis_rotation	pelvis_tz	pelvis_ty	pelvis_tx	hip_flexion_r	hip_adduction_r	hip_rotation_r	knee_angle_r	ankle_angle_r	subtalar_angle_r	mtp_angle_r	hip_flexion_l	hip_adduction_l	hip_rotation_l	knee_angle_l	ankle_angle_l	subtalar_angle_l	mtp_angle_l	lumbar_extension	lumbar_bending	lumbar_rotation	arm_flex_r	arm_add_r	arm_rot_r	elbow_flex_r	arm_flex_l	arm_add_l	arm_rot_l	elbow_flex_l
0	-0.01597533416598258	-0.05481737245509018	-0.08430522884109821	0	0.83792806	-0	-0.2007812234646937	0.07527490832051999	-0.1010304233434556	-0.2832412826549388	0.3946946217013502	0.365158804850938	0	0.5126299214289181	-0.06429833455985756	-0.2466279563710889	-0.2002269264419479	-0.04666562969772504	0.2482027308268479	0	-0.120435123819625	0.05576923740553017	0.2243526315418214	-0.05461885127656669	-0.1989632733314519	-0.5021271628468029	0.7381435634424586	-0.2692874367208338	-0.09083787085594375	-0.861158956022826	0.4325208001462241
0.01000000000000001	-0.0163904395073196	-0.04618056713997065	-0.08668077514338668	4.125000000002044e-05	0.83681381	0.01425991	-0.2051041507746092	0.06223763338773997	-0.1025747397093722	-0.3050804524966597	0.3792321602857112	0.3643574444298006	0	0.5096668056210384	-0.05633768433612064	-0.2487222272060394	-0.226450668099166	-0.052623161001092	0.2358887004393408	0	-0.1144784046179589	0.04306838847417314	0.2232464738014328	-0.0619353254316008	-0.1909059992368636	-0.5053447494049526	0.737003917720646	-0.2741951065769668	-0.09069542912516781	-0.8676894394751817	0.4316391903587446
0.02000000000000002	-0.02036260620847496	-0.03398663146970215	-0.08831277022915396	-2.843999999999069e-05	0.83591598	0.02861879	-0.2044201054516714	0.04631695898986882	-0.09846723664370113	-0.327737050086079	0.3618334445605435	0.3646688938969629	0	0.5085587370941845	-0.0426595827960053	-0.2478501902004413	-0.2413986514808119	-0.1035355984404665	0.1965397585249504	0	-0.1043162466903047	0.02621814997136055	0.2217934659061306	-0.06904573851022869	-0.1782872464047302	-0.5229904981597828	0.732816155514789	-0.274253725903356	-0.09120420377223137	-0.8875226671519346	0.4334144736494934
0.03000000000000003	-0.02466402050353499	-0.02262672385016043	-0.08441798155996086	-0.0008185500000000012	0.83545335	0.04266013	-0.2013827887159724	0.03213597084545445	-0.09631220147271079	-0.3522029196826333	0.3299588461953533	0.3628674320636976	0	0.5115380233775839	-0.02713663716967128	-0.2389547067227511	-0.2543942332902886	-0.1400442981697787	0.1559369647455443	0	-0.0942227398925142	0.01104695119568938	0.212740242363172	-0.07441049438949579	-0.1703289251483472	-0.533347280021255	0.7270964598795255	-0.2750014595124295	-0.09232765126778909	-0.8966751639755491	0.4321222041205817
0.04000000000000004	-0.03050556924706334	-0.008106643300494714	-0.07770492988447238	-0.002338779999999985	0.83524584	0.05677565	-0.1920292214104149	0.01373549267830989	-0.09966646546271581	-0.38429463630864	0.3027793458336481	0.3613479937954719	0	0.5149147539438523	-0.004777649808176485	-0.2176343845213387	-0.2687420920154203	-0.1533958712961262	0.1044431303815954	0	-0.08196946511440079	-0.006571319793529152	0.2018402567916798	-0.08051265484479023	-0.1590124668418159	-0.5473586757439836	0.7170042531774948	-0.2737916381156516	-0.09236111272020835	-0.9067566868190966	0.4308146577247273
0.05000000000000004	-0.03267641152132629	0.00420266435341548	-0.07180900639278606	-0.00372981	0.83579262	0.07111876	-0.1859075450324905	-0.001961844152488309	-0.09765264941936042	-0.4160899487292354	0.259712219407057	0.3547239844316873	0	0.5149609254074834	0.01417845235554414	-0.2031269124690524	-0.2930849001917457	-0.1385134777368361	0.08282343098092378	0	-0.07439740965609358	-0.02159546114068456	0.1905003190943203	-0.08927966899956419	-0.1532794384618635	-0.5526606322333029	0.7126095298289363	-0.2743072446795392	-0.09260916310229197	-0.9092664388675379	0.4299365970642817
0.05999999999999983	-0.03456471484107345	0.01810553974652357	-0.06465969337343613	-0.005131549999999985	0.83669506	0.085214	-0.1765491260606783	-0.01797520460935247	-0.09150706918653362	-0.4521944083871701	0.2092952711684799	0.3460942995892443	0	0.5140516767605022	0.03556036443373264	-0.1877925044643688	-0.3194794532085992	-0.1101677207927462	0.0650926707288874	0	-0.06870014167625109	-0.03941351368619358	0.1794093974697195	-0.09759723591374128	-0.145713319566474	-0.5568226131335811	0.7065689182351806	-0.2702418911407708	-0.09406776163625412	-0.9088783848051105	0.4320313750919128
0.06999999999999984	-0.04306278871098851	0.03131405832786292	-0.05675306359887078	-0.006806479999999976	0.83742485	0.09974313999999999	-0.1591800441063474	-0.03250748581882416	-0.0841914177797089	-0.4877196485933051	0.1478735921214837	0.3340857667470845	0	0.5172846826044615	0.05728181583166384	-0.1639726571458	-0.3412279966543774	-0.08514495468005817	0.04834039354273198	0	-0.05288888877597154	-0.05476337343981101	0.1675502511979622	-0.1093097740047323	-0.1379161201253181	-0.5675835214454965	0.6979052596861829	-0.2704083601212273	-0.0939510656063402	-0.9077756428486009	0.435897149183518
0.07999999999999985	-0.0418575105044328	0.04385231965210908	-0.05323913484167489	-0.007822839999999998	0.838998	0.11333767	-0.1428290243984108	-0.04706849462418493	-0.07314192521009569	-0.5346489299967645	0.08287016426604102	0.3211968645229445	0	0.5125990362570075	0.07391798376759985	-0.1506049336152192	-0.3668375120928569	-0.05846142348469469	0.03539894329453882	0	-0.05248038957762036	-0.07046273014015253	0.1579792937092908	-0.11550795881028	-0.1310967094580666	-0.5716531025207791	0.6931561938332981	-0.2647905712939279	-0.09381234788458924	-0.9048296940992437	0.4403768274806148
0.08999999999999986	-0.05202623101559553	0.05664735022676302	-0.05128190198763097	-0.008783159999999984	0.83989146	0.12715947	-0.1123187961607296	-0.06096585908570151	-0.05661757353801794	-0.5809016420206039	0.005548720912810163	0.2993050452535408	0	0.5148124774751525	0.09116070370955344	-0.1300727385740227	-0.3837850874335203	-0.04179633317412509	0.01757703618937677	0	-0.03633406487688445	-0.08570559963982638	0.1525312678223452	-0.1268194764387647	-0.1221437124946014	-0.5849878686500286	0.684835145510862	-0.2660272934504669	-0.09326306589091614	-0.8953427932381448	0.4529990830140241
0.09999999999999987	-0.051440059840485	0.06926307412025305	-0.05296547681703279	-0.0095972	0.84138451	0.14043333	-0.08780221462649518	-0.07681589006036771	-0.04107031198454512	-0.6320598726077405	-0.05037627368942526	0.2945510741527932	0	0.5064160815435786	0.1059474825473657	-0.1240440622398237	-0.401318061738733	-0.01632754118977294	0.01403744057302436	0	-0.03437593810116996	-0.09998346315703732	0.1475234110056929	-0.134490550185124	-0.1192099690072365	-0.5893025812187537	0.6793804608437541	-0.2612657127141806	-0.09177032679692282	-0.889439767869186	0.4606983422570068
0.1099999999999999	-0.06139388649810974	0.08444732606117571	-0.05705155393840777	-0.009881399999999985	0.84210634	0.15302945	-0.04510117834089283	-0.09443142437331911	-0.02117440063317385	-0.6923392195221395	-0.06931160800584349	0.2982797020171059	0	0.5044588541360278	0.1204557731590712	-0.1237667456532439	-0.4069113246757844	-0.002961482354232687	0.01416420942165032	0	-0.0209404724081998	-0.1174736777682407	0.1454027204237233	-0.1408894907897507	-0.1125594494883774	-0.597799530280924	0.6728316463727977	-0.2606269010894667	-0.09144197800474511	-0.8742830116930749	0.4790577509069897
0.1199999999999999	-0.06089078751798791	0.09865275681964888	-0.06071533662327173	-0.01031884	0.8436524399999999	0.16534715	-0.01145910075017111	-0.1120216700871396	-0.008141853622804548	-0.7525409415217925	-0.0595341208198617	0.2873691291038382	0	0.4885075537476401	0.1349627963126738	-0.1278689471067791	-0.4061850818293895	0.0180969650611569	0.01750128436198416	0	-0.02074991334620978	-0.1333627707823629	0.1392416367802169	-0.1450080746017768	-0.1088866847264991	-0.5998054752384188	0.667897287465342	-0.2544669218903109	-0.09142237202312577	-0.8663711800738456	0.4883251033108219
0.1299999999999999	-0.06490816102558446	0.1131500873925069	-0.06765763634103476	-0.01032611	0.84498091	0.17722456	0.03198294159837007	-0.1284698486093433	0.00576316759814053	-0.8130371386144347	-0.0612520281567804	0.2660608575282462	0	0.4729188978712319	0.1474282732826996	-0.1389394267370487	-0.3950293344875795	0.03064947409606381	0.02567770632501956	0	-0.0153819106309352	-0.1489626252148507	0.1356915005969129	-0.1483403357495008	-0.1054739694853118	-0.6004163987706138	0.663029643244945	-0.2486526616981805	-0.09068713881122085	-0.8578731284871868	0.5004919492098436
0.1399999999999999	-0.07202901177868826	0.1219860503346716	-0.07652966401400815	-0.01022258999999998	0.84608701	0.1886198	0.08102012189117819	-0.1386159161720905	0.02128115195154284	-0.8678598853628718	-0.06205300861973965	0.2442922562351053	0	0.4604464723963881	0.152923336840184	-0.1541134517243777	-0.382615997134562	0.03651761207860459	0.03759537854805109	0	-0.006781527772238126	-0.1576025649138466	0.1339620887476968	-0.1504530267893768	-0.1051130558163516	-0.5992008408256504	0.6562696570244666	-0.2462868089049735	-0.08810710724072364	-0.8396710062913998	0.5207944861486141
0.1499999999999999	-0.07158198727193345	0.1288615351357183	-0.08415875734343488	-0.01039899	0.84785394	0.19997085	0.1207917485164813	-0.1492892070356936	0.02846457895956572	-0.9143772238588328	-0.05671858254861493	0.224188908836943	0	0.4387494428670813	0.1585948837283069	-0.1685422113472612	-0.3689276709320897	0.05146703326248824	0.04803623466492108	0	-0.007823021587439206	-0.1629791855413688	0.1276686995475783	-0.15047799512059	-0.1051452876843129	-0.59739561082653	0.6511190558369461	-0.2382814119298739	-0.08614417923876982	-0.8297769663670356	0.5304976844421823
0.1599999999999999	-0.07326739605632338	0.1342050469259428	-0.0920059679370397	-0.01053859999999998	0.84964048	0.2110714	0.1631386189250775	-0.1569670711600408	0.03693575369747425	-0.9549929264424524	-0.04485793267570701	0.2114896949300293	0	0.4170461423697721	0.1624925273575206	-0.1861926222255894	-0.3504810577786954	0.0622754077232738	0.06654390641686708	0	-0.006593631384554948	-0.1664549506272514	0.1215844367456314	-0.1503255978572277	-0.1062936778547438	-0.5948031263318198	0.644857163197575	-0.2305847865632654	-0.08436871617910811	-0.8180819871609843	0.5419790072479885
0.1699999999999999	-0.07572317247103896	0.1387750407803713	-0.09914248828086343	-0.01067542999999999	0.85143331	0.22211638	0.2060350153243762	-0.162191723002532	0.04611984342401076	-0.9892918728343291	-0.0338892146420078	0.2042950903098778	0	0.396326935997356	0.1657566681300063	-0.2054373116140676	-0.3324192958340184	0.0719631636926862	0.08849133082904174	0	-0.004398498321197593	-0.1685481278388926	0.1143321439322467	-0.1498525391043782	-0.1081935300065963	-0.5915930977474629	0.6393542189549191	-0.2228264969688546	-0.082853450818591	-0.8060046077120845	0.5528443328494643
0.1799999999999999	-0.07715668400309243	0.1416092294238167	-0.1057411847230371	-0.01085928999999999	0.85329644	0.23286503	0.2475346826682351	-0.1641171063542816	0.05591001723379236	-1.017951526546259	-0.02002103330731504	0.204090764265281	0	0.3757228990153572	0.1680970398142659	-0.2241360480498878	-0.3160081858361989	0.07961708626301914	0.1085349689426969	0	-0.004231380252792332	-0.1683942381444869	0.1062351656915707	-0.1490841460329488	-0.110575541930683	-0.5881007595386022	0.6348726488954459	-0.213405690679331	-0.08192972414186578	-0.792378774768809	0.563355375462341
0.1899999999999999	-0.07850564288055797	0.1410036228509799	-0.1099816778857678	-0.01090286999999998	0.85524625	0.24365582	0.2857581556467282	-0.1607950169854383	0.0626215197784466	-1.038261636643186	-0.008193478716749289	0.2023242233287555	0	0.3542124668251713	0.1684107603038509	-0.23586494703182	-0.2994725312373524	0.08762151789650942	0.1237114991756341	0	-0.004724097172605843	-0.1648475139053377	0.09792631233368414	-0.1503867866573417	-0.112557492799753	-0.5860474627513033	0.6315238973533505	-0.2037053185974206	-0.08150238062358084	-0.7780676922254119	0.5752850106956645
0.2	-0.07774944776278432	0.1362122839397711	-0.1104776487596257	-0.01124694999999998	0.85733994	0.25412137	0.3195407116473503	-0.15442492684788	0.06252287830697993	-1.051088518592357	-0.003665349905084173	0.2003352539671644	0	0.3320654310263083	0.1669526996803643	-0.2384280738667812	-0.2866804541205265	0.09119143564155549	0.1274148435022708	0	-0.01035926476686606	-0.1569784910238695	0.08518988573818982	-0.1497990405740144	-0.1143932791507526	-0.5860857379963326	0.6311379649131617	-0.1883634784571832	-0.0805039845726651	-0.7725086801532004	0.5810531922756803
0.21	-0.07832364083372508	0.133817852705423	-0.1135473765355703	-0.01144481	0.85921916	0.26494096	0.3532974573699281	-0.1482255461427288	0.06687574604208169	-1.057140165030308	0.007137744760181188	0.1942054424350635	0	0.3078556150191226	0.1688678873422224	-0.2347687992782903	-0.2667521775580392	0.1008143978332839	0.1343180896638784	0	-0.01175527090692978	-0.1515161070112994	0.07717171242936688	-0.1529060709960257	-0.1174076003008919	-0.5866863838081613	0.6287787806739608	-0.1754468691311678	-0.07918494762714724	-0.763043272149175	0.5892786946426108
0.22	-0.07790740144378668	0.1298151970137616	-0.1155472257077452	-0.01149417999999999	0.86109628	0.27577113	0.3840832593083981	-0.1412091263747037	0.06699158755879384	-1.057393541808203	0.01799503154965513	0.1854017910267634	0	0.2833758459694712	0.1688633707791841	-0.2323262298396801	-0.2487324112022248	0.1071826976120955	0.1392601351758929	0	-0.01444804900177658	-0.1450664600540463	0.06954278367205421	-0.1561075471179819	-0.1192768913884762	-0.5878173039309114	0.6265928624254552	-0.1631476354705262	-0.07988522713012249	-0.7515185941430188	0.5993565662573631
0.23	-0.06980187033635711	0.1254500043855683	-0.1166758305627517	-0.01160857999999998	0.86352785	0.28672828	0.4034743315556361	-0.1348414341450047	0.06424699343098211	-1.049506555474475	0.02220500830623147	0.159694026641366	0	0.2506752365018541	0.16990157255435	-0.2296776515100084	-0.2306783487775429	0.1107352734166279	0.1400485471738427	0	-0.02683926273572873	-0.1391183507361133	0.0605344482521277	-0.157346756194172	-0.1200767302315717	-0.5955450211164137	0.6273281350818012	-0.159574927467605	-0.08734160984505621	-0.7017706089646483	0.6221644936667742
0.24	-0.07200637612684473	0.1197255112276217	-0.1177335426779154	-0.01186149	0.86483471	0.2975201	0.4332757175304989	-0.1275753036631785	0.05857016151135122	-1.037185225945503	0.02995732346407973	0.1554059039892621	0	0.2292314221329534	0.1678265888293646	-0.2269603396709322	-0.2135487158736759	0.117613645320269	0.1434669007011785	0	-0.02709709656093442	-0.13045252361552	0.05427995301625824	-0.1616474113575028	-0.1216097309298159	-0.5976489762597847	0.6254436502049464	-0.1454065648604666	-0.08744590845222734	-0.6946450003514208	0.6289956640134597
0.25	-0.07106096686114795	0.1153312134164282	-0.1171315844314593	-0.01247216999999998	0.86609954	0.30837905	0.4575045019505281	-0.1219910001993092	0.05280747562408424	-1.019996911232459	0.03805901548999957	0.1428406032617344	0	0.2056190023090623	0.1680939888042005	-0.2233769317524987	-0.1982105020040254	0.1256119000590036	0.1462148467338187	0	-0.02969582427291193	-0.1227633708761039	0.04799619367028767	-0.1680779490538417	-0.1243595106053682	-0.6020077451276205	0.6233133823032395	-0.1301981024326008	-0.08762379659838081	-0.6839496795929332	0.6385900689534342
0.26	-0.06962331927583255	0.1099883426662665	-0.1151652266453466	-0.01303220999999999	0.8671836000000001	0.31941993	0.478068424634065	-0.115976522642174	0.0444697314820236	-0.9964436128661833	0.04461273957214181	0.1263733573665185	0	0.180195187459534	0.1675751594898491	-0.2188563017479647	-0.1809229880122865	0.1306721518343337	0.1495778059541572	0	-0.03334574930713283	-0.1146354734295971	0.04012844889343074	-0.1733825603634863	-0.1259760940742929	-0.6074831461548177	0.6219547872956923	-0.1173702582834138	-0.08903339798065295	-0.6710082171274353	0.6498496763011743
0.27	-0.06649867898165246	0.1052088871415476	-0.1124324722483594	-0.01381248999999998	0.86821201	0.33036749	0.494179453192272	-0.1119187700122981	0.03373408192410891	-0.9659006754129905	0.04654075488040334	0.1116449802125377	0	0.1551541748021811	0.1675551403887958	-0.2143700002754224	-0.1666350380627953	0.1360732564642016	0.1537001286105069	0	-0.03953385309092104	-0.1076703192176908	0.03204533118500941	-0.1774539417458923	-0.127736158617563	-0.6127941200622504	0.6199627239889361	-0.1049528354636832	-0.08999609733597642	-0.6565455619887475	0.6623676934412716
0.28	-0.05724164856487313	0.09784010520481588	-0.1083786516578303	-0.0142757	0.86939288	0.34098856	0.501996088794511	-0.1049611193199119	0.02221962858030958	-0.9317674530950455	0.04641541022044702	0.09013863663065755	0	0.125024103186595	0.1645210732816312	-0.2114624805346017	-0.1558668742426464	0.1418937967000466	0.1598171114490068	0	-0.05524318068274629	-0.09934987425557712	0.01959640848840591	-0.1741714366190172	-0.1260231556558424	-0.623441468351852	0.619895567209978	-0.09530666161463372	-0.09618437547815691	-0.6273258209497459	0.6804823701036777
0.29	-0.05275933051647474	0.09525446910429788	-0.1043691163054381	-0.01489361	0.86979233	0.35203356	0.5133431914175158	-0.1029386125840791	0.0120279370637177	-0.8936809725803377	0.05267756186667912	0.08523987877475102	0	0.1006227313598835	0.1659079632179459	-0.2084864402145452	-0.1459452781873872	0.1533019272038084	0.1667570069069124	0	-0.06189873931622173	-0.0955247446934606	0.01078856706817054	-0.1765629101475118	-0.1255841508946932	-0.6330672365094188	0.613251356358233	-0.08599323758000375	-0.1027548308101076	-0.6017718701623986	0.6945646232269774
0.3	-0.05447804968033002	0.09614791274066745	-0.1025043288742422	-0.01536145	0.86912199	0.36283679	0.532889407378227	-0.1022644177249067	0.005005007392115555	-0.85524009266357	0.05789729903652971	0.08348559004957451	0	0.0840682127188826	0.169679789202976	-0.2066398048969152	-0.1377753607174081	0.1623658134867661	0.1694348884420605	0	-0.06072602169947898	-0.09527020954054119	0.005038785621794027	-0.1816129388312813	-0.1247441511528446	-0.634436410655694	0.6100217094004192	-0.07194539083038023	-0.1038951598283223	-0.5962821874549983	0.704034811687824
0.3099999999999998	-0.05508169848454747	0.09732669882141945	-0.0972811573862713	-0.01601358999999999	0.86830937	0.37361931	0.5475212388521069	-0.1018819551738038	-0.002027611823894885	-0.8106200056043431	0.06331077665453086	0.08193223741598865	0	0.06697736207819252	0.173548466649792	-0.2012281103072778	-0.1312090789912978	0.1720497834879651	0.1751582321645266	0	-0.06153066421227476	-0.09609929538951116	-0.003165658475046768	-0.1859376498676923	-0.1239502048903697	-0.6360065444555049	0.605923631112709	-0.05809171492710079	-0.1063580250026721	-0.5893087921474298	0.7151367032303723
0.3199999999999998	-0.05030184753780426	0.0960756862933166	-0.09137404690274115	-0.01677291	0.86777039	0.38471795	0.5528741195111434	-0.100663045149479	-0.01226479656917047	-0.761008877452208	0.0657140981761197	0.08152166843167753	0	0.04335063631402157	0.1753116265344905	-0.1912641673283775	-0.1254338434885773	0.1872396297104304	0.1850307013901324	0	-0.06926210715213135	-0.09334265796626193	-0.01395178243133036	-0.1863079069822701	-0.1265638750642052	-0.6385485353532244	0.6009376120301904	-0.04624886811069492	-0.110604829602729	-0.5760254961268875	0.7300191220969365
0.3299999999999998	-0.04204509658756483	0.09680298562461126	-0.08532021883463392	-0.01734516999999999	0.86724668	0.39570155	0.5541314910071286	-0.1016351961608337	-0.02282888881372746	-0.7100131342259054	0.06735688619296672	0.0880210513384931	0	0.01713318709235569	0.1783339072586835	-0.1874009445590728	-0.1207560129000467	0.2009826276535898	0.1963148379442459	0	-0.08054131018404825	-0.09428584541321272	-0.02729904825961684	-0.1843509785496201	-0.1248467215349905	-0.6410641586892695	0.5942187077187114	-0.0387423164300114	-0.1155600551431228	-0.5551130683672405	0.7472299590622465
0.3399999999999999	-0.0436803677354357	0.1027900273599226	-0.08262837898505075	-0.01734358	0.86544447	0.40644182	0.5668978248665534	-0.1023860633340463	-0.02324574203054331	-0.658509083402647	0.06901928996527688	0.09369114174935525	0	0.003309962821200435	0.185173062137631	-0.1846291430171505	-0.1180261662808156	0.2077695558235994	0.1996067545845795	0	-0.08014189280645982	-0.1013996583932235	-0.0344459151576665	-0.1878033232368031	-0.1206715450729026	-0.6411950075940878	0.5914485089126412	-0.02593310175072729	-0.1215149728159349	-0.5507703596701157	0.7561597838128317
0.3499999999999999	-0.03445089649062481	0.1039490490292873	-0.07678673578881741	-0.01793897	0.86458775	0.41763156	0.5632330254383153	-0.1039013138592648	-0.03608083191411993	-0.6030787941738419	0.07464297521292117	0.109425056667018	0	-0.02529991986004865	0.1885306434749453	-0.1782885850722665	-0.1115872902739752	0.2230711874175952	0.2114627702592575	0	-0.09293478237405246	-0.1022551985467318	-0.04626333322500251	-0.1862391933696191	-0.120086004562151	-0.6453877453845763	0.5847944006477743	-0.01782423764331224	-0.129646775611176	-0.5269613632380395	0.7728245837006137
0.3599999999999999	-0.0368489260706996	0.1122438854473466	-0.07468236136769467	-0.01792394	0.86224133	0.42859252	0.573835013493322	-0.1061341076372217	-0.03666655830243686	-0.5492929892473838	0.07291598570617387	0.1148872813310273	0	-0.03943503045427802	0.1977100489123024	-0.1757706592978722	-0.1068821725097873	0.2313498043424543	0.2154685878247135	0	-0.09074695473534521	-0.1117063704236474	-0.05245905205485011	-0.1897596163696054	-0.1160071723691682	-0.6456290729329143	0.582750818188559	-0.005066602853945237	-0.1334664002302988	-0.5229906714709774	0.7807143068851423
0.3699999999999999	-0.02695333547351394	0.1138890448509814	-0.07049547192689923	-0.01814655999999998	0.86109797	0.44016378	0.5648345877310326	-0.106221428728627	-0.04904259395508196	-0.4896413412718183	0.06924275424325353	0.1366026532235751	0	-0.07109046939609177	0.2011623195975251	-0.1710486383689445	-0.09659732317170557	0.2437018106510238	0.2292779459785605	0	-0.1028935914669581	-0.113775525097997	-0.06101280617365212	-0.190708313297406	-0.1143925857314408	-0.6509568149166026	0.5786951398824991	0.003908963834742167	-0.1416569103165234	-0.5011181126080012	0.7959681257078784
0.3799999999999999	-0.02982973365894293	0.1235797745549274	-0.06841256163541151	-0.01794098999999999	0.85833243	0.45136172	0.5727202231799201	-0.1087542693886771	-0.04844304508268802	-0.4350872750462893	0.06570491669705666	0.1460216213323304	0	-0.08556359930281829	0.2115026560941204	-0.1687104214681794	-0.09116767158752619	0.252455767299532	0.2332131531075344	0	-0.09984343539114983	-0.1253306798690187	-0.06701275770448881	-0.1944278516615073	-0.1093408406908849	-0.6516421580663722	0.5766500274676616	0.01585391939370672	-0.1456669458191827	-0.4978650843468631	0.8030764321740992
0.3899999999999999	-0.02839686269240448	0.128877012653519	-0.06784559392886613	-0.01776599999999998	0.85583084	0.46270511	0.5720683320577918	-0.1076711559285342	-0.04881696669056332	-0.3775660422782198	0.05461426821648388	0.1664206608415692	0	-0.1063509489142858	0.2179823935748755	-0.1638479982257068	-0.08334761513995319	0.2642318866879756	0.2424528818362294	0	-0.1022402553867421	-0.1313682940343171	-0.07076402859785234	-0.1962215172835368	-0.1080524340992066	-0.6549374438902937	0.5744326728722678	0.02818351235855503	-0.1510127556258206	-0.4900651698715227	0.8124002754752978
0.3999999999999999	-0.0174834700875862	0.126901873156792	-0.06655737766932723	-0.01720859	0.85442005	0.47488038	0.5558753855984778	-0.10234737776211	-0.06234965612404875	-0.3182909340789406	0.04182872840490429	0.1890236590205938	0	-0.1367722185926575	0.2160944848856272	-0.172673136731494	-0.07912512070744862	0.2764097073918668	0.2599832177272117	0	-0.1139165606169946	-0.1302318120708396	-0.0762587399478937	-0.196965413437184	-0.1036339576921931	-0.6637905476321528	0.5708936069633433	0.03574961275345442	-0.1573585905736981	-0.4720646084206656	0.821602875989348
0.4099999999999999	-0.01972349435712877	0.1354574243267419	-0.06448682960966552	-0.01656712999999999	0.85132547	0.4864250099999999	0.5596644329217703	-0.1044106239733429	-0.06178424397196165	-0.2712169631351617	0.03846228166765449	0.1989593011366073	0	-0.1500314610090476	0.2241619044046245	-0.172038058889649	-0.07861655200923677	0.2846986428777966	0.2652550140543921	0	-0.1112244202654565	-0.1416346493400459	-0.08114839154842793	-0.2017734784001033	-0.09755758971258467	-0.6652984679490459	0.5684429803867743	0.04598715319683156	-0.1614604721083814	-0.4690709675023003	0.8272492376018317
0.4199999999999999	-0.01191259665436341	0.1306871771989473	-0.06304210157412284	-0.01580515999999998	0.84949514	0.49835748	0.543581864400478	-0.09565723106618318	-0.06707210622943949	-0.2157924434412649	0.01764351857311203	0.2138099731622095	0	-0.1742126911410795	0.2180094627589093	-0.1805694417271648	-0.08015145790889246	0.3032097592115543	0.2875078579956963	0	-0.1203309664095903	-0.1377419001376535	-0.08505715240137809	-0.2005118674993651	-0.09432894719175534	-0.676602468793508	0.5643663469595832	0.05614017397678578	-0.1672596064045495	-0.452290440591405	0.8340095184338878
0.4299999999999999	-0.006742092320829204	0.1329460154006093	-0.0622478637194171	-0.01505144	0.8472451	0.51012663	0.5356047321599499	-0.09321388425792419	-0.06513551751482631	-0.1740934846295695	-0.0004206760114764924	0.2172232275356026	0	-0.1907921313384696	0.2184549753292405	-0.1925219465332759	-0.08957376727596782	0.3161255459638933	0.3138549827373244	0	-0.1266397188704494	-0.1413544470260808	-0.08958796064251086	-0.1989638559223562	-0.08862828105585921	-0.6874442186619807	0.5611938206139299	0.06544504136022491	-0.1742471605211418	-0.4396568594419467	0.8407754293490449
0.4399999999999997	-0.008556127474721668	0.1366548577482429	-0.05933197232570774	-0.01484935999999998	0.84424286	0.52223896	0.5441983829346562	-0.09430375894905639	-0.06636420574628542	-0.1586866513950475	0.00097324969611885	0.2183258288185745	0	-0.2037301684207776	0.220950227531322	-0.196867024863926	-0.09239085470145866	0.3191393628884116	0.3152724129684893	0	-0.1231703282505938	-0.1455133732511021	-0.0948484032538411	-0.2023003371016785	-0.08763791090150877	-0.688525361994464	0.5596718945533884	0.07454577206729106	-0.1762861785952972	-0.4386753365361075	0.8445606921003873
0.45	-0.002446441788037617	0.1356540703533073	-0.0564416164139231	-0.01419925	0.84229519	0.5343436499999999	0.5373470245390457	-0.09163302698065617	-0.07021542920244971	-0.1376564343312431	-0.005007111735594685	0.2292005196822835	0	-0.2198034898386269	0.2162020133991122	-0.2124607587757929	-0.1069779542592745	0.339310273203649	0.3582638793720064	0	-0.131216932449333	-0.1460232966738794	-0.09844464614906087	-0.2013700743414375	-0.08196603048096578	-0.7012819153778266	0.5528808254151956	0.08366288495831521	-0.1809356980234982	-0.4268818804431379	0.8478769442155473
0.4599999999999997	-0.004018590537541759	0.1367577336925128	-0.05579215431506392	-0.01397904999999999	0.8398203	0.54676591	0.5442051921621999	-0.09001392360535751	-0.06966603533317156	-0.1351688449972424	-0.005136182848036945	0.2292993040962159	0	-0.2317501200410088	0.2167253563094421	-0.2136547468946626	-0.11278894091186	0.339355959465748	0.358362695899997	0	-0.1281741669702423	-0.1458605513533821	-0.102357296642782	-0.202888850431745	-0.08121058513459227	-0.7015661631904647	0.5522927681396624	0.08713523775097726	-0.1808004875408792	-0.4262730821983731	0.8492802573510575
0.47	-0.002905109777644738	0.1399372212784199	-0.04957043559163025	-0.0138354	0.83772874	0.5592729599999999	0.5494801452663983	-0.09382190967089629	-0.07754602603819218	-0.145503155919128	-0.007413697022884759	0.2285254018930026	0	-0.2452693116216581	0.2164939074992034	-0.221148876368928	-0.1215001860374462	0.34005694879413	0.3701925405370743	0	-0.1294543703399032	-0.1507429584412571	-0.1056316310107639	-0.2077657337270704	-0.07695027238425671	-0.7045903468471412	0.5477852418926197	0.09699467268319623	-0.1815072272055477	-0.4235068136992455	0.855075864860406
0.4799999999999998	0.0002723863294430569	0.1403724376191526	-0.04657230829144404	-0.01383610999999998	0.83595793	0.57229445	0.5520952118781683	-0.0950879889635855	-0.08447689639853571	-0.1628125799016319	-0.0009777936608264173	0.2447009927982347	0	-0.2600777227683512	0.2142371273122706	-0.2343632580639554	-0.1325461984205309	0.3397403057507126	0.3948688100985552	0	-0.1322710949114426	-0.1500008034280717	-0.1116754019995317	-0.2060594754157113	-0.07611109957940776	-0.7115930284304922	0.5443098836429856	0.09895542233971061	-0.1823962775061614	-0.4180252132625451	0.8604331076208421
0.49	-0.001122994373811002	0.1371940347469151	-0.0431111258067428	-0.01372593999999999	0.83410516	0.58551869	0.5540438503459373	-0.0918445996323073	-0.08434809441586411	-0.1785031279252386	-0.005992548542281436	0.2483967308054583	0	-0.2705201809229416	0.208402936158214	-0.2334372312178089	-0.1435940833673701	0.3374432946773236	0.3980953318698106	0	-0.1287123231880656	-0.1454355280758047	-0.1143997675867798	-0.2090519015849172	-0.07626361953941642	-0.7140372492996405	0.5421565601163928	0.09952887330379948	-0.180269025009803	-0.416351905894799	0.8626153332762493
0.4999999999999998	-0.0002725694923084802	0.1320598045176561	-0.03618825693997434	-0.01374285	0.83275234	0.5993098	0.5543736350204905	-0.09076812121584875	-0.0982676285731383	-0.2055106150935855	-0.006952727991230876	0.273641115335906	0	-0.2808434194760526	0.1980804460022862	-0.2401886668957488	-0.160606451263987	0.3348657695741653	0.4134033328683786	0	-0.1275689564242878	-0.1383558556558251	-0.1214031476508975	-0.209527416714156	-0.07512693843387129	-0.7216122447650728	0.5360924881558975	0.09588721851223914	-0.1799047503603023	-0.4134003778514221	0.8686384760440546
0.51	-0.000767465749359627	0.1252223093921832	-0.03447367643617537	-0.01334362	0.83147238	0.6131470999999999	0.5553535298832034	-0.08390051223410594	-0.09777042615714715	-0.2357512576806085	-0.01206707223246931	0.2727840918270665	0	-0.2910249437516199	0.1885374141307126	-0.2389314198417393	-0.1736234009649629	0.3263202986134602	0.4121730893740231	0	-0.1240011398811282	-0.1292698750753334	-0.1221394418484547	-0.2107442150646188	-0.07639078213432163	-0.7228357928273519	0.5351291088202975	0.09373463832137467	-0.1777430787493642	-0.4130942479732869	0.8694446310591802
0.5199999999999998	-0.001679989796079561	0.1176690559191696	-0.0303003500928943	-0.01315231	0.8304110099999999	0.6276699099999999	0.5573543889512579	-0.07937125087828921	-0.1089407752725452	-0.2711173814548269	-0.02786181903041397	0.2752416864561412	0	-0.300276868492062	0.1765763465647582	-0.2412586779946641	-0.1882982933766809	0.3104228507082087	0.4107364840830312	0	-0.1185621001709023	-0.1194909413604676	-0.1237853958925648	-0.2162940983667108	-0.07715988660195416	-0.7250264630838119	0.5308982300005992	0.08859540987379298	-0.1734077712954656	-0.4124293133075266	0.8706681665550887
0.53	-0.004659179705470721	0.109766482234414	-0.02965728721260424	-0.01277558999999998	0.82960974	0.64176841	0.5649827314524748	-0.07318230252967595	-0.1214111955386113	-0.3046889795087605	-0.05715475272052601	0.2675012093430104	0	-0.3043425803469257	0.1651611027970971	-0.2402645920343361	-0.206188216486392	0.2910858958850874	0.408965663075581	0	-0.1117617902124518	-0.1092162898066724	-0.1207924161049202	-0.2187075651381756	-0.0786944994608284	-0.7265640878573763	0.526994950179632	0.08320718036328412	-0.1687412612615292	-0.4124556888977157	0.8723567376998081
0.5399999999999998	-0.01019099955343718	0.09713886704100108	-0.03102544330871709	-0.01189136999999998	0.8293760999999999	0.6559037	0.5752024674430866	-0.05985303261677387	-0.1232793837526413	-0.3389722889722698	-0.06289416935460662	0.2512844614796211	0	-0.302508040335545	0.1485219122999625	-0.2412186404906892	-0.2286703139628018	0.269076651910807	0.4027864189321418	0	-0.1022803010937644	-0.09405431544516382	-0.1164460114985715	-0.2200724447272934	-0.08081882591269576	-0.7277662044981712	0.5213636678628196	0.07553713740838099	-0.164634703640714	-0.4135869800774649	0.8689289946501625
0.55	-0.0270559877836493	0.08489287757102695	-0.03431149913346377	-0.01036466	0.82855562	0.66995176	0.5922898094483814	-0.0418938286624049	-0.1088090694110641	-0.3665245119006542	-0.06839176939909294	0.2090155037905644	0	-0.2839026219424399	0.1313563435903957	-0.2397994066362753	-0.2587168754134043	0.2380027938512708	0.3971480718715832	0	-0.07902205482632814	-0.08052625532298638	-0.1087091173718621	-0.2202379453990808	-0.082708253561992	-0.7288349675121384	0.5101535556092052	0.06682002099519109	-0.1598383664177035	-0.4192936768495254	0.8672165505428685
0.5599999999999998	-0.03338748761252761	0.07114561191660758	-0.03992285591025009	-0.008875959999999988	0.82888677	0.68458968	0.597905693772401	-0.02367662053869526	-0.1002229792281445	-0.3982423350185865	-0.06275368256712584	0.1766708463699099	0	-0.2783377316013075	0.1142678576963092	-0.23780263757279	-0.2849536180282204	0.2074945343449859	0.383070460451429	0	-0.06763329852446112	-0.06459571667324883	-0.1008673944069549	-0.2210566240242541	-0.08570065145686405	-0.7276842148640321	0.5022902781771016	0.05606954957766968	-0.1529926527659599	-0.4263643765318205	0.8643143613866491
0.5700000000000001	-0.03462890993838471	0.05602822919386891	-0.04563878996574321	-0.007048569999999976	0.83004077	0.6996629599999999	0.5943934727727013	-0.004219682707079616	-0.09491484671673407	-0.4240481699782523	-0.04744514802140544	0.161459756872454	0	-0.2768549620025345	0.09496189451018251	-0.2351799084420049	-0.3127636910133725	0.1630042561488761	0.3724418159827566	0	-0.06132907746193894	-0.04838352813346455	-0.08987405675882704	-0.225147376641495	-0.08619039241576999	-0.7268441566536537	0.4981592264310309	0.04575605118351526	-0.1482790795796777	-0.4304256608354378	0.8620330827111375
0.5799999999999998	-0.03466993393697647	0.03760934868652022	-0.05230374488067588	-0.005024889999999976	0.8318225	0.7150847499999999	0.5815247121717282	0.02244105902610888	-0.07909454393521707	-0.4359979012816492	-0.04191586012808575	0.1394943608049715	0	-0.2739837349872455	0.07227225434736448	-0.2314685352517432	-0.3443562132791129	0.1104200131975768	0.3550408822931755	0	-0.0558445689576389	-0.02809689393670658	-0.0811075988404857	-0.2264130798157304	-0.08889047610979978	-0.7237630838154754	0.4948239638405924	0.03342963646323483	-0.143725880684104	-0.4372203380927934	0.8555492517351549
0.5900000000000001	-0.03217101378742841	0.02072436813414775	-0.05608119510058149	-0.003047569999999999	0.83397769	0.73012826	0.5635670308425986	0.0480684700235408	-0.05835386477701374	-0.4451137177421048	-0.03024033209294912	0.1054804200476943	0	-0.2645796341166575	0.04810592548742029	-0.2299560484553952	-0.3899145130733235	0.04938430778053972	0.3399824303909198	0	-0.0543961839159265	-0.01066532134117266	-0.07396477552124706	-0.2275926270803691	-0.08976952968805679	-0.7187506975203483	0.4934425051943769	0.02148911089897769	-0.1371420104024567	-0.444226800582903	0.8508058484284953
0.5999999999999999	-0.03011731857014407	0.009290583877766437	-0.05821076269700486	-0.001554100000000003	0.83611576	0.74409476	0.5474035410032024	0.06498552653690379	-0.04540670782576533	-0.4548903813072127	-0.005492430902840692	0.09326576364634095	0	-0.2457513075074754	0.02907508047114762	-0.2228958666507714	-0.4450681892577703	-0.0160701246727914	0.3289478462492442	0	-0.0561762305592698	0.000882121692549096	-0.06693394299879188	-0.2266250057220222	-0.08828527673395252	-0.7162106407965059	0.4930322868467125	0.01496304976188078	-0.1371930213150376	-0.4467056608271828	0.8452438054175045
0.6100000000000001	-0.04009120059199794	-0.01161583547818226	-0.05517144998637034	-0.0001565499999999775	0.83775015	0.7576514599999999	0.5347520079206567	0.09250940898342716	-0.02762372243558739	-0.4465918304533677	-0.005139649071931406	0.05445677825689724	0	-0.2075124138469092	-0.003757766834306525	-0.2153763599146492	-0.5072527782498177	-0.09888889370475017	0.3090997392915522	0	-0.04387875968117275	0.0238613362383496	-0.06440380794814823	-0.2289106025166359	-0.08968987757338476	-0.7106620413586116	0.4970028909982462	0.00634590999703531	-0.1336702161151553	-0.4506692119286762	0.8301914574552417
0.6199999999999999	-0.04554457614722891	-0.026676571329129	-0.05122227072015487	0.0009040500000000173	0.83947005	0.77061957	0.5211794040289087	0.1104623250401	-0.01938476008946527	-0.4443789983551318	0.01339539991466138	0.04538882448411769	0	-0.1686427468500322	-0.03052911968150478	-0.2046104198185002	-0.5713854641339674	-0.1927541866757974	0.2925026051207382	0	-0.03884508874675168	0.03926931964484865	-0.06068068851748767	-0.2299300849374425	-0.08872208674356738	-0.708447227089944	0.4999687434823929	0.0009532552042080029	-0.1322957845135742	-0.4530899204202734	0.8205901472946149
0.6300000000000001	-0.06392279699154108	-0.03850441925722752	-0.04346244264966244	0.0009369600000000144	0.84019901	0.78229147	0.5209472464404608	0.1218651329877748	-0.01563633111572276	-0.4363981441999737	0.01756795855740422	0.02887638747671161	0	-0.107946920917409	-0.04905413075597057	-0.1754419125706251	-0.6419859812117807	-0.2594439326304282	0.2669116557967097	0	-0.02081112762813083	0.05364384438295693	-0.06161353837927892	-0.2291154446550926	-0.0883003644072043	-0.7067079262051861	0.5091323428689781	-0.002374146597812508	-0.1296036076846547	-0.455418060837135	0.8044155501798588
0.6399999999999999	-0.06862567000699631	-0.04790961667573623	-0.03555355006443887	0.0008551600000000215	0.84187902	0.79452411	0.5073848736687879	0.1283350978464492	-0.02098020605035193	-0.4334329359168538	0.03944183531849862	0.02745384447803594	0	-0.06321394316963634	-0.06413386328326295	-0.1532872681834208	-0.7087409125959796	-0.3009827929134369	0.2606025390856357	0	-0.01795043821273374	0.06320459221910292	-0.05837179646428165	-0.2298241650939292	-0.08858374601293485	-0.7062804268289989	0.5142282210031317	-0.004810185537960463	-0.1273020004612136	-0.4553250955254617	0.7964030474457756
0.6500000000000001	-0.08356213651109431	-0.05930876875154385	-0.02332136944350264	0.0003016500000000144	0.84269914	0.80580063	0.5036770085903227	0.1343206516326874	-0.03254423250449443	-0.424538422493162	0.04545855003866902	0.03034594947090308	0	-0.001652355039141816	-0.08090421457555325	-0.1277066745959761	-0.7836883245431285	-0.2882208735152892	0.2415742399811429	0	-0.004103245160427917	0.07644916304873497	-0.06143266589463746	-0.2292212130040269	-0.08853593551060325	-0.7067440028589566	0.526936085634483	-0.008447099491673594	-0.1242141122868394	-0.4559622717766665	0.7828638224523731
0.6599999999999999	-0.08311793126775491	-0.06699340704667306	-0.01617822804299631	0.000358550000000013	0.84480911	0.81726659	0.4845502982232916	0.1394270088982029	-0.04036574717465747	-0.4188760513245156	0.0650397057456759	0.03349901225380406	0	0.04006092315186863	-0.09415235914136169	-0.1167862911869829	-0.8507150419145737	-0.2584777291775655	0.215192745168687	0	-0.00868235311968161	0.08294790699051138	-0.05405570281651942	-0.226491458887246	-0.089084257049589	-0.7069525365433141	0.5307574170110813	-0.009094754699707323	-0.1221001811905298	-0.4579504751132489	0.7777452363629207
0.6700000000000002	-0.09111402779596912	-0.07647583366922879	-0.006980442246641841	0.0002371100000000126	0.84652174	0.82831649	0.4707585757488714	0.1445791510369201	-0.05411219057229314	-0.4036732006537936	0.07307648862764821	0.0411970961920685	0	0.09415970662844673	-0.1088970694355484	-0.1044394953843623	-0.91569282285479	-0.2263128237401728	0.1845577306018772	0	-0.003590943901077777	0.09215731132158465	-0.05188163360830562	-0.2216607732354905	-0.08917549884862595	-0.706662933187866	0.5374074839660653	-0.01168983083382381	-0.1208813615742603	-0.460622343640058	0.7680751694800102
0.6799999999999999	-0.09545300924934141	-0.08035579362415689	-0.007685151220657578	0.00104505000000002	0.84846016	0.83960408	0.4540685364802434	0.1503658498621677	-0.05179805380468488	-0.392620516924176	0.085312594078311	0.04856086824623287	0	0.1406038196611074	-0.1186322233114573	-0.104598361710597	-0.9684165087121446	-0.2010534714405929	0.152490248745199	0	-0.002741003985540353	0.09442213398571074	-0.0386936580467292	-0.2183360742503496	-0.09001168103180161	-0.7062193572348729	0.5434196123100273	-0.01562330537444928	-0.1190779158252343	-0.4646700993730443	0.7597421965445258
0.6899999999999997	-0.1019292803016212	-0.08395531907777445	-0.008576967427940218	0.001625250000000023	0.85013649	0.85025674	0.4405242823206013	0.155646918774598	-0.04828310398269989	-0.3813889238562597	0.0928030695312544	0.05112538418874572	0	0.1908692956608259	-0.1259246876701034	-0.1017972131554342	-1.014308610230715	-0.1772612080036543	0.1135170189719634	0	-0.0007240217403888904	0.09678810895196543	-0.02478561950057328	-0.2136043602863551	-0.09063367396571158	-0.7035335730234048	0.5489497459899025	-0.01821199220724006	-0.1183529653951504	-0.466900100624198	0.7520959096151373
0.7	-0.107818427107832	-0.08413099495524617	-0.009095192381686002	0.00205530000000001	0.85182023	0.86104898	0.42517355182222	0.1575844098244345	-0.04214490300195055	-0.3684159257346393	0.1015259984144522	0.05212586800251268	0	0.2381890206569916	-0.1287985571138798	-0.100044118235466	-1.05191780986658	-0.1510337070817603	0.08073009651511701	0	0.001013259274825718	0.09550123441030454	-0.01144790777914514	-0.2086325029799202	-0.09297037085923111	-0.6999443795130338	0.553755610092635	-0.02150753808522024	-0.117083736655826	-0.4729985307872822	0.7447871971138197
0.7099999999999997	-0.1164364369587509	-0.08532576889596202	-0.009967732249781999	0.002419950000000004	0.85304726	0.87145574	0.4138527837741669	0.1604959204351228	-0.03541653272274042	-0.3565287105542525	0.1042018642688472	0.04870630967439422	0	0.2895287419243906	-0.1311630743811432	-0.09609996751580609	-1.08584691208878	-0.1298846615447619	0.05083239943240486	0	0.005706013650191322	0.09527020919147536	0.001648953392429679	-0.2047565838129719	-0.0954316720440383	-0.692577654361775	0.5626481343645783	-0.02623752644218327	-0.1147688382265322	-0.4787243150036413	0.7409451636888319
0.72	-0.1177754132329331	-0.08315042666283018	-0.00982695567909019	0.002671870000000021	0.85514833	0.88243235	0.3906749741469014	0.1594990679533975	-0.0278546057591484	-0.338640011269413	0.1130155740096266	0.05244068560606552	0	0.3295230331178071	-0.1302190973472389	-0.09460391491422787	-1.107857220888437	-0.1073826416585393	0.03225166575450943	0	0.003404083366305658	0.09089433714416767	0.01215367215382769	-0.1975297087530828	-0.0975339961772233	-0.6895534178216222	0.566900609364842	-0.03445891786059386	-0.1151244206127592	-0.482694053297333	0.7371993479965784
0.7299999999999998	-0.1209661959881506	-0.0817889322537282	-0.009930827147504319	0.002911950000000024	0.85696502	0.89348416	0.3694787591670057	0.1589023981761377	-0.02475572393034879	-0.3205880743066942	0.1201901406791688	0.05478009247231463	0	0.3690262740063128	-0.1312282133849532	-0.09440910457924584	-1.122237357732754	-0.09268586159627087	0.02189656028178379	0	0.004250902458607589	0.08780804961125045	0.02205121146334206	-0.191226751483472	-0.100124430782727	-0.6854688876522306	0.5720026193642566	-0.04386013858885029	-0.115631141356359	-0.486865395794653	0.7328206102931718
0.74	-0.1248781180840283	-0.07984880332027297	-0.01001254091493766	0.003074199999999999	0.85857502	0.90446536	0.3489731891235482	0.1571942111014221	-0.02243865012267527	-0.3021461004129846	0.1261913825319214	0.05829407206576844	0	0.4088940557070301	-0.1296586583363224	-0.09405547696178104	-1.128848652023873	-0.08238152373722847	0.01370156574657915	0	0.005239965361348284	0.08393873372299414	0.031449766375699	-0.1853813511268275	-0.1029099382207323	-0.6816012898660898	0.5767126723959703	-0.05324042967778267	-0.1160459733073681	-0.4927581183105045	0.7282185975054797
0.7499999999999998	-0.1282999113547896	-0.07617752909807443	-0.009817732105086151	0.003185889999999997	0.86000439	0.9155054	0.3288073662685476	0.1537768888891413	-0.02158143550028261	-0.2850963589084302	0.1343785984837158	0.06011140627231721	0	0.4442009707571711	-0.1273667689316234	-0.09535241210484917	-1.12684087429613	-0.07437290226633586	0.01155537974396227	0	0.006870029753415329	0.07873213399548916	0.03889127364941796	-0.1786795704151727	-0.1051667910133621	-0.6774093786635351	0.5824022363179617	-0.06329214596289753	-0.1168850773462445	-0.499292678328394	0.7244494787006522
0.76	-0.1315063279890209	-0.07205356537536341	-0.009521967746717845	0.003343800000000008	0.86124658	0.92647497	0.3100156907009927	0.1497764422253925	-0.02299943697771167	-0.2703975539151636	0.1422721922849265	0.06269228991255524	0	0.4774627489578648	-0.1256260867932955	-0.09961281945203018	-1.118149477578397	-0.06288678294667925	0.01333397148084111	0	0.007825317393537279	0.07270628300028335	0.04449302569341827	-0.1720207207888597	-0.1079788702165643	-0.6723564110198381	0.588793433769362	-0.07525171760714996	-0.11805452665943	-0.5075947210624734	0.7191737066879689
0.7699999999999998	-0.1337382265139228	-0.06774750901665395	-0.00910761321571537	0.003382090000000004	0.8623928199999999	0.93772684	0.2896745025732722	0.1453956410192113	-0.02334586266855104	-0.2556098046742872	0.1490669295816083	0.06598159746019001	0	0.5075144708234667	-0.1219846389977844	-0.1025146241122153	-1.101579665664358	-0.05740285458982257	0.01831184930053074	0	0.008880961116583052	0.06688677757015184	0.05005853510283629	-0.1648743652722808	-0.110467474634058	-0.6679674903674437	0.5955235785248225	-0.08723568703448313	-0.1191410182043401	-0.5155622405530803	0.7137125410897495
0.78	-0.1315432428738349	-0.0628845695823803	-0.008314407629621334	0.003600650000000011	0.86357336	0.94900498	0.2668553144740602	0.1405571122068631	-0.02622279027824283	-0.2445002591648372	0.16188745486711	0.07511296148815548	0	0.5275109274514527	-0.1201901747130892	-0.1107628967426992	-1.076939819379037	-0.03585493272730383	0.03861238679011009	0	0.003740923883426004	0.05982104090611774	0.05242547558523317	-0.1592964490153421	-0.1148337894329146	-0.6487701201711128	0.603417571831899	-0.09516219512739253	-0.1150614601289215	-0.5490777685085302	0.7077185805761033
0.7899999999999998	-0.1345336156053227	-0.06137232304937855	-0.008301409384906408	0.00365774000000002	0.86404636	0.96009217	0.2491334215418215	0.1387703027617342	-0.02951822777127647	-0.2319688665194844	0.16631299305081	0.07908225227942697	0	0.5535634119919445	-0.1196494263322608	-0.1160135602742306	-1.046950743139876	-0.03559677566712068	0.03791422873484065	0	0.005308204244442758	0.05794231910645321	0.0571808757615723	-0.152318533479544	-0.1186540292805987	-0.6467616872467693	0.6083861473957414	-0.1078225714441921	-0.1166320658657621	-0.5542522728528214	0.7019265009007717
0.8	-0.1362447856141757	-0.05851355364019079	-0.008017112047573768	0.003882850000000021	0.86441865	0.97135524	0.2302568051628952	0.1362929754401364	-0.02769692084628432	-0.2205326007845817	0.1752947233697508	0.0870685857212387	0	0.5745753949029215	-0.1171396584013233	-0.1214052355882816	-1.009125206278035	-0.02963328999847759	0.03977175787406283	0	0.006282392578633331	0.05333231777224166	0.05980431297243492	-0.1449343004069597	-0.1200804572076564	-0.6419905822487548	0.61381611575718	-0.1197062018928282	-0.1186067076449906	-0.5641507431209588	0.6941905024770345
0.8099999999999998	-0.136922836927131	-0.06061786927092855	-0.008346920344732318	0.003944050000000004	0.86425737	0.9821256399999999	0.2167333452050273	0.138544322068042	-0.03091149828227061	-0.2206349879071561	0.1800866243148686	0.08761086527941986	0	0.5945989971603626	-0.1198378583614914	-0.1267724335322381	-0.9696507369677153	-0.02528433459342711	0.04012538758592274	0	0.004001883069723243	0.05524433853417206	0.06818644973855295	-0.137044115582844	-0.124756752604577	-0.6410398359553465	0.6177686744259785	-0.1258954134370926	-0.1192378857231551	-0.5666779777834515	0.69116282851092
0.8200000000000001	-0.1260919714632094	-0.05208912195431531	-0.0065999670545197	0.003566360000000018	0.86535171	0.9943220999999999	0.1800707699184764	0.1286062591803561	-0.03364817210593676	-0.2028092964045769	0.2018066754351409	0.1058474746576276	0	0.5920983819105555	-0.1099546612951053	-0.1368236279639067	-0.9145769579421678	-0.004219117045869044	0.05765547040416358	0	-0.008236973194373616	0.04612617739839917	0.06527096815475046	-0.1300445101422997	-0.1276510867319647	-0.6283968804679428	0.6243220387957619	-0.132416946841044	-0.1160240013574148	-0.5987320200812906	0.6682708231809198
0.8299999999999998	-0.1276744678081216	-0.05732752931643934	-0.007355126596905641	0.003624509999999997	0.86445499	1.00516115	0.1682451172131965	0.1342986140583542	-0.03471859737148353	-0.2046942151702836	0.2056871118632592	0.1069120663346825	0	0.6087564085245764	-0.1147841936332912	-0.1413824578152461	-0.8646101187730396	-0.001264455612886076	0.05848310658265684	0	-0.009066923853987947	0.05150058529749565	0.07341858782180483	-0.1227638860972991	-0.1319179401036722	-0.6276733456744152	0.6282511386686171	-0.1392375823803645	-0.1166759357637085	-0.6011430882467643	0.6654980976616914
0.8400000000000001	-0.1300151960740333	-0.05794977633973551	-0.007572705942586215	0.003311010000000003	0.8635608	1.01720318	0.1453435741824329	0.1347940632911117	-0.03202860586932047	-0.185667758958948	0.2201075237508634	0.1113994088961236	0	0.6195994668663893	-0.1122384162437595	-0.1453334065923425	-0.8054337995255489	0.005331394434214007	0.06664574864764897	0	-0.004589289162912277	0.05356662804978897	0.07081925238618177	-0.117512853254098	-0.1344333498114167	-0.6249598761776873	0.6356727418584806	-0.1568639918398851	-0.1149046204790142	-0.6087128759987744	0.6516368093303466
0.8499999999999999	-0.1269542588450218	-0.05875436831421267	-0.007494993629791447	0.003074080000000007	0.86283256	1.0291276	0.1207056760336228	0.1356054677330285	-0.02773556627564783	-0.1747237647358338	0.2312582012602622	0.1181528866092883	0	0.6220622932944299	-0.1097259903509041	-0.1506891668701119	-0.7408202562338532	0.01436421350742043	0.0817439685750431	0	-0.007981875870902124	0.05575921380510304	0.07250951754747323	-0.1126783231655991	-0.1369933135861745	-0.6202054991133557	0.6414085990680847	-0.1664249323603805	-0.1141415225620024	-0.6190704954437547	0.6382879151098679
0.8600000000000001	-0.1094246583133528	-0.05982951150251488	-0.01418738711898437	0.003521000000000024	0.86320786	1.04114568	0.08167914983915085	0.1367408258790006	-0.02522379941911802	-0.1657092147220396	0.2407768341270246	0.1308836684609158	0	0.6056850625808526	-0.1135291226557931	-0.168014272461412	-0.674085699823342	0.02256238122573813	0.1097103377145734	0	-0.02930281661700145	0.0566473588034337	0.08196475220182162	-0.1079279549480263	-0.1454099317751266	-0.5953023498390848	0.6469875916695731	-0.1584451267990371	-0.1096612805235572	-0.6660894286513024	0.61174710664329
0.8699999999999999	-0.1126598674236261	-0.06237189740926399	-0.02094072636837696	0.003685710000000009	0.86132948	1.05267454	0.06668661169236006	0.1392622992096325	-0.01921564117560553	-0.1603232052703393	0.255152313036635	0.1364823347627986	0	0.6132789542024973	-0.1150826892667452	-0.1779454833609875	-0.6086426064250953	0.02014648931927765	0.1248829683583629	0	-0.02579565323240838	0.06083616279632117	0.08922817305998407	-0.101592659170837	-0.1496624746686982	-0.5918639546959483	0.651470319405939	-0.1687109845113961	-0.1082415487267077	-0.6733086176302316	0.6037771108795403
0.8800000000000001	-0.1127051884225854	-0.06381374844335845	-0.02902470301568463	0.003887250000000009	0.85962914	1.06438617	0.04917284176850591	0.1398742050131305	-0.01419587370853878	-0.1569382397170613	0.2653731545187949	0.1466257822372727	0	0.614612266719566	-0.116389327218724	-0.1936265814738923	-0.5410179455351023	0.015989659060155	0.1482268045251195	0	-0.02624062928852747	0.06331651756603944	0.09928867760148151	-0.09668446466873083	-0.1546155935966849	-0.5884185658439662	0.6546397844440844	-0.1776881959983706	-0.1078992713344344	-0.6810481349868067	0.5935352631381022
0.8899999999999999	-0.1012160417243347	-0.06579884972335844	-0.03732235787591443	0.003948900000000005	0.85878766	1.07664353	0.02019722063011244	0.1396497144815537	-0.01768269161550842	-0.1565571739529587	0.2801229304566027	0.1638292521678099	0	0.5994299435643085	-0.1183190920450277	-0.2141856024002248	-0.4711444474516022	0.02215468749683675	0.1906327471730458	0	-0.03968590565175601	0.06677686301704654	0.1116284343166959	-0.09319698179131619	-0.160036250801097	-0.5776572198034743	0.6551889004569457	-0.1772184394084659	-0.1055391519478202	-0.7036570521009237	0.5734362925021051
0.9000000000000001	-0.1021558558464297	-0.07003038849680761	-0.04143506816137424	0.003761399999999998	0.85657616	1.08892797	0.000672399962569729	0.1423318307090659	-0.01828198916049007	-0.1483055029918882	0.2929179461842901	0.1761671921698059	0	0.5990485163425179	-0.117901195644918	-0.2231704261407319	-0.404430534097352	0.01327956834632597	0.2182908943082666	0	-0.03758188558213685	0.07245185623231047	0.1176585660809581	-0.0916146093937245	-0.1631246192900814	-0.5741694723341452	0.6579735296452713	-0.18553527345889	-0.1049860530936059	-0.7169208735631393	0.562619372385703
0.9099999999999999	-0.09594287342725676	-0.07332379928937598	-0.04946214639760867	0.003495120000000018	0.85493146	1.10132947	-0.02475708685796167	0.1427791016986184	-0.01840397074551073	-0.1444577267355296	0.3041510545470631	0.1912294504606273	0	0.5895971819754489	-0.1184382071012849	-0.2383393903713618	-0.3409912498971943	-4.752583913058119e-05	0.2512230915143308	0	-0.04497205190151329	0.07814385698300338	0.1294769953920627	-0.0895135146704646	-0.1705457868457635	-0.5685343073578788	0.6604522722543594	-0.1900037099157419	-0.1023039995234139	-0.7344098800574345	0.5497096942857461
0.9200000000000002	-0.08963715832508717	-0.07643457410076626	-0.05348297287584719	0.002850910000000012	0.85304614	1.11376932	-0.05056254622277238	0.1428334334491672	-0.02210331250857382	-0.139852021005673	0.3151558808249921	0.2029565184176412	0	0.5791735868158153	-0.1156747702243357	-0.247165236084562	-0.2788204511006326	-0.008774905660986841	0.2809445072009988	0	-0.05207468884019184	0.08329003358633724	0.1379447515535653	-0.08903276721866127	-0.1766272473470634	-0.5652627649931014	0.6649546956822684	-0.1924372937012311	-0.1002199179206365	-0.7558982285965948	0.5345753416795126
0.9299999999999999	-0.09140638788205867	-0.08381651050214493	-0.05616092730496631	0.002077860000000015	0.85035166	1.12580454	-0.06649990335029872	0.1481931774409542	-0.01990259735866981	-0.1370992233067782	0.3231233976976052	0.2123583767146733	0	0.5794057639519509	-0.1159916159004794	-0.2456501925553927	-0.2243635192547612	-0.01780380071043601	0.2991466496426053	0	-0.05171738835184914	0.09383534312108303	0.144168066307815	-0.08680065656257362	-0.1828787652257619	-0.5644945426148726	0.6679629404686167	-0.197372720750189	-0.09913558831507086	-0.7652935619802185	0.527782367688974
0.9399999999999997	-0.07570784439417164	-0.08102428811148028	-0.05918590287412957	0.00111965	0.84928391	1.13876218	-0.09950877915358834	0.1397343205387746	-0.03307828911843776	-0.1376998956476116	0.3350207335187255	0.240437518733025	0	0.5564293839953885	-0.1075374047157027	-0.262022497600755	-0.1712075041715805	-0.02932984984725266	0.3216399093722462	0	-0.06940621637047464	0.09157246876800096	0.151269750296722	-0.08625897024180519	-0.187512240540281	-0.5583356811245699	0.6724251024668078	-0.1941433755598029	-0.09647537247901265	-0.8003875597770524	0.5101007225728851
0.95	-0.07803038930004405	-0.08567326874627393	-0.06114245665813255	0.0004100600000000176	0.84651407	1.15123683	-0.1133090251179435	0.1417926653418691	-0.03505255373201496	-0.1388989656416644	0.3435029036563886	0.2477028388584794	0	0.5618313162603877	-0.1073553089297885	-0.2619915822346486	-0.1406243658515948	-0.03473612815662226	0.3300733696394142	0	-0.06734716209103923	0.09800051291243757	0.1564564506527603	-0.086391906385876	-0.1905334375895415	-0.5584706315531305	0.6726234697828052	-0.2007375553268088	-0.09507272134688782	-0.8081009891736992	0.503916389049347
0.9599999999999997	-0.0783642143825214	-0.08896123680507836	-0.06451596180482572	-1.980999999998123e-05	0.84371146	1.1637061	-0.1268565201794736	0.1420773074243854	-0.04086551574824781	-0.1441014755391332	0.3466120509882497	0.2490343641583941	0	0.5712685869388771	-0.1088509405579512	-0.2647679490342953	-0.129863654587352	-0.03582674251829147	0.3306657881436821	0	-0.06764347972811971	0.1022120229407618	0.1631468284302801	-0.08523872179598986	-0.1933163680489062	-0.5587157421026221	0.6730712444743799	-0.2085267267770043	-0.099505632324947	-0.8121950518078666	0.5007810842934534
0.97	-0.07216431954887931	-0.08398811772038692	-0.06722789835284937	-0.0008067099999999883	0.84184309	1.17688469	-0.1397626411238821	0.1303723597703113	-0.07062902895100691	-0.1648173952820348	0.371356167606408	0.3104317489203342	0	0.5696414400391876	-0.1018250907759775	-0.2723920674896565	-0.1206176372628291	-0.0424008518715641	0.3262273435992294	0	-0.07312238659818547	0.09725698065993942	0.1666506365939192	-0.08430402432865249	-0.1952317433336589	-0.5506475865782793	0.6707264251675874	-0.1982461847369836	-0.09523331415281865	-0.8800952417182196	0.4764135153055628
0.9799999999999998	-0.07165155812760925	-0.08380500344828398	-0.06897671567773093	-0.0009378999999999915	0.83971992	1.18977096	-0.1529173899798237	0.1274666129349447	-0.07570829416867536	-0.172826195125577	0.3713659496532667	0.3127554089024731	0	0.5772505800789084	-0.1022004014914045	-0.2758211186635766	-0.1287331526454906	-0.03652337061793862	0.3238687457906572	0	-0.07300145570137449	0.09603001314858983	0.1703480385980516	-0.08449202386529445	-0.1952291948038851	-0.5502504278312759	0.6681254011259131	-0.2032048859260499	-0.09959717379701655	-0.8840412768698728	0.4716867467320039
0.99	-0.07078540998252589	-0.08258344951482068	-0.0726887459060304	-0.0009355899999999862	0.8378236	1.20294242	-0.1643063033613233	0.1229505982790848	-0.08029639947475603	-0.1850674595949757	0.3711553449612188	0.3178690719417044	0	0.5835243249001638	-0.1029305413089533	-0.2788397441447171	-0.1435041545795294	-0.03469647445054988	0.3171793485391111	0	-0.0730376145601527	0.09326673841272819	0.1750584899139007	-0.08463145961549967	-0.1942834207789829	-0.5499593381534369	0.6650376302376646	-0.2077526046623052	-0.1037555902113634	-0.8886061911135176	0.4674806020203332
0.9999999999999998	-0.07137764628364809	-0.08094318426880689	-0.07621374803791969	-0.0008004199999999961	0.83595128	1.21664437	-0.175633346915235	0.1180016578438603	-0.08460035976809131	-0.1950431933201709	0.3676898610863609	0.3268460968529819	0	0.5890511625257465	-0.1035198920479949	-0.2806700925733663	-0.1621311612992183	-0.03442416783158787	0.3034834031017892	0	-0.06996774429231144	0.08963557165370895	0.1778929379549282	-0.08571857965347346	-0.1913534588965083	-0.5493302108371435	0.6613317380793859	-0.2141359764064054	-0.1088612903604155	-0.8938587291286655	0.4609606680361084
1.01	-0.06991239985611759	-0.07381392022361344	-0.08114044620193595	-0.00125749	0.8344831700000001	1.2307347	-0.1821538373104254	0.1031355586784668	-0.102716768844313	-0.217958875088672	0.3716712306032537	0.3679958468002998	0	0.5818242075297777	-0.09607149037466471	-0.2828321575815178	-0.1727043070902042	-0.02849466302534943	0.2771175405053117	0	-0.06735243699963753	0.08099099985087818	0.1820110233009199	-0.08476025095166284	-0.189517443209245	-0.5516495540964435	0.6488553171968184	-0.2135980264864996	-0.1125801304182831	-0.9113670544979181	0.4403959466899058
1.02	-0.06897092203195092	-0.06789566982774066	-0.08307425727611792	-0.001458009999999982	0.83320847	1.2450625	-0.1928519860259	0.09311054837436844	-0.1023360177630746	-0.2312866576319855	0.3594748317421397	0.3692892172829036	0	0.5833589399437058	-0.09261046441978225	-0.2832839755028377	-0.2023841268684083	-0.02989951798472076	0.2671744131957353	0	-0.06417845400219045	0.07225405684645148	0.1810209760324812	-0.08853650344074186	-0.1854316632095759	-0.5516483142145427	0.6478294728763554	-0.2214310135549019	-0.1176194160769078	-0.9147592947580514	0.4387891819197541
1.03	-0.06804667767137169	-0.06135179440344517	-0.08497256457528413	-0.001818089999999994	0.83201596	1.25999762	-0.2023769191821963	0.08171378136030061	-0.1036707385863167	-0.2472089895690472	0.3434595126767889	0.3703264622685737	0	0.5830390289457968	-0.08798178143032322	-0.2841841519283669	-0.234707664757916	-0.03030340707038572	0.2498244474836356	0	-0.05884597065705613	0.0630205020454525	0.1793773537482517	-0.09394144639870078	-0.1795978572496852	-0.5525573530729478	0.6447963005994981	-0.2300546265714101	-0.1202580329398738	-0.9184074906945824	0.4358357465805707
