inDegrees=no
nColumns=32
nRows=122
DataType=double
version=3
OpenSimVersion=4.5
endheader
time	pelvis_tilt	pelvis_list	pelvis_rotation	pelvis_tz	pelvis_ty	pelvis_tx	hip_flexion_r	hip_adduction_r	hip_rotation_r	knee_angle_r	ankle_angle_r	subtalar_angle_r	mtp_angle_r	hip_flexion_l	hip_adduction_l	hip_rotation_l	knee_angle_l	ankle_angle_l	subtalar_angle_l	mtp_angle_l	lumbar_extension	lumbar_bending	lumbar_rotation	arm_flex_r	arm_add_r	arm_rot_r	elbow_flex_r	arm_flex_l	arm_add_l	arm_rot_l	elbow_flex_l
0	0.007295310994804195	-0.04771841689644722	-0.01781357925695756	0	0.96645415	-0	-0.2703572734613568	0.09129623149303054	-0.3049829584046433	-0.1956102776722143	0.3965559603707308	0.2169210585076719	0	0.4575961006693972	-0.04427825769297262	-0.3692266681731707	-0.1358821169057024	0.0070888558189048	0.143119577038439	0	-0.1901005338013255	0.05472137628015197	0.1576498053916445	-0.005095535875087249	-0.2114925365005844	-0.1672588868052989	0.7968959738050994	-0.1311804336004165	-0.1079651587354277	-0.03425658882172716	0.5279864155280881
0.01000000000000001	0.005568129065598634	-0.04321196792149609	-0.02357831889856673	0.0002330500000000124	0.9655575199999999	0.01342728999999998	-0.2722942248553885	0.08014000383661038	-0.3018004070622994	-0.2162358092566161	0.3864273735021728	0.2258633400221945	0	0.461740666499866	-0.04344758027825776	-0.3644824773739525	-0.1681196989003458	0.000162441109608691	0.1369438806257703	0	-0.1856088547948249	0.04645872248569743	0.1625513896337417	-0.008078868878890279	-0.2092978481471204	-0.1686445754314895	0.782135951562852	-0.1296387902062494	-0.1093090111213163	-0.0362623707654698	0.5299509816960778
0.02000000000000002	0.002862849075003859	-0.03775113582498366	-0.0322377178925212	0.0006274800000000136	0.9650559	0.02681156	-0.2707393471531023	0.0664000853523833	-0.2956557598824907	-0.2406157456475863	0.3731187476927291	0.2347658276807058	0	0.4665201808432824	-0.04289850894582537	-0.3658219795266805	-0.1926503942141094	-0.02744199980106728	0.1195294077190499	0	-0.1808033017097651	0.03686407808654968	0.1693530070183349	-0.00984548678443581	-0.2067376951786718	-0.1699226341405656	0.7637337542463941	-0.127330323664315	-0.1099349123710202	-0.03997805963137292	0.5306466207176379
0.03000000000000003	-0.008739503538640158	-0.02112011494980586	-0.03938866471622264	0.000358360000000002	0.96417502	0.0399654	-0.2516776745607845	0.03880503920000495	-0.2929347111189531	-0.2798374970418035	0.367732889386542	0.2505786770336522	0	0.4744270433355984	-0.02590051872252059	-0.3460069453365832	-0.1995267924994323	-0.04000407568373607	0.06741895079929934	0	-0.1640821762072968	0.01527306352120042	0.1713027729688006	-0.00542455696809281	-0.1993786454618645	-0.1741864829279657	0.7271632531064005	-0.1272808610333135	-0.1121707004358418	-0.05187395555586023	0.5318069293924648
0.04000000000000004	-0.005431129331469498	-0.01412413065991649	-0.04174777453977057	-1.56400000000112e-05	0.9650382	0.05308323999999999	-0.2519493790411546	0.02348753034580372	-0.2927795195834584	-0.3093659747827111	0.3408607713512433	0.2549372722412273	0	0.4744186540614829	-0.02193202991004038	-0.332888672291212	-0.2281918322974334	-0.03931060540830456	0.05433918198615514	0	-0.167918454932675	0.004642824170657475	0.171634158284811	-0.008636685532605628	-0.1975782407745272	-0.1755566536572438	0.7173730667302483	-0.1225846179193061	-0.1133526838310505	-0.05523087576245388	0.5335356169300414
0.05000000000000004	-0.008923811790626981	0.004618296078040417	-0.04481772911979291	-0.000817750000000006	0.96570849	0.06649152	-0.2390562429973152	-0.006962077894566734	-0.2957296410659911	-0.3509896327600925	0.3174865369594376	0.2698417063419103	0	0.4764150681249983	-0.002857474518914916	-0.3111130537272805	-0.2482083918022768	-0.05133728967468519	0.005779681379924123	0	-0.1616101555592897	-0.01853470515673014	0.1681858470535293	-0.002224343242784583	-0.1898950348954714	-0.182646586693363	0.6807463239259055	-0.1183018897308542	-0.1141335772996485	-0.07233396953878084	0.5311448020888064
0.05999999999999983	-0.00450174666715096	0.01045783954723231	-0.04458440518239198	-0.001061499999999993	0.96730317	0.08023407999999999	-0.2377771824692484	-0.01995676609546641	-0.29221592117753	-0.383924869806115	0.2774617440429475	0.2693439319815233	0	0.4739076993236507	0.0007092110508893918	-0.2979219007938009	-0.2811882593607337	-0.05015034779907161	-0.00678449936982257	0	-0.166038532695551	-0.02816385070093254	0.1656310066927907	-0.007419254151223109	-0.1867428803819131	-0.183611167688153	0.6710379973313961	-0.1133812471914569	-0.1166224936074795	-0.07493405092812619	0.5324456504345905
0.06999999999999984	-0.008953281768953511	0.0189758347154853	-0.04278362964148607	-0.001859	0.96833946	0.09405999999999999	-0.2218371429451947	-0.03590692748198415	-0.2875015395547383	-0.4248365875612557	0.2327310263220232	0.2606292110327317	0	0.4770770050132352	0.01248780287275139	-0.2685678493384754	-0.3033028273231206	-0.0645279699730034	-0.06456463009034277	0	-0.158261280971482	-0.03958652293895603	0.1604205522310998	-0.006071377210612385	-0.1809324079033253	-0.1893626120842409	0.6396028960847371	-0.1105468319626193	-0.1181997631859372	-0.08648319146907843	0.5313607836166809
0.07999999999999985	-0.008550787239192227	0.03090337287530854	-0.04621576788005957	-0.002339859999999999	0.96988542	0.10756367	-0.2038557429405964	-0.05773042287075878	-0.278112015324997	-0.4750824533905646	0.1864092308502642	0.2485206849615995	0	0.472229530341273	0.0250880005860081	-0.2601131450981851	-0.3190736289018596	-0.04474825269485318	-0.07690797782049313	0	-0.1574109394556836	-0.0555791551674918	0.1608737325564338	-0.008662742076607426	-0.1765325840045608	-0.1942397355368713	0.6209744386473739	-0.1046663277987294	-0.1203990998747979	-0.09223641994072762	0.5302589117068035
0.08999999999999986	-0.01286709586515785	0.04070203319823279	-0.04847153443959214	-0.002725439999999996	0.97107295	0.12087984	-0.1769617510428483	-0.07606328401562136	-0.2669509265775442	-0.5285336832372715	0.1204060681018365	0.2288244474797039	0	0.4697726783497951	0.03588810794572574	-0.2551656140163315	-0.3319476984453515	-0.03197321592564625	-0.08518733127429659	0	-0.1510183309055832	-0.06871758886011865	0.1599444847051527	-0.01081491578028912	-0.1709266080892378	-0.1994801183809767	0.5999406771689245	-0.0991677934794945	-0.122166358141646	-0.09815661306634083	0.5298132565430724
0.09999999999999987	-0.01836647548000579	0.05340104527202662	-0.0529069764311688	-0.003067180000000003	0.97216916	0.13420236	-0.1444652258917266	-0.09856308750822679	-0.2519500082323499	-0.5881855858563748	0.0595122857037217	0.2073308575422668	0	0.4640763397577793	0.04892359164709445	-0.2579653109811555	-0.3373483087979752	-0.01865809295352913	-0.08571059512121144	0	-0.1423670641942747	-0.08499074122707631	0.1606126988445774	-0.0136710921233064	-0.16609933874496	-0.2048685390050386	0.5802869419449734	-0.09546972825024634	-0.1249377486585295	-0.103087380086196	0.5312910074475814
0.1099999999999999	-0.02361067706109596	0.06547118531844393	-0.05727781442630417	-0.003317650000000005	0.97327508	0.14739266	-0.110041755144642	-0.1200292246382605	-0.2370873768616473	-0.649732734005303	0.01047237815942441	0.1813068461286592	0	0.4562237189570225	0.06084941769932544	-0.2667186667128021	-0.3381045336083927	-0.002176267799472548	-0.08370802266343029	0	-0.1341245055972289	-0.100346617828757	0.1611693497928853	-0.0174181808587163	-0.1613903236605523	-0.2096048904833886	0.5636419806912001	-0.09109399041875815	-0.1280295074495858	-0.10706011371395	0.5322958828588121
0.1199999999999999	-0.02612133362442323	0.07331244364933427	-0.05956925535381027	-0.003687479999999993	0.97427915	0.15993393	-0.0771236352407256	-0.1359952311709254	-0.2225722047657671	-0.711863786069743	-0.03338181077653875	0.1635603072275201	0	0.4487932946985866	0.06872942638123737	-0.2736717200334056	-0.3452833269417844	0.01591488339541303	-0.08434342496198331	0	-0.1309233207707248	-0.1104169232666691	0.1590351796840368	-0.02106547149296423	-0.1580832511045932	-0.2123759891812211	0.553078509434791	-0.08619426390511677	-0.1314958721921172	-0.1091772949623926	0.5355655683677986
0.1299999999999999	-0.03796795147346721	0.08623924592108044	-0.06408629713034239	-0.003819829999999996	0.9745332	0.17205014	-0.02774166044179702	-0.1557785705308723	-0.2025442557658239	-0.7814737081947983	-0.06847249192419523	0.1276313022031629	0	0.4491831824039264	0.08035419727466628	-0.2849601860512616	-0.3451174745861527	0.0249648904710931	-0.07652721679087804	0	-0.1159047304432554	-0.125913451414912	0.1587047638984259	-0.02309630414746075	-0.1532744068521629	-0.2178077672745611	0.5374494713518805	-0.08200297473790735	-0.1341583604468615	-0.1131995414866306	0.5392202117251194
0.1399999999999999	-0.04309998254519042	0.09617659321900776	-0.06767552713566151	-0.004149719999999996	0.97533595	0.18414757	0.0129455320497148	-0.1718151098328675	-0.1846906904824258	-0.8442161403695658	-0.10633641887373	0.09082398972880387	0	0.4429039902355423	0.08985570078201797	-0.2933571787109068	-0.3478911595128708	0.04247377521837091	-0.07092002891892241	0	-0.1094260511556258	-0.1375779622336783	0.1564283679560299	-0.02597129880500596	-0.1492659601227217	-0.2230175600819326	0.5278673338076196	-0.07725831165259357	-0.137283352226738	-0.1156235947272063	0.5439939158674557
0.1499999999999999	-0.04920433903191926	0.1045131552270888	-0.0681172449235401	-0.004404589999999986	0.97609749	0.19593375	0.05401223102817538	-0.1848198567153123	-0.1701601165540284	-0.9022168142104936	-0.142353294768207	0.05938548107584609	0	0.4377498781436984	0.09846129501932857	-0.2982943151353341	-0.3504467624079596	0.05666889389747529	-0.06618697471659532	0	-0.1025568450230844	-0.1475456072304551	0.1507672879819641	-0.02785720490347047	-0.1445658926432573	-0.2276382827992062	0.5197110630670618	-0.07189499462276182	-0.1414830496921518	-0.1161640902098261	0.5487701198448799
0.1599999999999999	-0.054560212517417	0.1104651690171134	-0.0668231023045624	-0.005002630000000008	0.97709417	0.20767065	0.09314132847745783	-0.1935820005288085	-0.1559942111959439	-0.9541203825932395	-0.1664579283334882	0.02654354147765367	0	0.4308281026940871	0.1058547587892608	-0.3007248993979708	-0.3513144744876713	0.07208316101288027	-0.0615350750083604	0	-0.09707650733209788	-0.1539080784822296	0.1435151592295291	-0.03073957252990781	-0.1409880821702678	-0.2321276975900682	0.5138578764475583	-0.06622193383604569	-0.1443678850396185	-0.1167923371820447	0.5523526969865894
0.1699999999999999	-0.05478613685949557	0.1152457465561012	-0.06354865804290952	-0.005658909999999989	0.97855998	0.21934503	0.1239929705184984	-0.2012428864392581	-0.1466637368653183	-1.000547116858939	-0.1641184640459067	0.001444183336071145	0	0.4179664159125722	0.1133717199626691	-0.3000712496820882	-0.352095210178505	0.08914921122303121	-0.05772678211393911	0	-0.09828212021645052	-0.1593973471975316	0.1328774755261276	-0.03273174457067632	-0.1377457716270003	-0.2340823338818116	0.5112691459815362	-0.05846240627959649	-0.1478140908802235	-0.116653425205148	0.5542336412885235
0.1799999999999999	-0.05766647067223506	0.1183066354866134	-0.05956546938196536	-0.006413539999999995	0.97997042	0.23111061	0.1567540765886481	-0.2057412210843283	-0.1373672065706501	-1.041924653566659	-0.1488011305972953	-0.01963456644730934	0	0.4063583260034692	0.1195694326566541	-0.2978643995253305	-0.3498059848443763	0.1005604435259395	-0.05118248368242227	0	-0.09575212426854826	-0.1620224150695143	0.122355682906789	-0.03654871471853974	-0.1349397855427497	-0.2363125114112198	0.5098712152669064	-0.05186730951660157	-0.1507920761951984	-0.1163429515515705	0.5578617783304941
0.1899999999999999	-0.05807227741554415	0.1186732716719846	-0.0561925815238568	-0.007116669999999992	0.98163885	0.24265888	0.1868147539131748	-0.2074034011054284	-0.1294248561241203	-1.078651920005534	-0.1240089326017054	-0.03898800520708417	0	0.3909895236678811	0.1231801958185859	-0.2944325996323715	-0.3462304658141618	0.1030583294298624	-0.0466941551844867	0	-0.09658596945585549	-0.1616871036353517	0.1123793231319912	-0.03990676223329725	-0.1330433777981759	-0.2382156727073342	0.5097004443989096	-0.04383180491377342	-0.153199864363409	-0.1154432952341583	0.5606990403658747
0.2	-0.06012238515107216	0.1189976624237266	-0.05060094178069259	-0.008030869999999996	0.98333215	0.25453648	0.2165810774450955	-0.2090930300942075	-0.124874271906299	-1.108740872536608	-0.09735364746589037	-0.05864032147835337	0	0.3765077948729958	0.1273744307525068	-0.2915751977191535	-0.340864887884817	0.1220233732644069	-0.03878294158634545	0	-0.09451560788632811	-0.160858740352692	0.1012258757850695	-0.04529670897325716	-0.1311878428721571	-0.2406895191442717	0.5109247110132417	-0.03613577889323	-0.1546384204089059	-0.1145482862049454	0.5623893317071048
0.21	-0.05802256766347667	0.1176761601689879	-0.0480809732483745	-0.008930069999999984	0.98513997	0.26593159	0.2434104877971967	-0.2084800530076146	-0.1170511162775733	-1.134660799669477	-0.07726384975684307	-0.068926253618703	0	0.3579510680244287	0.1297781135572508	-0.2873337273688895	-0.3360317859992449	0.1248725716065417	-0.03328201354804142	0	-0.09839832196912028	-0.1577676859765217	0.09130038782011123	-0.04807199419236641	-0.1312696642565564	-0.2426311742006376	0.5135981075758109	-0.02785626958152433	-0.1546168942160435	-0.1134620983473251	0.5646372714523106
0.22	-0.05770860079467144	0.1169241240670025	-0.04329994313156447	-0.009811139999999996	0.98704158	0.27771835	0.2694281484812551	-0.2087796260328159	-0.1127803901947886	-1.153389211938568	-0.05329143134011859	-0.08112100331820686	0	0.3384549292251486	0.1336982539569239	-0.2818510853196915	-0.3254525182913748	0.1403971201432608	-0.02715749298156798	0	-0.09883711816342391	-0.1552270293830154	0.08129754075405221	-0.05356044591904548	-0.1301098180939813	-0.2446664326610513	0.5171891027895688	-0.01975654541433612	-0.1556250141943538	-0.11302314454979	0.5671119003203519
0.23	-0.05645701735621343	0.1157039788788612	-0.03932612411897143	-0.01080342000000001	0.98882574	0.289196	0.2941627598617742	-0.2090683336852918	-0.1091368888448797	-1.166710172862501	-0.03567549193624779	-0.08779366897087865	0	0.3185540567753786	0.1366551604069237	-0.2777595308981923	-0.3160663564384375	0.1498156454619849	-0.01965790638633041	0	-0.1008909001522549	-0.1517401929755557	0.07171681291222816	-0.05878309115649574	-0.1296636335718881	-0.2469380483211591	0.522633613059802	-0.01086504565066368	-0.1564746493754038	-0.1120374939402699	0.5702845654196808
0.24	-0.05349162507572691	0.1157845552305343	-0.03486834781013115	-0.01176679	0.99068413	0.30083303	0.3152157932658242	-0.2107050113044276	-0.1066243037779965	-1.174111300896777	-0.01439484962084654	-0.09546370476993184	0	0.2958931120943913	0.1406363604523462	-0.2763700535112615	-0.3050704030653597	0.1574150134032236	-0.009151347000703238	0	-0.1044496067748508	-0.1502092564782178	0.06350779692541177	-0.06658222267713367	-0.1283003286188215	-0.2508792412313356	0.5333519496496687	-0.000488810174815847	-0.1581598363267036	-0.1096994643133335	0.5729489166388686
0.25	-0.05335416076915529	0.113387234231993	-0.03121620397963651	-0.01250129	0.99241394	0.31236801	0.3387929125838632	-0.2077284747872647	-0.1019906436331096	-1.175914701790841	-0.005545696082683532	-0.09686812601498405	0	0.2755420291715426	0.1418953938508451	-0.2712923060319105	-0.2924801415115346	0.1632483263076006	-0.003408532036036066	0	-0.1045686834338644	-0.1453759530071171	0.05484731539925151	-0.07092862571268602	-0.1276088200934692	-0.2524269580222339	0.5371807368982985	0.00808489497719864	-0.1581481862539466	-0.108426439482886	0.5746933770659612
0.26	-0.05203969794309127	0.1109355669051402	-0.02742803419124788	-0.01332328999999999	0.99403803	0.32384745	0.3598541554931157	-0.2051725216045951	-0.09869178180408353	-1.17329001824036	0.01161782430847305	-0.1003744954493004	0	0.2535181188464919	0.1432009804164825	-0.2642560589745169	-0.2794614613166053	0.1643795392965992	0.001653458261762001	0	-0.1058005268715453	-0.1408219713313739	0.04838810403769743	-0.07671403631041275	-0.1273971453400569	-0.2545943010805763	0.5427655988675285	0.0175809572460743	-0.1580129748986629	-0.1074011252189167	0.5785899717522945
0.27	-0.04980844032551048	0.1097907311379418	-0.02332173077774157	-0.01435452000000001	0.9957116	0.33546649	0.3782642266879609	-0.2036456487573547	-0.09536850526228302	-1.165251564380162	0.02912683018160096	-0.09912339945917369	0	0.2291483507437438	0.1458825458180828	-0.2626662884752919	-0.2631843816097648	0.1725990581512553	0.009829179649635651	0	-0.1074108369290065	-0.1370059956721183	0.04092741297750516	-0.08271592917097643	-0.1269761188664666	-0.2572960396958029	0.5503008905359388	0.0269250474137935	-0.1573087603763561	-0.1066558986007808	0.5818070329663394
0.28	-0.04476915552904315	0.1086198509754477	-0.0175113251211333	-0.01517344000000001	0.9974856	0.34696778	0.3909882984467462	-0.2041954145562964	-0.09758289506687642	-1.151763218177916	0.05621185168210546	-0.09123181139033942	0	0.2035271059945592	0.1476494527501524	-0.2608503133566317	-0.2510421792361824	0.176666272909138	0.02385824752917235	0	-0.1140947145767931	-0.1342666195551712	0.03299747374181927	-0.09006600684823091	-0.1253744584862452	-0.2624091815797197	0.5650128638638788	0.03741065691427729	-0.1585958584946942	-0.1056559767830329	0.5887541675263835
0.29	-0.03986442745998738	0.1065859780957847	-0.01604860206927514	-0.01602037000000001	0.99898016	0.35834784	0.4046113123342138	-0.2019154195704498	-0.09542501745266628	-1.134495925745423	0.07757294058605427	-0.08269731348917465	0	0.1765909591593877	0.148416709263173	-0.2608867509444914	-0.2354145791300427	0.1847736472035036	0.0360524860217383	0	-0.1194988649807387	-0.12973439375762	0.02917674398021412	-0.094433319277288	-0.125197363068638	-0.2655978330223322	0.5717442406472584	0.04778075965219946	-0.1575363752218269	-0.1039990367639461	0.5943088028364298
0.3	-0.04174479315698662	0.1032740883741734	-0.01102243062227397	-0.01681626999999999	0.99989518	0.36974906	0.42285032852146	-0.1972135976860213	-0.09478651422763124	-1.111305020214649	0.09060328359464415	-0.08125888781977292	0	0.1585079651098271	0.1475485608511483	-0.2569016277479763	-0.2229623115099278	0.1889179138845387	0.04260309556383036	0	-0.116352838841783	-0.1240107494894567	0.02186342223887495	-0.09787081662305724	-0.124527481441646	-0.266776448979282	0.5739584356731073	0.05468569494345712	-0.157639472344341	-0.1025115875883827	0.5985909482594445
0.3099999999999998	-0.03667740848831302	0.09972975277916653	-0.005864041191250197	-0.01772652999999999	1.00113489	0.38099364	0.4314933394763408	-0.1945403637881384	-0.09876769455083319	-1.083364001982503	0.1110311423295577	-0.07233810893616779	0	0.1331809559944583	0.1460485170306365	-0.2552941992291101	-0.2105006688537358	0.1937929296775644	0.05642919561399414	0	-0.1234444868384252	-0.1178542232496932	0.01434050268593331	-0.1008138511961622	-0.1235441507237676	-0.2707593962738187	0.5818613168948665	0.06370251755047024	-0.1574419724569816	-0.1004285503906297	0.6086062725097932
0.3199999999999998	-0.03810242446365461	0.09719478903296368	-0.001419331887237461	-0.01863844000000001	1.00162192	0.3924558	0.4470395562757233	-0.1910304218393761	-0.09833417745391806	-1.052310747883853	0.1188757199549895	-0.06866949788337627	0	0.1140748101438717	0.1460400818543617	-0.2526940792679882	-0.1959895134585961	0.2063850524505039	0.06256047671332517	0	-0.1204624254815151	-0.112750259354181	0.008313287192318291	-0.1039343440408259	-0.1239456319531966	-0.2723726028797066	0.5831340279151147	0.07068607067428521	-0.1567950584902812	-0.09871379040595119	0.6136746426841388
0.3299999999999998	-0.03936141701908488	0.09488442775901838	0.003731096895484635	-0.01919473999999999	1.0019303	0.40353752	0.4605534015638079	-0.1878355955964029	-0.10052203162163	-1.016170456790908	0.1276473585341496	-0.06382599837331836	0	0.09697442424587922	0.14479280534277	-0.2515030433735482	-0.1854705220927069	0.2118803090414035	0.07043457780478495	0	-0.119632047390767	-0.1093017182630368	0.003067576556138292	-0.1068390935950578	-0.1209468773946558	-0.2731946562735215	0.5847672585089777	0.07954314905444983	-0.1582237583124262	-0.09688969165228754	0.6207876774218362
0.3399999999999999	-0.0272419871826331	0.09175240502704421	0.002496627873623804	-0.01965728999999999	1.00316364	0.41482259	0.457803357296341	-0.1829821536437281	-0.1011063837376939	-0.9747199838209445	0.1477714802373324	-0.04070082874895765	0	0.06419748559595298	0.1423355615248749	-0.2609499508875024	-0.1727022186292213	0.2196209067567856	0.09600814975811597	0	-0.1345981380398035	-0.1030504925524551	0.0008743767939933712	-0.1059271829719016	-0.1218372438480584	-0.2791345204815352	0.5919561550298106	0.08636046986445492	-0.1586744356610799	-0.08839807317471871	0.6386038139448923
0.3499999999999999	-0.02994985057359375	0.09185585506677993	0.002748020001838936	-0.02002634	1.00279243	0.42578034	0.4724970558052821	-0.1800625906074698	-0.09866150261048945	-0.9326283247058198	0.1510922098201555	-0.03735459938216418	0	0.0490046698702983	0.1439378795451584	-0.2620290982614531	-0.16176375675077	0.2258223460777895	0.101353989584417	0	-0.1314195580196396	-0.1016317884054692	0.001033502127089123	-0.1075025712599585	-0.1214146010250478	-0.2799576535360254	0.5910180398587318	0.09546180393184349	-0.1581462452732855	-0.08566943624319213	0.6451810739665307
0.3599999999999999	-0.02229909517237452	0.08920479411535449	0.00198687894949475	-0.02012153	1.00333257	0.43691809	0.4717134104760525	-0.1747169001813528	-0.1002382972848576	-0.8833627396315215	0.1581827434240702	-0.02380162416131575	0	0.02194437619463606	0.141848408365651	-0.2669435832792493	-0.1504524127825459	0.2326653062981052	0.1166328109468198	0	-0.1417079088372666	-0.09732392241433381	0.0001053157850592158	-0.1052955633254364	-0.120703372722609	-0.2840340441879174	0.5918070168197604	0.1032041146878864	-0.1600655133404018	-0.07409211666333473	0.6583504423984187
0.3699999999999999	-0.02474192192063315	0.0890492970145596	0.002200788713945602	-0.02065568000000001	1.00246736	0.4478937199999999	0.4824771760664863	-0.1721056083676889	-0.1001448905794164	-0.8340000732355748	0.1612709972449227	-0.02018418563859392	0	0.006339617386950169	0.1433899842155761	-0.2672212803476062	-0.139889582760104	0.2335009270088605	0.1199009731324349	0	-0.1393858714877334	-0.09558115670194481	0.001749108587956598	-0.1061170720019917	-0.1212366493489096	-0.2856041336563653	0.5915793696856985	0.1113558617095559	-0.158940040739313	-0.07048503387719671	0.6674730204389295
0.3799999999999999	-0.01818461129499153	0.08714001922051895	0.001582779005273096	-0.02078775999999999	1.00252156	0.4591565399999999	0.4789558301363916	-0.1671057126958866	-0.1025682540658718	-0.7769664451434067	0.1640308907544245	-0.01445642518592275	0	-0.01924713668915531	0.1425376629728072	-0.2692745933664671	-0.1289017435972517	0.2334808579913906	0.1256585155343963	0	-0.1482026894853776	-0.09170071486330579	0.001209366040376127	-0.1035944389000719	-0.1201807132832141	-0.2886426045782985	0.590521254401899	0.1162944284313053	-0.1597943511338303	-0.05906311666860763	0.6831370609254558
0.3899999999999999	-0.01371399957519093	0.08807799212848251	0.001206418578416774	-0.02102113	1.00203683	0.47024426	0.4782413295161382	-0.1653860193635443	-0.1051891668325043	-0.7197643035920964	0.163354738333963	-0.009525355525975282	0	-0.04235250188796072	0.1449892309799748	-0.2712962420984396	-0.1180497348579686	0.2410220928549697	0.1335612726632458	0	-0.1547999937408105	-0.09135152300013494	0.002191595106430637	-0.1011603058594672	-0.1196207484782554	-0.2909268962156977	0.5886159030666392	0.1240653784695771	-0.1607760686438811	-0.04927768090414641	0.6947728712009364
0.3999999999999999	-0.01733848076264921	0.09380342290016579	0.001624189214382389	-0.02117264999999999	1.00042683	0.48092874	0.4873488383838874	-0.1678556918455758	-0.1045482093254751	-0.6637436172993632	0.1631845165465489	-0.005603291598933495	0	-0.05274564855706282	0.1517000308550722	-0.2733266199201331	-0.1138651133721006	0.2483889253439775	0.1350544606559227	0	-0.1527063027042375	-0.09723000589821813	0.003244730791341295	-0.1015633728950544	-0.1175512641112101	-0.290881930250981	0.5879724752205868	0.1331464021404602	-0.1618386277104891	-0.0474494523524067	0.7020685417294186
0.4099999999999999	-0.01877690710631089	0.0942630561777211	0.001767557666756652	-0.02130615	0.99898021	0.49208464	0.489369672570698	-0.1654165774607529	-0.1098271822720067	-0.6009724467076651	0.1578847392753336	0.004976172283944581	0	-0.07170755603494144	0.1540148325931255	-0.2702783693948022	-0.09915654046914227	0.2550340113038093	0.1423900641431575	0	-0.152130081379027	-0.09650933396826261	0.006060230316278673	-0.09999333980074143	-0.1179965539775287	-0.292414821866147	0.5852134156294017	0.1390881115105591	-0.1621895678699717	-0.03917347139831687	0.7169627754278212
0.4199999999999999	-0.009359020232933682	0.0969599200591196	0.0009060580129322594	-0.02168173000000001	0.99832443	0.50332948	0.4780095145358224	-0.167351274063924	-0.1237343786967985	-0.5351065364770814	0.1518041826800532	0.01358610296631469	0	-0.09927206381233178	0.158350186821848	-0.2738100499429967	-0.0901781357005582	0.2719185207427481	0.1544339400772032	0	-0.1659269558908661	-0.09730764634639433	0.006346041071262134	-0.09437844944173088	-0.1170244366510285	-0.2954229285969516	0.5818501335231515	0.1433551331320064	-0.1639673597224544	-0.02289796999271895	0.7353885779733463
0.4299999999999999	-0.01183105060470366	0.1013868581585656	0.001197517523969566	-0.02187172000000001	0.99622321	0.5144575	0.4800609190371464	-0.1687196713641491	-0.1326587569729201	-0.470201515171788	0.1451763194547472	0.01940897758003424	0	-0.1142470891508751	0.1640985735756193	-0.2747008467945929	-0.08114653486716966	0.2655979749176003	0.1574387137527352	0	-0.1645285855277976	-0.1009697474956088	0.009340070499918937	-0.09336545894760997	-0.1160399529686463	-0.2967846585649012	0.5794742934323658	0.1496869434866795	-0.1642735121153369	-0.01471567360048718	0.7465075840400067
0.4399999999999997	-0.01613150386684003	0.1087865988753719	0.00175158539234123	-0.02184409000000001	0.99385819	0.52558901	0.4837612601757391	-0.1721120180893669	-0.141481651683421	-0.405442408977015	0.1388886282310378	0.02680400708483845	0	-0.1266886111278514	0.1728078265823973	-0.2722312596591618	-0.07343422893896243	0.2743500054207459	0.1604950289209409	0	-0.1614644434305614	-0.1087316747052466	0.01220946334869694	-0.09272371272629179	-0.1144469077081457	-0.2971384046902222	0.5775327071419725	0.1565825293982	-0.1655955405551927	-0.009602508503691392	0.7561351390656619
0.45	-0.01934050821382191	0.1143131742887684	0.002206337595250245	-0.02199317000000001	0.99140458	0.5368707699999999	0.4855409350639517	-0.1741540627389782	-0.157686542303471	-0.3406476488472163	0.126780766083153	0.03841378280746592	0	-0.1405739143170391	0.1794317830627056	-0.2716755707363376	-0.0659551099943959	0.2797241138213428	0.1643840436423328	0	-0.159540123856991	-0.1137006670537143	0.01495748111436936	-0.09126969288908933	-0.1134686958664306	-0.2978513901901521	0.5748652757657207	0.1611039180973598	-0.1655409569536328	-0.002415964686690292	0.7678773458340746
0.4599999999999997	-0.0224884409349317	0.1210331920394299	0.002715661528413323	-0.02199266999999999	0.98889449	0.54823721	0.4866217052450409	-0.1758221112551552	-0.174060889384058	-0.2760972826347184	0.1180759357406996	0.05040187138636672	0	-0.1546246944415365	0.1872098142508186	-0.2701289917255788	-0.05851750632408195	0.2886639028311606	0.1711640158026086	0	-0.158050725323186	-0.1201699859660326	0.01785323035471467	-0.08958608197010402	-0.1122004719131565	-0.2979180382056333	0.5721009826302405	0.1657500247087415	-0.1665840133621132	0.005771711682960742	0.7797950060143344
0.47	-0.0224878179511057	0.1270676030793215	0.002850265688774603	-0.02188148000000001	0.98641762	0.55969967	0.4838057069050034	-0.1758932507009335	-0.1944040411817199	-0.2135272734566176	0.1076055057177863	0.07030848771470509	0	-0.1717711455126086	0.1937987494779552	-0.2735911579040616	-0.05148354791693646	0.2959172025249908	0.1803443246223865	0	-0.1602477368844172	-0.1260829262014062	0.02179079472537634	-0.08732443388535439	-0.1111639458286054	-0.2982375050172476	0.5689018679387622	0.1702623977351171	-0.1669580740727299	0.01527186709799818	0.7923436739286234
0.4799999999999998	-0.0171147947699359	0.129037344747004	0.002202538734084233	-0.02154859000000001	0.98436577	0.57160648	0.4754505894065025	-0.1718284432756881	-0.2241778926677703	-0.1560302211781369	0.09520373221826076	0.09959082585999411	0	-0.1943913212221314	0.1953450396367229	-0.28394467704703	-0.04605078249083859	0.2991462318107824	0.19870153642644	0	-0.1682492229257289	-0.1267329213723681	0.02507921477308648	-0.08345634845422074	-0.109987487098611	-0.2998831143588304	0.5643973417381706	0.1728289784021351	-0.1688525193690927	0.02956161421302009	0.8075890118474583
0.49	-0.02048754463463225	0.1371939422413245	0.002802345752796639	-0.02115533	0.98124157	0.5828884	0.4782995102412863	-0.1723284500867214	-0.2338045577500397	-0.1034018924316627	0.09116577266930001	0.1210412518851672	0	-0.2057202237262293	0.2030698051213942	-0.2861758478433155	-0.0437139958873955	0.3087920391406889	0.2081541180057924	0	-0.166937069558781	-0.1355711268091992	0.02990638707705783	-0.08238189339796405	-0.1084418563252347	-0.2998684654613526	0.5635351705552352	0.1793690903123752	-0.1687963154038554	0.03379998573119714	0.8164953689009212
0.4999999999999998	-0.01340140088401823	0.1374037085428335	0.001835724415263033	-0.02034273	0.9790869800000001	0.59495465	0.4702801525520329	-0.1656919422456302	-0.2579737208501562	-0.05949142273597507	0.0871739283843684	0.1655008417825062	0	-0.2275404354525492	0.2012665621796273	-0.3048863471001625	-0.04328919164863926	0.3183223969548334	0.239582190287955	0	-0.1771097809688233	-0.1354314439203718	0.03554124068658562	-0.07945084801508981	-0.1080621086337833	-0.3015578834398251	0.5604466887943823	0.1833896916892603	-0.169680720161599	0.04841211959367194	0.8295666651877446
0.51	-0.01629216454851343	0.1444496216634451	0.002345427693209972	-0.0196935	0.97601604	0.60688382	0.4772781343127741	-0.1660597052847069	-0.2608357555653408	-0.02791119893280895	0.08794756355220616	0.1730942091072437	0	-0.2378243705871687	0.2072106935431292	-0.3085480764942464	-0.04491430663601351	0.3235066393636862	0.2425605594008324	0	-0.1753744461702575	-0.1431724353820332	0.03979112701450269	-0.08044984358660361	-0.1052605293313611	-0.3010535742176528	0.5594104611611334	0.1874463234686905	-0.1693734704802158	0.04886745470250039	0.8342355071560945
0.5199999999999998	-0.008010047781657989	0.1450692042469112	0.001157967164907837	-0.01869249000000001	0.97399643	0.61898084	0.4723863558540135	-0.1609760865177523	-0.2656397135939972	-0.00626443087170228	0.08179655447274108	0.1916753876695654	0	-0.2598550393506819	0.2053411239009963	-0.3218343081585907	-0.04652970520090896	0.3309660921127741	0.2703829854773642	0	-0.1875691230895316	-0.1434220967030164	0.04320905415790224	-0.07432622797334733	-0.1044057012721876	-0.301638285173411	0.5578527785402062	0.189420781115683	-0.1726606757787665	0.05992557967059397	0.8487291195487907
0.53	-0.00881469744174835	0.1471248952395154	0.001292223802746838	-0.01821260999999999	0.97125377	0.63127671	0.4813598878378589	-0.1591807312424739	-0.2659429460510411	-0.002185104052409545	0.08275442013870114	0.1910032924414831	0	-0.2710845434340166	0.2056633560122774	-0.3228048011071559	-0.05120723594187405	0.3319387990114956	0.2706783318387159	0	-0.1870701594617923	-0.1441843676830286	0.04648489038170551	-0.07203500999681163	-0.1043216805983978	-0.3013977763590251	0.5584639150025701	0.189693388629408	-0.1710925039035678	0.06007060955011768	0.8496844557090658
0.5399999999999998	-0.003528807528742699	0.1497449558768076	0.0005264537724039301	-0.01766967	0.96905425	0.64337128	0.4889760996026427	-0.1603917349252872	-0.2652843429162084	-0.01616248487881305	0.08948298746558382	0.1766014087946852	0	-0.2883080474754386	0.2063126570657958	-0.3255516056944653	-0.05588897484619862	0.3430388314293246	0.2836071174542579	0	-0.1959903505185053	-0.145821354225442	0.05316738555419161	-0.07092840004161374	-0.1048816305680579	-0.3013161204318389	0.556666725037182	0.1934477705721633	-0.1665268728531993	0.06260022449264424	0.8594984167857558
0.55	-0.0007931576166194528	0.1484845766200817	0.0001173425502264962	-0.01691522000000001	0.9669102000000001	0.65579833	0.4975333728288155	-0.1589270177905663	-0.2580585143557388	-0.03593849333230278	0.08503839674417031	0.1714281310677922	0	-0.3017496380523527	0.2022176626003408	-0.3282430456453747	-0.0627867321218416	0.3422603836906074	0.2868297935670392	0	-0.2004345614562736	-0.1428718436081475	0.05857514198290471	-0.06819483988533315	-0.1063697347656896	-0.3014360116360145	0.5561948204705668	0.195087833955515	-0.1643123209075184	0.06340234727359892	0.8635102328733181
0.5599999999999998	0.002905804567582325	0.147729150814224	-0.0004277103817676898	-0.01618349999999999	0.96501634	0.66840174	0.5058629360890733	-0.1589989379221191	-0.2512244066199222	-0.06466667774637763	0.0835077520658834	0.1629067130131077	0	-0.3155568377575138	0.1983342006439642	-0.3287624259601708	-0.07155915766996136	0.3413843462158307	0.2908670797679746	0	-0.2058584127877498	-0.1402090912850874	0.06341070303739285	-0.06593748967386655	-0.1072392993378694	-0.301534531807098	0.5554902411744463	0.1942011464816426	-0.1620529023063552	0.06412138714617092	0.8672788172583284
0.5700000000000001	0.006152363688975409	0.1455657525216844	-0.0008924219051696937	-0.01540367000000001	0.96325154	0.68176854	0.5143218811303802	-0.1581774117922712	-0.2431766332251171	-0.1001954798204501	0.09026701048406363	0.1468187795242278	0	-0.3288822077322023	0.1925024649936322	-0.3314573272480527	-0.08159422665560484	0.3371221547930884	0.2972608126591791	0	-0.2091909599949382	-0.1355257732068556	0.06805993902412337	-0.06629393896513305	-0.1069654447863938	-0.3019163211847085	0.5540032477043505	0.1898696541429559	-0.160031490939161	0.06403181126390496	0.8718656491721869
0.5799999999999998	0.008601998731866447	0.1424370156431061	-0.001221130582199774	-0.0145585	0.9616766	0.6952071	0.5198791468261423	-0.1556315623206414	-0.2311902994002463	-0.1332383970490694	0.08704713667192923	0.1420354221403314	0	-0.3413702233605895	0.1856526480728172	-0.3305643628720585	-0.0908757436280474	0.3336355878644652	0.3014012504369012	0	-0.2113505572820603	-0.1299557400785494	0.07286076872462853	-0.06510449446190504	-0.1085426860905175	-0.3023655708540339	0.5537011938681504	0.1857633136410996	-0.1576090481138861	0.06374554846864523	0.8729767200144198
0.5900000000000001	0.01125342438144371	0.141585274778511	-0.001588063694842913	-0.01363613999999999	0.96026175	0.70915271	0.5256956516862238	-0.155651550354834	-0.2264042109251364	-0.1709219761599359	0.08976560932949097	0.13162746897052	0	-0.3523652438551821	0.180001875140649	-0.3340600100506481	-0.1043322532794076	0.3239854109282433	0.3086506109226096	0	-0.2129097642735561	-0.1267056450177521	0.07755828732525329	-0.06667075781956666	-0.1081506793809331	-0.3033131622902863	0.552638586979521	0.1789344633605887	-0.1559081486614622	0.06182894639196128	0.8738554093424621
0.5999999999999999	0.011396675032681	0.1380547307940954	-0.001568435320063083	-0.01263613	0.95890556	0.7235135199999999	0.5313129113296939	-0.1522958539731118	-0.215280990760997	-0.2086032009961744	0.0900508505835395	0.1245703034439095	0	-0.3611355929850907	0.17129513994585	-0.3372131307784803	-0.1169311020276855	0.3093769076996785	0.315694801147962	0	-0.2104414102132416	-0.1202260750886052	0.0830970099449105	-0.06911320281620113	-0.1084277048465937	-0.3046847029284944	0.5520023493663879	0.170688392812022	-0.1541918519143773	0.06004029475180687	0.8738923171220222
0.6100000000000001	0.00758574064766608	0.136140646766949	-0.001029556692756719	-0.01155207999999999	0.95746136	0.73820761	0.5393691342124737	-0.1491020895884556	-0.2058491023288551	-0.2400038679438891	0.05770000405082454	0.1036147465040506	0	-0.3635613348317178	0.1628868858982722	-0.3424723561971902	-0.1340508499102679	0.2986570881035465	0.3377091966360625	0	-0.2025782717093465	-0.1157975988176424	0.08847134279484913	-0.07356087980333094	-0.1073645970484688	-0.3081325069670954	0.5531600472031868	0.1609468421298717	-0.1526382291038232	0.05605403168075727	0.8709618220414612
0.6199999999999999	0.008019020429737365	0.1304951069679497	-0.001043494328813489	-0.01055036000000001	0.95695203	0.75265986	0.541621179146613	-0.1424330912216081	-0.1958117401551074	-0.2622685158959905	0.01556073183010678	0.07140374831737603	0	-0.3672621054958395	0.150114245815194	-0.3462496780495019	-0.1559966961957329	0.284212676367931	0.3473991379322313	0	-0.2009718298251064	-0.1062591880543293	0.09449470023815262	-0.07607053236800489	-0.1081052109359247	-0.3116824668721449	0.5530987676459518	0.1522704379649455	-0.150115869844063	0.05260745775021303	0.8659511168474695
0.6300000000000001	0.01118563898593843	0.1240663463538791	-0.00138425763011111	-0.009417189999999992	0.9569185	0.7671222	0.5448837100273966	-0.135956587661424	-0.1821866224477594	-0.2949247934770082	0.01078812916506121	0.0589887063012781	0	-0.3709453076757107	0.1354546747763147	-0.3475011412569032	-0.1829614749827505	0.2568234054070275	0.3474762109738677	0	-0.2029782673145161	-0.09627723589554218	0.1009405366180499	-0.0780035447284478	-0.1090636031677201	-0.3128956832833839	0.552281037258161	0.1441126686846921	-0.1472078153343595	0.05083491165933018	0.8626162698199258
0.6399999999999999	0.0109793821051557	0.113151676848553	-0.001239732232190077	-0.007864179999999998	0.9574282	0.7817632499999999	0.5445743352331162	-0.121856445611423	-0.1575108806738443	-0.3179597145692092	-0.009384510247866141	0.02547055668675885	0	-0.3681768344766719	0.1152408682823205	-0.3491417554661668	-0.2131719806205135	0.2258976767572336	0.3528048516275879	0	-0.2003259508386525	-0.08170911190641982	0.1081277293484669	-0.08092893978240162	-0.109597166202551	-0.3160601476041565	0.5520385043854418	0.1351180199622267	-0.1441688194173872	0.04448456590800093	0.8516578446909574
0.6500000000000001	0.01801687312265317	0.1081065622270291	-0.001944155321845884	-0.006610599999999994	0.95865657	0.79629491	0.5415569028590522	-0.116020330580932	-0.1418071969532212	-0.3543083260672773	-0.01613892380657576	0.01233595643530109	0	-0.3689728006086902	0.1009114313329107	-0.3462838777761947	-0.2501998744379907	0.2000140502038785	0.3507492904501174	0	-0.2078419642982769	-0.07357341999400652	0.1136368995296305	-0.08093572335360535	-0.1104741213714483	-0.3173074701924403	0.5506204318731122	0.1259788768272523	-0.1423197163787278	0.04181215877258463	0.8442774012517779
0.6599999999999999	0.018496235646531	0.0984259342119686	-0.001817773437358768	-0.005055830000000011	0.95994742	0.8113724999999999	0.5383225101764693	-0.1012341603394299	-0.1152550892250658	-0.3792838134794568	-0.02849605649622422	-0.02251195726738461	0	-0.3608796465589382	0.08113464620790385	-0.3433410693977608	-0.2887913809815946	0.1533893371324726	0.3414058954470393	0	-0.2050102316404996	-0.06036853376277461	0.1198962438137608	-0.08347667054443218	-0.1106819372018845	-0.3193760934140327	0.5479697071375262	0.1147956721401828	-0.1399144055308575	0.03301882644895401	0.8313370519572768
0.6700000000000002	0.021701792887235	0.08999040491299914	-0.001950618892932893	-0.003408990000000001	0.96151221	0.8259054899999999	0.5323176884788878	-0.08775798990311183	-0.09452013369961146	-0.4026072443037967	-0.04247638361293803	-0.06493800994801825	0	-0.3460166741508997	0.06075066958824149	-0.3394917966961014	-0.3441437176973533	0.1156698164563198	0.3242380639180974	0	-0.2070777827063325	-0.049331343320927	0.1246558682104885	-0.08203982003468037	-0.1105574278565082	-0.3217229404443501	0.5431919836764554	0.1049812508201691	-0.1370049285778136	0.0214151523973915	0.8209438108658623
0.6799999999999999	0.02054511955886714	0.083104659498048	-0.001705665722605108	-0.001999489999999993	0.96292296	0.84035883	0.5281221274438013	-0.07695995721627603	-0.08023522341554559	-0.4212329076435603	-0.03487052060342093	-0.09660055011095955	0	-0.3221532782494998	0.04264778122866918	-0.3318326470391917	-0.4037972438217268	0.06838993889777345	0.2966286615599568	0	-0.2037608399643875	-0.03962324745894479	0.1282990913549147	-0.08175055352777796	-0.1106253033620524	-0.3239949255906606	0.539896830148491	0.09305001075659838	-0.1356537868243041	0.01240058143964638	0.8076214817783296
0.6899999999999997	0.02186768248290658	0.07703153760269003	-0.001683099329826083	-0.0002214000000000105	0.96444129	0.85432635	0.5208746164835012	-0.06697826546061336	-0.07024307678859761	-0.4410577167246662	-0.01305862676725016	-0.1058459869389732	0	-0.2968426357846586	0.0242603738322928	-0.3250388516967072	-0.4681770145718177	0.005169792478909674	0.2720563109965346	0	-0.2045014159781986	-0.03208418692654778	0.1321037754320416	-0.08075118864459443	-0.1093135725393163	-0.3238469824075494	0.539249546695588	0.08257515440416907	-0.135710817901074	0.006547203182990945	0.7980182662417582
0.7	0.008005277293421511	0.0658929356910552	-0.0005271176572900114	0.001015320000000014	0.96472577	0.86773894	0.5267273360528969	-0.05303394692982914	-0.06817989445641538	-0.4529623338848928	-0.002805867227328546	-0.112030586974288	0	-0.2475298074400355	0.004134647298862724	-0.3054440639210447	-0.5445053240418276	-0.03396761273761228	0.2171422435601784	0	-0.1870487791784554	-0.01712070886086856	0.1368894457262627	-0.08169756358635816	-0.1115842071498516	-0.3238500114264662	0.5366958784979751	0.07199146909342921	-0.1316423313217654	-0.00883754587690677	0.7784850348325502
0.7099999999999997	0.004867408459982163	0.05721280190099643	-0.0002783252261668935	0.002306439999999993	0.96579762	0.88099999	0.5197236447965736	-0.04217638420380047	-0.07095659950087113	-0.4635140061919598	0.02454168076514148	-0.1134331894117267	0	-0.2108809198981434	-0.0136876751946613	-0.2916404899628718	-0.6162194325663799	-0.07144174780038338	0.1805444260975289	0	-0.1826208231901426	-0.006127022321423244	0.1418874960614469	-0.08114721380024868	-0.1132439662247462	-0.3237456391664006	0.5369349395617463	0.06164933368597391	-0.1307251786022007	-0.01679156018429468	0.7665642801835266
0.72	-0.008396720243434437	0.04968133934271748	0.0004170016382615273	0.003505079999999994	0.96607076	0.8935126999999999	0.5265371845252873	-0.03324680920983114	-0.07275800914879177	-0.4770705970368866	0.03596219071475467	-0.111582540185883	0	-0.1570196584540021	-0.02811129307756846	-0.2719788124436266	-0.6956327650782639	-0.09545910478015528	0.1294203580615721	0	-0.1673300156045688	0.00348599463516148	0.1469822978510508	-0.08226156970119984	-0.1161431155410073	-0.3217026967194221	0.5381158132766165	0.05479128422161013	-0.1280881115916105	-0.02808282134694775	0.7447362375139188
0.7299999999999998	-0.01920485482027482	0.04267362858321107	0.0008193958269363365	0.004581870000000016	0.96659993	0.9057497099999999	0.5291650145553443	-0.02568691677654818	-0.07767128395528468	-0.4877485891193629	0.05499057865650637	-0.1066550994145163	0	-0.105782873738826	-0.04129759259946418	-0.2559835774055773	-0.7703758426032355	-0.129993955982384	0.07941663589655928	0	-0.155495519665035	0.01228834298064206	0.1522533742299146	-0.08245075955239169	-0.1188504006380638	-0.3199006707957426	0.5404473029803127	0.04754265607605586	-0.1261602280557075	-0.03711774458910039	0.7270984479840764
0.74	-0.02773087037673091	0.0352009408668121	0.0009762042256480553	0.005773759999999989	0.9675071200000001	0.91753482	0.5258648172003746	-0.01729284527447208	-0.0823269909247499	-0.4916496961799443	0.07730886179825201	-0.1021122225706718	0	-0.05595862325719701	-0.05487734064743943	-0.2427266267810279	-0.8414105914902928	-0.1594848782520459	0.03238804089533836	0	-0.1472487438289175	0.02112226572855461	0.158374796313367	-0.08120109508131748	-0.1209247633749014	-0.3188739939532263	0.5431044897974542	0.04212922610554329	-0.1247090405388152	-0.04248380771997723	0.709112729336777
0.7499999999999998	-0.03797838880177398	0.02717105709173852	0.00103228513353506	0.006692880000000012	0.96829729	0.92910993	0.5245298628520785	-0.008580446660783241	-0.0848145905561932	-0.4949266595373785	0.09285723547552419	-0.1000176349584621	0	-0.004137805995742983	-0.06673534407760255	-0.2281915984233136	-0.9080813594327692	-0.1784745863814478	-0.02456255053967221	0	-0.1374397860875943	0.03045126682675862	0.1655353424039621	-0.08114763547179597	-0.1243032909321676	-0.3180537258567032	0.5480515086251722	0.03736661178527396	-0.1226140649399128	-0.05005552353721197	0.6900717207446713
0.76	-0.05232376291932266	0.02552709483708575	0.00133675107595877	0.007217610000000013	0.96898757	0.94023943	0.5281049151812509	-0.007381377539395104	-0.08781366642984922	-0.4977843085892185	0.100379242221267	-0.09463918225882413	0	0.05179538554532444	-0.06825175821383334	-0.2117910899044367	-0.968530634395669	-0.1861354796222803	-0.08131257746368985	0	-0.1229663887964263	0.03340291075999782	0.172183239740153	-0.08277814073403207	-0.1282232937998957	-0.3160566511860659	0.5550974368493937	0.03642397795676189	-0.1184905198549549	-0.06060954366118863	0.6634864151088137
0.7699999999999998	-0.05597567033402381	0.01893815222664788	0.001061123636564999	0.00851985999999999	0.9709154	0.9521655499999999	0.516672829335374	0.001507603888699639	-0.08581480122593224	-0.4966404983372778	0.1163980460110023	-0.09554672327566512	0	0.09255568307241821	-0.07745076073163057	-0.2001861750983089	-1.021577883352392	-0.1678374428574498	-0.1195023312046332	0	-0.1199093802089089	0.04005831353557105	0.1791057258878358	-0.08146237313926907	-0.1303262932009683	-0.3152539088132267	0.558476867265482	0.03221682392118479	-0.1169971625653405	-0.06587918031795252	0.6452775699047478
0.78	-0.05517424560690785	0.01551605048175102	0.0008569246850709416	0.009626269999999992	0.9732806000000001	0.96364599	0.5007307818100158	0.006270156773379299	-0.0846992473309825	-0.4949121385725349	0.127093415638709	-0.09342416152620446	0	0.128041271492343	-0.08417043281344755	-0.1930188396769236	-1.068405528299389	-0.1442165651680036	-0.1461629055607464	0	-0.1233651389346417	0.0435469780008893	0.18321142725012	-0.07663365656797554	-0.1318148101689681	-0.3150236354822393	0.5632320527663233	0.02695839559434428	-0.1181051178203258	-0.06772731993486482	0.6307682006795646
0.7899999999999998	-0.06125029897200809	0.009929098457373957	0.0006089149776202161	0.01084650000000001	0.97521211	0.97522688	0.4879663725251572	0.01233022809016311	-0.09149712133339602	-0.4848191921999672	0.1404332287365565	-0.08731360132481897	0	0.1711777927335921	-0.09315416415237579	-0.1864929087413889	-1.109221597997263	-0.1292320228981149	-0.1768957001045041	0	-0.1159016715792083	0.04814302193707265	0.19325082116165	-0.07817357295884783	-0.1348121794596815	-0.3153998855338697	0.5680881699596754	0.02646920842841001	-0.1178813474115984	-0.0702519406177368	0.6073709312577583
0.8	-0.06548696819547532	0.007798571956425546	0.0005114340610504497	0.01201759999999999	0.97734345	0.9866554399999999	0.474807084765963	0.01513542964891495	-0.09472870455948204	-0.4773976563798129	0.1496485582859074	-0.08170102509786364	0	0.210661790319897	-0.09897129453846117	-0.1827948953484195	-1.142073533794213	-0.1161942168616435	-0.1954880568025532	0	-0.1121699328400368	0.04917628512858717	0.199939172960974	-0.07719629033042641	-0.1358343132101549	-0.3152382005008929	0.5746614834428091	0.02426760001899483	-0.1184003538768689	-0.07309650842683321	0.5874990183581349
0.8099999999999998	-0.06724704584380131	0.006912511920830292	0.0004655473797485524	0.01296295	0.9798654999999999	0.9979980899999999	0.4567733749747544	0.01600002265072042	-0.1006300812904295	-0.4657240091114783	0.1572202304699108	-0.07561236022647733	0	0.2468046936471337	-0.09985447948559059	-0.1744704527096541	-1.168159362850064	-0.1030148578160513	-0.2082127774747544	0	-0.1103902048938149	0.0494930398730768	0.2043080965034637	-0.07458083276490392	-0.1372990570484133	-0.3151655642607481	0.5800808028523496	0.01843281039153776	-0.1182758974149689	-0.07451434113092359	0.5723028697517406
0.8200000000000001	-0.06819964946779841	0.005201313444449035	0.0003552802725188298	0.01393575	0.98222456	1.00936187	0.4379524003905133	0.01759016699947122	-0.1073194406683308	-0.4540881866186928	0.1668131180206336	-0.06662781556411765	0	0.2805845969218257	-0.103074843211646	-0.1699131163365557	-1.188838720912196	-0.08410659006567299	-0.218095135561369	0	-0.1093191661450361	0.04980938219626418	0.2103927059278	-0.0730520311543071	-0.1388378592210911	-0.3150117792860976	0.5859519951610814	0.01332198787566399	-0.1191778011928588	-0.07654526349534369	0.5603132609910614
0.8299999999999998	-0.07029320211103625	0.001865476181557697	0.0001313497641080968	0.01507486999999999	0.98438752	1.02066844	0.4200458877517291	0.0208346407038137	-0.116204888328289	-0.4417557618571331	0.1762826807809433	-0.05091696429985542	0	0.3147547196889481	-0.1093189963244998	-0.1669192984418042	-1.204412269567665	-0.07078669065099194	-0.2222218108943404	0	-0.1070862755013057	0.05193074106480434	0.2159609647543887	-0.07178540993688513	-0.1412281680913759	-0.3141891221828945	0.593841071526589	0.009537656955609186	-0.1216088804308714	-0.07490385341594111	0.5441873552463103
0.8400000000000001	-0.07350044904874745	3.649534182102103e-05	2.690406499343041e-06	0.01609152	0.98651287	1.03191204	0.4023630371367259	0.02215105668839382	-0.1268838103221907	-0.4274070411138838	0.1867052959382019	-0.03609894825722271	0	0.3485073542884728	-0.1121496411185543	-0.1630466660789033	-1.213170795837221	-0.04890557513682488	-0.2185023411216786	0	-0.1024321431678916	0.05241886166003274	0.2226625009454153	-0.07219242386004288	-0.1428490820712406	-0.3122931818374943	0.6012648822088904	0.003720346277012065	-0.1211637621304183	-0.07788307791468493	0.5305878753784766
0.8499999999999999	-0.07074339996083015	0.0002492938166565971	1.76685129658791e-05	0.01709622	0.98913507	1.04355613	0.377613470902511	0.02234977533916984	-0.1315835100607818	-0.4120237462623189	0.1929587113388632	-0.02719086402593197	0	0.3723405106152526	-0.1124350075127102	-0.1612489757276186	-1.213669800480197	-0.03134505709255485	-0.2207229545958517	0	-0.1044550174700649	0.05035993758215952	0.2258256906522351	-0.06917941868815961	-0.144279299806236	-0.3105002551878701	0.6065661964170451	-0.003863431685216139	-0.1242315214225293	-0.07870208745428438	0.524695078686132
0.8600000000000001	-0.06918130998886562	-0.001221851723209115	-8.466125255698187e-05	0.01792458	0.9915000899999999	1.05519019	0.3524819219082048	0.02391832141296014	-0.1399772970741897	-0.3941943747330119	0.2011453909509783	-0.01496940590195069	0	0.3957430964844934	-0.113159554422671	-0.1584622055438996	-1.207905247265164	-0.02006521352480247	-0.2238864493862248	0	-0.1045807865940953	0.05088738306342921	0.2289388676002732	-0.0668605316579262	-0.145949534521834	-0.3081217555643702	0.6123758937949121	-0.01252131057639581	-0.1263330535252997	-0.07810916297906638	0.5181134823939672
0.8699999999999999	-0.06456500883116258	-0.004760756535945731	-0.0003078018036609518	0.01871512	0.99390812	1.0667843	0.3242807897527191	0.02756347698593412	-0.1508670431480264	-0.3759226379856139	0.2111748150182221	-0.0005202196436335126	0	0.41560699413406	-0.1157775912357621	-0.1554375962014186	-1.198884111600503	-0.006121477410389658	-0.2249788635314187	0	-0.1088144167508264	0.05391534570700206	0.2318836007278062	-0.06511476921521152	-0.1491408749932251	-0.3034492691740092	0.6198859087324303	-0.02193754567407545	-0.1271766737781486	-0.07641162520531479	0.5145332174644506
0.8800000000000001	-0.06201969093682597	-0.005867041627051523	-0.0003643341170720025	0.01944567999999999	0.99596591	1.07829988	0.2986548390722724	0.0286889715781715	-0.1610749273058195	-0.3584431145632765	0.2194666131931911	0.01613108623103675	0	0.4351330754529214	-0.1163017520073796	-0.1553591984548799	-1.183362861212471	0.009226258277528088	-0.2209355564681627	0	-0.1102459635540472	0.05410526248782735	0.2341333868568276	-0.0638299229206744	-0.1520924363723907	-0.2964342350228772	0.6283912852914268	-0.03179716281866833	-0.1298778100802503	-0.07227387034771889	0.5120031761379877
0.8899999999999999	-0.06036946793644479	-0.005919969575436742	-0.0003578149608842273	0.02029479000000001	0.9977061	1.0896627	0.2743685055617512	0.02975006753526759	-0.1667130500915692	-0.3407872284125519	0.2242216803607089	0.02817217400160238	0	0.4544553054567426	-0.1155911617973153	-0.1562944703100742	-1.163319656638602	0.02588358274559093	-0.2181894165022325	0	-0.1113009855908134	0.05267422060835911	0.2353164387426043	-0.06066159182294405	-0.1540016092805806	-0.2913871903285298	0.63547062260819	-0.04205302450680244	-0.1336431725874614	-0.06809993778178888	0.5084511464469783
0.9000000000000001	-0.05789616223841704	-0.005509710731187801	-0.0003193432324620643	0.02116901000000002	0.99939982	1.10132146	0.2489681983773852	0.03004810030740399	-0.1767011100300737	-0.323393642210056	0.2334755689456254	0.04336734278015459	0	0.4694224937433457	-0.1140074147784047	-0.1580255918838256	-1.136304551806202	0.05003680400831971	-0.2040735591585807	0	-0.1121930558346318	0.05047920797272014	0.236055254068266	-0.05936388629154409	-0.1556901587832173	-0.2837368243901466	0.6438696484018808	-0.05484309466952142	-0.136612028608718	-0.06387008905541518	0.512526772993724
0.9099999999999999	-0.06097164798595604	-0.00506858709649465	-0.0003094191587227767	0.02214676000000002	1.00028726	1.11252422	0.2299783144933275	0.03158829821988462	-0.1797983029037561	-0.3056825144686436	0.2392081842061439	0.0492113997568739	0	0.4894124847991177	-0.1123129873559131	-0.160419287041925	-1.104358359860562	0.0563873605954226	-0.2025107316560845	0	-0.1074266551970832	0.04820095238200607	0.2364388629516216	-0.05643642092803153	-0.1550049880719779	-0.2808862453180405	0.6494738824786104	-0.06599975324773388	-0.1399786413267796	-0.06346916039722744	0.5113011052290682
0.9200000000000002	-0.05464396901486361	-0.003280200229121172	-0.0001794183122536511	0.02273309000000001	1.00192065	1.1242815	0.1999512649510977	0.03029090178629518	-0.1900065179759754	-0.2873120392094725	0.2463610943067285	0.06725075254662001	0	0.4961747793920647	-0.1085673753435833	-0.164228583849732	-1.067389776345325	0.08483908084172427	-0.1795895154485253	0	-0.1136284971655456	0.04519819962321488	0.235601649453391	-0.05464162049292235	-0.1579526831977844	-0.2717292352475133	0.6609462899680645	-0.07725276674155999	-0.1438142522891861	-0.05350340681376105	0.5147466394669771
0.9299999999999999	-0.05324013269228715	-0.003144350444640703	-0.0001675605662466458	0.02332922000000001	1.00262662	1.13557707	0.1768353914739319	0.03177609460020166	-0.192065938076422	-0.2709612739705408	0.2519571820591744	0.07686069528026028	0	0.507054437113759	-0.1058766103114958	-0.1676088045509057	-1.025621682598497	0.09323194230702994	-0.1734125688565134	0	-0.1137095020849209	0.04374643283154381	0.2368943764330996	-0.0535794913009091	-0.1592940228331489	-0.2667630712050984	0.6703631589693285	-0.08879010135185297	-0.1446751221546312	-0.05399116595130136	0.517193745365379
0.9399999999999997	-0.0466928697085812	-0.002570897381035234	-0.0001201266179964111	0.02391260000000001	1.00368056	1.14699013	0.1474190406654894	0.03222885971170654	-0.2004170132178423	-0.2527979382267208	0.2580414171103863	0.08930412490210898	0	0.5093632932131824	-0.1022240416270569	-0.1718544757341463	-0.976908986938903	0.09111029109584007	-0.1659751095249286	0	-0.1210504286518413	0.04195026266203767	0.2361376634540904	-0.05132343577468163	-0.1621078124590181	-0.2586115657369975	0.6831320645714061	-0.09846115696378473	-0.1464107705888635	-0.05280263861859526	0.5196737955751428
0.95	-0.04672861765217595	-0.0009978698682852169	-4.665989902919604e-05	0.02454032	1.00394079	1.15834012	0.1262253843382771	0.03240175447087006	-0.2006561517742324	-0.2372425652555494	0.2645136964501817	0.09684715640762011	0	0.5157599500544828	-0.09756407448342047	-0.1771900767609234	-0.9230107131699793	0.09693245728041623	-0.1535372639094888	0	-0.1200492559566185	0.03899921022088197	0.2352355903792629	-0.04888897548484211	-0.1618437382090719	-0.2539341377959253	0.6910379901709797	-0.1087959946260386	-0.1478248525803914	-0.05277059873685177	0.5197221900646422
0.9599999999999997	-0.03680311061110339	-0.0008151975712892387	-3.001221430772983e-05	0.02471577999999999	1.00485345	1.16999623	0.09273595411659943	0.03305673465124148	-0.2095463252622062	-0.2189341055589589	0.2711369294915151	0.1106740516297911	0	0.5085427762327079	-0.09247137529196647	-0.1805215355807902	-0.8636227360987699	0.1006998682805705	-0.13943429564783	0	-0.1312861605850475	0.03855305659111657	0.2332669879628451	-0.04681745117696704	-0.1657467016018457	-0.2476619272936152	0.7047307022113294	-0.1187100283441819	-0.1483538699051854	-0.05349086836841473	0.5224999161267103
0.97	-0.03736697564381682	-0.003330216008971284	-0.0001244946786976509	0.02539524000000001	1.00451423	1.18145023	0.07159637594359551	0.03783963510793966	-0.2114807103241058	-0.2024907235506055	0.2765663328898749	0.1174019649818031	0	0.5122580561679674	-0.09176533079193898	-0.1863728047815775	-0.8021506084842778	0.1038497414742635	-0.1261768762278435	0	-0.1296068950123009	0.04024010179447102	0.232151378915491	-0.04452262700113087	-0.1651228853224662	-0.2432387297709751	0.7131809300311542	-0.1282481867328852	-0.1477163650084825	-0.05429902143646798	0.5216236269754555
0.9799999999999998	-0.02798077224164877	-0.004456911422107627	-0.0001247368239509622	0.02572263	1.00483576	1.19289722	0.03941970262372115	0.04068290997712621	-0.2192672829790452	-0.1848917058119645	0.2814480449876418	0.1257678951440858	0	0.5013102993640517	-0.08848527139494466	-0.1931064841778393	-0.7341292572936525	0.1053916159500236	-0.1038271754142327	0	-0.1411439583984281	0.04102136300394247	0.2295873258342958	-0.0416731150233294	-0.1683345906446354	-0.2370728162778296	0.7265570444066468	-0.1365101059182576	-0.1469595548146339	-0.0575299508622162	0.5231791111796568
0.99	-0.0225079039228885	-0.009136188889194354	-0.0002056651886068705	0.02592947000000001	1.00446118	1.20459501	0.01074065062435336	0.04751201071238471	-0.2237259225537397	-0.1665334131255053	0.2862076735731597	0.1341372636049951	0	0.4933067676223237	-0.08854429651038494	-0.1991655592606861	-0.6651899292389899	0.08857184496183135	-0.1015474008634707	0	-0.1469435593956382	0.04626749339180757	0.2278567992432864	-0.03915269307903895	-0.1711427864902519	-0.2317977280851471	0.7364539252034344	-0.1445834227302643	-0.1446027939650993	-0.06093536521660944	0.5215478088255513
0.9999999999999998	-0.02267801388200586	-0.01253227904258665	-0.0002842453400164488	0.02621533000000001	1.00329569	1.2162263	-0.01079260226940115	0.05320188443031821	-0.2247653921360743	-0.1504984011611384	0.2930961977079939	0.1385622104711444	0	0.4898878229519704	-0.08731230227625671	-0.2086074594250163	-0.5925038156126086	0.07934826995349528	-0.09060006991989246	0	-0.1455509987100508	0.04981477980150888	0.2255711040121028	-0.03764527559150342	-0.1712390382569068	-0.2277704031763846	0.7461355227785812	-0.1533479539796444	-0.142382192533698	-0.06391199406168971	0.5204711281254325
1.01	-0.01232086374074376	-0.0178060163306062	-0.0002193818644596804	0.02631475999999999	1.00275991	1.2281908	-0.04471511587367483	0.06061266972041188	-0.231688674153896	-0.1323352320962619	0.2966940363577487	0.1456652219574805	0	0.4735021108108931	-0.08685488882935499	-0.2180901381601218	-0.5176301080471065	0.06520538967703481	-0.07897493687064376	0	-0.157213727198585	0.0556925141278759	0.2226249524554867	-0.0358683323181031	-0.1752002066349054	-0.2214160819140852	0.7593222478117485	-0.1603038912823038	-0.1392829286523252	-0.06976795104231497	0.5193224077387072
1.02	-0.01334537893212964	-0.02502974896502586	-0.0003340132833697601	0.02667540000000002	1.00081879	1.23985071	-0.06463289654963943	0.0705715432159669	-0.2295548325160127	-0.1177204727349934	0.3039673486949139	0.1494228317121543	0	0.4704517733953754	-0.08950293640440118	-0.2333290082378147	-0.4449491523922636	0.0525694029402684	-0.06862216734658898	0	-0.1553564577643555	0.06338453479231891	0.2204201052385786	-0.0341975457293956	-0.1761482413847877	-0.2182886943207445	0.7681154897273239	-0.1680992394527222	-0.1361044718524065	-0.07320928584351055	0.518548864200655
1.03	-0.00835175565564323	-0.0328447042626055	-0.0002742648557543598	0.02688227000000001	0.99925642	1.25176378	-0.09079351139314215	0.08055710942803608	-0.2331286048207117	-0.103798983634424	0.308445521470998	0.1503412058131295	0	0.4598969994636949	-0.09140039274278956	-0.2486006917271756	-0.3732509068162169	0.05055975771022648	-0.05001196308614193	0	-0.1607747214242315	0.07214998583021479	0.2173484910377487	-0.03282869708702583	-0.179198511954195	-0.2126290210820558	0.7805919134024181	-0.1744050449251393	-0.1324856726709998	-0.07893314059838161	0.5164496149885462
1.04	-0.01396166328204151	-0.0425773984531222	-0.0005943071147543738	0.02707587	0.99642581	1.26327219	-0.1018346098017179	0.09203115979591513	-0.230556960429935	-0.09690625395422435	0.3190292062581391	0.1519905370693423	0	0.4638414875554992	-0.09443518032186941	-0.2647433035889937	-0.3055792309449654	0.04847992772950702	-0.03810461308937255	0	-0.1537542118261702	0.08305645093655507	0.2154675531935329	-0.03016878877798184	-0.1807818264805169	-0.2115082769269765	0.7859213804695393	-0.1818391973813904	-0.1294185862033154	-0.08001900330116227	0.5145238450463674
1.05	-0.01518945898621334	-0.04626622653086605	-0.000702559035741669	0.02726487999999999	0.99396241	1.27485027	-0.116818371560365	0.09681465034843342	-0.2303350041164321	-0.0914170018195503	0.3271672191093917	0.15416453192653	0	0.460984200310413	-0.09128609200274107	-0.294631758280652	-0.2356191050148389	0.03770149212311139	-0.006731371198326013	0	-0.152619537500199	0.0865634013909794	0.211925681667836	-0.02997683240539268	-0.1820014002535562	-0.207855513463793	0.7952207669955283	-0.1855479222090451	-0.1265119853783459	-0.08380913901177628	0.5127955554438604
1.06	-0.01820924079186892	-0.05676662988069175	-0.001033232851830531	0.02707877	0.99100753	1.28629342	-0.1282089257258945	0.1080674716815089	-0.229310051135618	-0.0887699557144289	0.3396075434414352	0.1568082264758888	0	0.4613881777097382	-0.09276210368665036	-0.309562236708032	-0.1742994165516111	0.03490695382795753	0.0156539139116732	0	-0.1494587530316213	0.09895662277717013	0.209706031440877	-0.02739572082515433	-0.1848098273552987	-0.2067205483659685	0.8011331427914218	-0.1903226800066511	-0.1223548905273086	-0.0857626602126606	0.5109788675327336
1.07	-0.01759433264738335	-0.06020387010550329	-0.001058712869489195	0.02702069000000001	0.9883144699999999	1.29798719	-0.1409968510534957	0.1113297644993825	-0.2309369086597174	-0.09202670711192745	0.351320546488139	0.1608793209261657	0	0.4581229988154134	-0.08826580985507455	-0.343140471725512	-0.1173548775693806	0.01924624500044047	0.06187089887119146	0	-0.1506856208846706	0.1021568413894003	0.2063420293863105	-0.02688822253737275	-0.1871433416409272	-0.2018300047276535	0.8099892731087367	-0.1923915845753189	-0.1193230783855376	-0.08948129030741919	0.5081348058691202
1.08	-0.02061588905704128	-0.06901298445968151	-0.001421832251689789	0.02663865000000001	0.98512539	1.30937369	-0.149970884994034	0.1201188616070502	-0.2315892778275279	-0.09410771012843716	0.3642608994478314	0.1639488634211734	0	0.4596327278170103	-0.08738896097672864	-0.3518318059604587	-0.06519934472917052	0.01323414946866839	0.08717882473105193	0	-0.148415269541073	0.1125164953646895	0.203089813925005	-0.02300607184686312	-0.1894967987567207	-0.2002423794126121	0.8140864406836433	-0.1952009567728513	-0.1154777712464717	-0.09026597742367937	0.5064245392346008
1.09	-0.02004202207366364	-0.07128025880170949	-0.00142757810949599	0.02602576000000001	0.98229386	1.32110951	-0.1588528198298068	0.1204838007033972	-0.238115903055039	-0.1049079778839131	0.3794370622889611	0.1716019018077073	0	0.458870114054333	-0.08132778713545635	-0.3764364166661758	-0.02209376904822391	0.00215266675919538	0.1287511996990221	0	-0.1498848516065509	0.1150179036921087	0.2001851450049844	-0.02200679161214833	-0.1931008015603277	-0.1960655656571529	0.8188581190223171	-0.1952354312143684	-0.1122989189549445	-0.09228135588578117	0.5033019148193217
1.1	-0.02075087298420489	-0.07612609274479286	-0.001578379669311217	0.02556066000000001	0.97938588	1.33254645	-0.166777391828977	0.1241142204614966	-0.2412625528001364	-0.1141503450268383	0.3934956789417999	0.1739101789814179	0	0.4632092879361236	-0.07920928083304564	-0.3781204150482552	0.006746912831716248	0.004882561549513866	0.1426635410053829	0	-0.1509732085593655	0.1203782020004663	0.196492741100231	-0.01750670867076643	-0.1943606058707573	-0.1945265310066188	0.8209967838775883	-0.1952321405705967	-0.1095110539261856	-0.09239410258466368	0.5015933249226148
1.11	-0.02072084771197234	-0.07951430125059167	-0.001646099072029412	0.02514516	0.97672136	1.3443841	-0.1762620232384496	0.1264380970389956	-0.2430779235112767	-0.12262334153942	0.3985204748769746	0.1749177387090382	0	0.4707031994187654	-0.07819117198636032	-0.3825147027626323	0.0194143083391686	0.009119914668072372	0.1445572211494017	0	-0.1520917186930023	0.1236050880219364	0.1933929403555802	-0.01485652027485973	-0.1955614625583653	-0.1942549312460038	0.8219152379146433	-0.1950578825347544	-0.1071319848017508	-0.09181378479716577	0.5005508729216543
1.12	-0.01631722836439862	-0.08223483657158279	-0.001340447756797272	0.02481965999999999	0.97450026	1.3558273	-0.1865452057870957	0.1274984700807155	-0.2450320695400333	-0.1381314646080156	0.4122503392175126	0.1772887648326811	0	0.4752010249512927	-0.07804297677770518	-0.3809817074749088	0.02105505693878466	0.01340919133187771	0.1464178875179543	0	-0.1601282507711611	0.1254604840197468	0.1893616982298445	-0.009408758281697023	-0.1957667645910798	-0.1929834545226028	0.8217756524151882	-0.1916954788527168	-0.1053737224854663	-0.09055000340496976	0.4974457785933823
1.13	-0.01209975261601449	-0.07861075245825314	-0.0009502342557216464	0.02436741000000001	0.97247614	1.36748188	-0.1965737233303259	0.1206798345141849	-0.2540773389194588	-0.1544133307057969	0.4274407844369773	0.1919904237883406	0	0.4801209953643951	-0.07298521209655912	-0.3828618937803486	0.01222091148685955	0.01987728554665984	0.1433321995056352	0	-0.1672129986086055	0.1200255924335542	0.1866745933277313	-0.004599359363630434	-0.1968849293240576	-0.1916769724285262	0.8163428286950932	-0.1863387876163244	-0.1058239833985604	-0.08909424312543721	0.4936118845113611
1.14	-0.009554064939981496	-0.07728706807818013	-0.0007376899386335886	0.02417712	0.97060255	1.37950075	-0.2075518766139614	0.118014580436175	-0.2545467597080154	-0.164905598637377	0.429643457846302	0.1931617894730448	0	0.4860582101626042	-0.07144072207038198	-0.3819092054590817	-0.001860875109931185	0.01752557410918416	0.1405928500922257	0	-0.172092310529585	0.116751561927395	0.1847215304503085	-0.00267262582517157	-0.195461270885457	-0.1913778929824374	0.8147229481246787	-0.182104155117004	-0.1069027530832609	-0.0881226830825672	0.4936643241504677
1.15	-0.004541395106483987	-0.07416188553999715	-0.0003364889369185662	0.02380852	0.96903926	1.39170705	-0.2189456369493268	0.1122911691694668	-0.2570133686136108	-0.1802590956571556	0.4346698460453533	0.1963999930820495	0	0.4878889022465832	-0.06899096990376817	-0.3804881964302856	-0.02145693139089404	0.01754769231772884	0.1336422281898032	0	-0.1792229472618545	0.111161552807668	0.1819554066389759	5.260806337946348e-05	-0.1941275860896588	-0.1922051469338245	0.8080011067731345	-0.1780163648471024	-0.1074399841020478	-0.08596913510663248	0.4915657137288652
1.16	0.0001177546246718124	-0.06944683528728858	8.174255929377212e-06	0.02331469999999999	0.96762415	1.40445735	-0.2316878721751047	0.1046585272241705	-0.2596356628083463	-0.1931389787178529	0.4348998380292654	0.2004738343315032	0	0.4888694601598788	-0.06561010220904086	-0.3724814843495947	-0.04688023311362223	0.01981200674197674	0.1284158135647674	0	-0.1848134232571565	0.1038145634905249	0.1801728783119692	0.001345895468310935	-0.1924405227348802	-0.1935650270273	0.7997054592745002	-0.1734913083385196	-0.1093991156638126	-0.08424404015478823	0.4917396446900056
1.17	0.00305253517966886	-0.06442714630398125	0.0001965338528350672	0.02283861000000001	0.96636199	1.41738757	-0.2413796418781979	0.09645744742399592	-0.2607895118450787	-0.2080199055024396	0.4293664994012846	0.204251160547138	0	0.4899356701062161	-0.06207659325392185	-0.3636707577255728	-0.07376930911699921	0.02169177765905464	0.1273797157840147	0	-0.1880974473440797	0.09590178520470921	0.178377935632526	0.001380667837531343	-0.1904758457384829	-0.1953097668816059	0.7902180904906286	-0.1685794592914927	-0.1113875341994918	-0.08290330475241083	0.4921173327184067
1.18	0.005277368790455029	-0.05861115044495074	0.0003091415929387619	0.02220271000000001	0.96523743	1.43065594	-0.2498004846366045	0.08677632073868136	-0.261168333290296	-0.2243147018719842	0.4229277200856849	0.20733649670108	0	0.49113776161427	-0.05789657071063286	-0.3549193766594419	-0.104702452972653	0.02515154976940246	0.1256022572894192	0	-0.189766045638971	0.08718444469124337	0.1768858590655167	0.0005201679818876536	-0.188365700261321	-0.1972932330455325	0.7791141263695938	-0.1641939050301596	-0.1135479226443639	-0.08228301107106062	0.4926530859669158
1.19	0.005697204501221955	-0.05294678917236107	0.0003015141615424956	0.02156611	0.96417138	1.44435856	-0.2557049568835133	0.07691082480156898	-0.2617945909362333	-0.2427072187197458	0.4132520749559521	0.2125290814346915	0	0.4936100346368869	-0.05398302573567006	-0.3451350034514293	-0.138040000454032	0.03070766354785822	0.122833435199063	0	-0.1878331060587579	0.07838921065685978	0.1755361868792374	-0.00155822768725251	-0.1858039965678319	-0.1997190082279483	0.7652339125605049	-0.1610192026079948	-0.1157665789063138	-0.08251895829291335	0.4940364641262425
1.2	0.001649626593329429	-0.04668980190420105	7.699596978761666e-05	0.02061981000000002	0.96283564	1.45862303	-0.2555392663199033	0.0649374687214172	-0.2657935505794594	-0.2644315261744649	0.4010443260441794	0.2278986414177079	0	0.49764400331598	-0.04811478477870341	-0.3298326740747985	-0.1689352839294199	0.04027185736207935	0.1164773038557963	0	-0.1788703705071324	0.06964996224702409	0.1719362800143189	-0.0002107825410987292	-0.1806149106957719	-0.2063011921724723	0.7395338475205697	-0.1616090598415853	-0.1175482719187405	-0.08456782019858299	0.4964314049258292
1.21	0.002509384721053558	-0.0424728531130039	-0.0008818066102641921	0.02046949000000001	0.96240911	1.47275344	-0.2610298637543647	0.05687110425395284	-0.2630892365563886	-0.2836369292486783	0.3845757449720857	0.2291951801965028	0	0.4982224569173039	-0.0463387337176167	-0.3256161186486726	-0.2017844802575762	0.03325783829444035	0.1110653183197727	0	-0.177382489537112	0.06112094258531549	0.172873946286714	-0.006227658878757863	-0.1779709892536103	-0.2069535171834527	0.7313394861908176	-0.1573530547383766	-0.1218508104668671	-0.0862710341321279	0.4994737681065273
