inDegrees=yes
nColumns=22
nRows=100
DataType=double
version=3
OpenSimVersion=4.5
endheader
time	pelvis_tilt	pelvis_list	pelvis_rotation	pelvis_tx	pelvis_ty	pelvis_tz	hip_flexion_r	hip_adduction_r	hip_rotation_r	knee_angle_r	ankle_angle_r	mtp_angle_r	hip_flexion_l	hip_adduction_l	hip_rotation_l	knee_angle_l	ankle_angle_l	mtp_angle_l	lumbar_extension	lumbar_bending	lumbar_rotation
0	-2.903085065762725	2.338031413944154	3.34171022760866	0	0.9426188333372126	-0.001083860587169766	30.83990253088078	-5.284042107421695	-10.480460144807	-9.60392873258421	-7.153358684264376	0	-10.74591497048193	3.868880834476535	-7.590974279538854	-12.07663123583909	16.3679134586402	0	-7.884434012359516	-4.026190813831658	-5.906622826452928
0.01187842222668354	-2.867470434643954	1.900844603304281	3.475873473463415	0.01519228307266975	0.9419132965998507	-0.0002811635363561576	30.64496760217515	-4.69104188840754	-9.38394905194653	-11.10038141893201	-6.564640759941648	0	-11.05290380475614	3.142565527876962	-7.466121730979803	-13.20962565040131	15.71793072792913	0	-7.753879404303673	-3.284051110234898	-5.885988043580372
0.02375684445336709	-2.883640690111748	1.517725729336909	3.72296144232504	0.03107474989536474	0.9416361534620949	0.0005695815392352379	30.11857151611985	-4.142949469507741	-8.4947382490531	-12.15010817299908	-5.46526265032237	0	-11.23504622123004	2.427959551078717	-7.263951822670911	-14.47685149844543	14.76164922779202	0	-7.473425581730796	-2.640284421745273	-5.926237696020793
0.03563526668005063	-2.966570634859417	1.074936568831747	4.039725468733683	0.0471832811298891	0.9419035018078311	0.001484068158269851	29.45064469705983	-3.543490377187429	-7.839440856163186	-12.73115848415824	-4.955685520777025	0	-11.14401018443764	1.608443316805599	-7.036722389329719	-16.04514541874601	13.53246471837407	0	-7.09095355070124	-1.95048462723606	-5.989848093746312
0.04751368890673417	-3.114782297501289	0.4851922392242332	4.370514279262563	0.06325985161012126	0.9427508404386507	0.002492787667840517	28.72878951585247	-2.800143482056621	-7.360271124811926	-12.90309880302229	-5.225036492192588	0	-10.68499529427774	0.6002705114402459	-6.812869072905919	-18.04851134430467	12.05586357396944	0	-6.638803122839492	-1.100185998944495	-6.030314693386295
0.05939211113341772	-3.305500410185827	-0.1773543239375163	4.662068592369042	0.07917971897714571	0.9441345408749742	0.003638217863999398	28.05077479199471	-1.984643297812186	-6.979837047688747	-12.99800090339801	-5.631304004475649	0	-9.831709177044113	-0.5092959548777023	-6.580214269824152	-20.56622534761589	10.28535010131057	0	-6.160784006429641	-0.169170105545822	-6.025770375614067
0.07127053336010125	-3.504786404830242	-0.7550028606755259	4.871248257989241	0.09486495936036753	0.9459750341044916	0.004957918540635686	27.50349109788606	-1.260830937633744	-6.681504795817808	-13.36075801419455	-5.543287280181752	0	-8.590652054376084	-1.546484976821471	-6.297020977406478	-23.66075198890749	8.165831371731162	0	-5.710904900546687	0.6618556463001773	-5.966822747975982
0.0831489555867848	-3.688866245852695	-1.151118613589596	4.965759981374116	0.1103003623013237	0.948171957452481	0.006495691343459615	27.0341636209988	-0.7140676933512351	-6.475129187015249	-13.9235001053839	-5.085817879455219	0	-6.961858644367178	-2.399944862265978	-5.862328023409023	-27.4028219076724	5.732271554368964	0	-5.3147028029193	1.277107240081507	-5.835796578524132
0.09502737781346834	-3.847408523141475	-1.401323579835729	4.944744632438041	0.1254348316145533	0.9505451001769859	0.008245831285676646	26.57330095736506	-0.2870922169234534	-6.311532746755073	-14.55574778288611	-4.350222110719598	0	-4.931526784783141	-3.082268898402178	-5.181800571078643	-31.91051815271609	3.73485852491877	0	-4.97923069483414	1.716363133524867	-5.622652329505176
0.1069058000401519	-3.977935469202853	-1.564939928171986	4.831526258742197	0.1402904030489839	0.9529033335951784	0.01012269903535249	26.06013429834254	0.08312296802429561	-6.161112167090811	-15.15034583200656	-3.409642612718111	0	-2.586708926840592	-3.609671479021159	-4.264038808265407	-37.04487801903939	2.493569420546955	0	-4.690839883559983	2.049949299262738	-5.333135785602017
0.1187842222668354	-4.082352193378803	-1.696128222565036	4.64945394159515	0.1549387413568791	0.9550833314606321	0.01205966337584271	25.46545689620386	0.4418043644061293	-6.0406510929218	-15.6350246436816	-2.405593831123602	0	-0.1046723214370116	-4.01468828767014	-3.207989687435745	-42.4466805736612	2.002190799636629	0	-4.426649289536824	2.336917519183844	-4.975547187907585
0.130662644493519	-4.16460993763202	-1.93261808604751	4.437732090063755	0.1694635756785383	0.9570489435861639	0.01402191745230884	24.76196993768834	0.9133639954373395	-6.015397688993111	-15.93304996027402	-1.43838472396378	0	2.342743936199946	-4.506284667919107	-2.236941297855963	-47.64777207011786	1.689505221086475	0	-4.160855651066296	2.73324764618266	-4.568871846729886
0.1425410667202025	-4.223435565510403	-2.253209767508	4.231767087058497	0.1839361631914866	0.9589349318969677	0.01603935215576337	23.89113250563351	1.472258678256449	-6.114272874097873	-15.94383427925445	-0.5879518635456161	0	4.63860184911305	-5.142355442993905	-1.486198909108942	-52.21358815035524	0.8512992166749831	0	-3.894258915890602	3.195492135202418	-4.139964345204275
0.1544194889468861	-4.259092716038508	-2.622423487867864	4.053077908182271	0.1983169861582557	0.9608578990943671	0.01813065887279722	22.85260306814641	2.084514576316452	-6.306664234427474	-15.66821037172289	0.1391306148797055	0	6.757785604933732	-5.914882979444413	-0.9529077064551377	-55.98353440236627	-0.2891699546225244	0	-3.64426968827101	3.669865253237503	-3.700223990273443
0.1662979111735696	-4.272127600191784	-2.9981118013793	3.912859394092831	0.212515737452614	0.962869831774064	0.02030812646173827	21.66550935009585	2.71098576314051	-6.553576319943507	-15.12357236432157	0.6969924867412366	0	8.716108385940762	-6.788270262537218	-0.5964694887359645	-58.94324002753274	-1.101998786406303	0	-3.434281135687283	4.099692107639307	-3.255102243177539
0.1781763334002531	-4.263798607531627	-3.324547242693631	3.809771327142312	0.2263838538546709	0.9649620616579718	0.02256826985572837	20.38720213234508	3.296095531491706	-6.804505494119126	-14.40353249941389	1.115324874804029	0	10.58596272618671	-7.683704172585671	-0.3734924217408137	-61.22493722779355	-1.206029141703479	0	-3.294255069434782	4.419913094239802	-2.810154330181847
0.1900547556269367	-4.233134510990848	-3.564447698108879	3.727229291140971	0.239830263595896	0.9671075930966995	0.02485797835023279	19.05338267339249	3.800913995806306	-7.022381936138332	-13.57065502366483	1.417172724064133	0	12.4521488328626	-8.510420466413125	-0.2383304713801053	-63.01279192432549	-0.9119701290282302	0	-3.241906044662733	4.602224037013826	-2.356302705883654
0.2019331778536202	-4.177009921557927	-3.698047638566319	3.646300725052615	0.25282483164485	0.9692647850243155	0.02712274875094611	17.68586607239067	4.202718085256222	-7.180703595352077	-12.67933247373709	1.657609331754432	0	14.36186950374586	-9.205456259413214	-0.1704593055198797	-64.46567026111732	-0.4427973582265089	0	-3.285851897326657	4.640482756587089	-1.883919873293421
0.2138116000803038	-4.092405390265059	-3.718106816820745	3.550484251235815	0.2653946626488035	0.9713887649701599	0.02932156958069056	16.29696155934979	4.490129622294303	-7.266296742414285	-11.77284274685	1.892273647519023	0	16.31898557236453	-9.734374301192302	-0.1668164489539203	-65.6811678307666	0.1568056777138458	0	-3.424677408682654	4.539758690825813	-1.388093748543152
0.2256900223069873	-3.977767585217706	-3.634508301020133	3.427733871555344	0.2776047660273582	0.9734417787955227	0.0314303738935033	14.89408752229089	4.668921962893681	-7.278020209476115	-10.8780215813942	2.144870120277751	0	18.30191917524256	-10.09696596785843	-0.235129432794097	-66.6951811200158	0.81960007941999	0	-3.647994473896304	4.320594129349866	-0.8696422326206553
0.2375684445336709	-3.833114003470161	-3.468607670983624	3.26998797783041	0.2895264867854647	0.9753918074302768	0.03343433869016258	13.49271162636015	4.755361724478136	-7.220136144066685	-10.03054080620717	2.434393060334523	0	20.27136350387128	-10.31321377437338	-0.3841889737414338	-67.49240274877545	1.508131972816869	0	-3.942666821992456	4.014313177384129	-0.3354819828168583
0.2494468667603544	-3.660477884674959	-3.246828706211658	3.073268339889085	0.3012342858469038	0.9772134303429575	0.03532100261756976	12.10675539519725	4.770821511286154	-7.10126370051335	-9.255426572988473	2.763994298007899	0	22.17548586514408	-10.41210722317814	-0.6196928631669266	-68.01410456774298	2.228030972090734	0	-4.293347639540996	3.656567420862881	0.2046209669686379
0.2613252889870379	-3.463916326874845	-2.992519520342094	2.83907424441288	0.3128002202306622	0.9788812125495322	0.0370778835681714	10.74094450070204	4.734460421765196	-6.933884584002818	-8.558152342729121	3.138361533503811	0	23.96961100062078	-10.42186038321782	-0.9422372167098323	-68.20266482971613	2.97673923503645	0	-4.683029844886302	3.277275396411184	0.7402443908227866
0.2732037112137215	-3.248033865726082	-2.725296145701477	2.573183842657403	0.3242950282013358	0.9803701780335805	0.03868947242090071	9.386618190833635	4.663552818635662	-6.730999300028772	-7.91933841413733	3.557125155250873	0	25.61886583761631	-10.3658552108911	-1.345464928559278	-68.01693582927622	3.750186323805521	0	-5.094641113974792	2.900970809531881	1.262277912213056
0.285082133440405	-3.018363980428013	-2.457132090748851	2.283173126510036	0.3357769101729374	0.9816612972403872	0.04013842034229442	8.035441082134607	4.568299078698801	-6.504469503531437	-7.316228054684304	4.008452419181783	0	27.08964972031882	-10.25364068025078	-1.816358722269331	-67.41192392147235	4.554292693143264	0	-5.513415104904547	2.542893108531812	1.76241039355126
0.2969605556670886	-2.78166429394169	-2.197696896045894	1.976344590632728	0.3472887181002745	0.9827508160985522	0.04140786403760517	6.687534516625129	4.456772649335774	-6.265962111775209	-6.733434457255822	4.460849984523596	0	28.33932217781869	-10.08729696171186	-2.33942591502157	-66.30871944520392	5.357729555364668	0	-5.927044962182976	2.216017964031479	2.232893285089122
0.3088389778937721	-2.543838832452134	-1.954557040293058	1.659441105768753	0.3588475882729542	0.9836278999153817	0.04248143365474994	5.353200024312344	4.334623531614035	-6.026019491390602	-6.177789613319439	4.906054612747488	0	29.35013913761767	-9.863839806488203	-2.891850615726702	-64.69046593040346	6.099160683605482	0	-6.328057157456898	1.930425884304734	2.669512403507944
0.3207174001204557	-2.310007730586576	-1.733582226233582	1.338737402568949	0.3704725737875864	0.9842825552631748	0.04334802136352079	4.041472504114283	4.206846642371174	-5.79471184031794	-5.657325904042083	5.343014864361672	0	30.11250226666051	-9.581357213954419	-3.45083915915403	-62.56105087522042	6.710375046310241	0	-6.709099092475601	1.693245612082076	3.070209184876884
0.3325958223471392	-2.084376824985135	-1.537956186194352	1.020193871942358	0.3821810170633343	0.9847082632955031	0.04401307005365444	2.759604788627671	4.077481794265259	-5.579292237294187	-5.178750558098852	5.768933022104295	0	30.62250765977585	-9.244595849393695	-4.000868870589197	-59.93229772008344	7.129167825600444	0	-7.064339848059528	1.505487226749812	3.432249646396317
0.3444742445738228	-1.871918451703122	-1.373569487914843	0.7106840079214544	0.3939749413211322	0.9848956600875823	0.04449045951214588	1.518028180971052	3.954568671094152	-5.38619305787873	-4.751808760182136	6.182293738839578	0	30.89347107648423	-8.86616167840919	-4.526008622663526	-56.83618468062943	7.299130063236221	0	-7.38983472586512	1.369460642730712	3.752776020273028
0.3563526668005063	-1.676343513855188	-1.24353956956821	0.4158032199116021	0.4058416660162585	0.9848383986011605	0.04479464438783964	0.3277370326837878	3.843729313494248	-5.219931705016676	-4.389184538404929	6.586564070388871	0	30.9530964742826	-8.455255892260249	-5.009305481337411	-53.32656663584596	7.146182987526271	0	-7.686010449183888	1.283877438245593	4.032366478232657
0.3682310890271899	-1.500614010439569	-1.153203286740525	0.1406194469111564	0.4177662049040946	0.9845319104857722	0.04493773929203118	-0.8043999725297281	3.753592312011239	-5.085847403724078	-4.098889433587027	6.993246736040376	0	30.83992877666171	-8.024866324508464	-5.438314501713611	-49.47745990019785	6.592624681337353	0	-7.954668147616941	1.250488554112461	4.274384374969139
0.3801095112538734	-1.346177214633932	-1.112766774578074	-0.1109760030124579	0.4297306833473074	0.9839755216330623	0.04493485182257156	-1.875827316775724	3.698662415695715	-4.988270732391205	-3.882118348259126	7.405761822960221	0	30.59123763000947	-7.597809082700936	-5.81462303254601	-45.36799713364635	5.646022418368444	0	-8.200929868821927	1.276752912449034	4.483348617946703
0.3919879334805569	-1.215401419817194	-1.122320938479589	-0.3404881293328969	0.4417030932678162	0.9831640645984038	0.04480791298889377	-2.857767865600505	3.680006240724384	-4.925706493833347	-3.79024159425482	7.863677395315625	0	30.22758926349012	-7.187420086867566	-6.158109854825241	-41.05776553485414	4.662422024977657	0	-8.432666135051953	1.358023334180285	4.661208275537113
0.4038663557072404	-1.108570090564176	-1.181300318890887	-0.5484787563994226	0.4536992396994295	0.9820956455258057	0.04457584269539491	-3.761996885472661	3.701024043619904	-4.900426354723226	-3.803827722524689	8.365881350270582	0	29.76045037861328	-6.804250245672755	-6.504078716691247	-36.58940561486436	4.016499215514995	0	-8.65165760559716	1.489113330488679	4.812635695646972
0.4157447779339239	-1.024250327205722	-1.287097880551131	-0.7393057526078434	0.4657325781468387	0.9807884472306203	0.04426149507654328	-4.586851759233137	3.760328948227473	-4.907143653896587	-3.933389710769569	8.92003394141833	0	29.19383927760096	-6.460059240508205	-6.910512378567939	-31.98265537319233	3.62068131602378	0	-8.860524343219353	1.664053195663392	4.940332085770006
0.4276232001606076	-0.9609168122668297	-1.431580190308744	-0.9181320894245529	0.4778308071121054	0.9792658998139685	0.04388117014819007	-5.33919384029601	3.850695362424527	-4.947776612890726	-4.168055549731466	9.503426303843632	0	28.52728022913116	-6.153359740649711	-7.433700339974711	-27.25025705943068	3.25654885285779	0	-9.058524627824136	1.871876765865588	5.04785951703671
0.4395016223872911	-0.9163542729958652	-1.600490646377415	-1.090346359932597	0.4900284154627985	0.9775511045138147	0.04343918075272257	-6.025042706080348	3.956915591878694	-5.023351773151265	-4.504871377986105	10.1103747686744	0	27.76253469744309	-5.867175038186074	-8.115637612836281	-22.4192349567844	2.739970225873379	0	-9.243411711585949	2.096495618050568	5.139498335532826
0.4513800446139746	-0.88837679046122	-1.775620079420908	-1.260448011072566	0.5023591879758156	0.9756678554128914	0.04293799042446843	-6.657476470840431	4.060189638769408	-5.133794428888948	-4.922989440454025	10.71824969848215	0	26.91179078984337	-5.574674182331192	-8.971320863989378	-17.55620472153492	1.978600412774551	0	-9.412736244585227	2.316681131371499	5.219564899393765
0.4632584668406581	-0.8749025820322366	-1.95313934328582	-1.430165436486637	0.5148456462816378	0.9736383085979743	0.04238198595846707	-7.243315547352518	4.156468634222224	-5.271769208219357	-5.416978686708955	11.31711009887266	0	26.00616969736379	-5.264797283591178	-9.985979111563024	-12.78747860164669	1.095719834269542	0	-9.565515599858889	2.527131633499053	5.290188328415658
0.4751368890673417	-0.8751522429799528	-2.121915266186551	-1.597716675834942	0.5274591297278377	0.9714807503028576	0.04178364666203518	-7.781038853889688	4.234514372383513	-5.433480665491824	-5.983964414761549	11.8864600453257	0	25.12373671697926	-4.925390261874315	-11.10101668144978	-8.313748919836971	0.3275007898033831	0	-9.707790966049165	2.709783763359475	5.354967783208914
0.4870153112940253	-0.8857526829230534	-2.284746426640835	-1.759103222759906	0.5401776923410322	0.9692349930568259	0.04115166817124627	-8.270441404985799	4.297062830743173	-5.608657774433688	-6.628746901807803	12.41271899386502	0	24.34451586883584	-4.570284285239683	-12.23488754692534	-4.330883510467921	-0.2646586377255654	0	-9.844966176967736	2.864461275445113	5.417090206117237
0.4988937335207088	-0.9030449606418482	-2.427758243613417	-1.911669185118553	0.5529593026869976	0.9669506213815836	0.04050255739291726	-8.708360393062554	4.328739515550275	-5.785124661362568	-7.357808648407911	12.88871222136502	0	23.77102868766154	-4.215930659139091	-13.31053028045496	-1.095020889366255	-0.674486506975825	0	-9.984120867470743	2.970693382683154	5.478407310062694
0.5107721557473923	-0.92431746482877	-2.530574292297256	-2.053163340211827	0.5657652156517305	0.9646844157073102	0.03987482522547001	-9.106218458527506	4.310267943030017	-5.950300478414283	-8.146576846647438	13.29016753080167	0	23.52806525887403	-3.898184937758482	-14.24769924167431	1.055133264569239	-0.8465159529201535	0	-10.12887893589449	2.997455362417127	5.536706035285213
0.5226505779740759	-0.9487062217487127	-2.583959720536312	-2.185508283660977	0.5786070263768224	0.9624999619871595	0.03929803091413642	-9.472086817950808	4.232142010807859	-6.085270785168635	-8.981655360370359	13.60474719417332	0	23.66829893533328	-3.658670778274058	-14.97611061720252	1.944543003303284	-0.8383087119962078	0	-10.27335125288553	2.931253072130898	5.588330440831054
0.5345290002007594	-0.978296299944446	-2.582321229684307	-2.315410965036617	0.5915597358283075	0.960442138208408	0.03878611678294731	-9.813098349210833	4.087563246744629	-6.175062128777051	-9.849492431421591	13.81064646686945	0	24.16216312057348	-3.51742092041987	-15.44201839205794	1.597631171945674	-0.6828586605912801	0	-10.40054655241016	2.767274031082092	5.62930294584096
0.546407422427443	-1.017557890790904	-2.522303331882065	-2.454890299675407	0.6047451342786602	0.9585373992496146	0.03834006724139037	-10.12856748919289	3.87056061837003	-6.214864060394642	-10.75143471654594	13.89423645730565	0	24.90475538293225	-3.462616496934091	-15.61704386668482	0.2405757673550149	-0.5100273766628679	0	-10.48569016014797	2.506258518790716	5.657739380172047
0.5582858446541266	-1.07130211200344	-2.399389007762825	-2.62011040435465	0.6183183940097742	0.9568091594158031	0.03796745307601115	-10.41085083550667	3.572920593643703	-6.207220997006154	-11.70303915143415	13.84265879916108	0	25.73970386661657	-3.459210211408506	-15.47268166280562	-1.761805901074564	-0.7113472136322019	0	-10.4975119700681	2.146697013679375	5.671665781475908
0.57016426688081	-1.143057827664609	-2.218081651620696	-2.828923009825644	0.6324677247098579	0.9552790793950992	0.03767742379989043	-10.65358182128054	3.194710199326439	-6.15095603734883	-12.72344790239674	13.63983925032481	0	26.49323707260745	-3.47233246179319	-14.9583539762669	-4.015596931904391	-1.604399695059824	0	-10.39828123517303	1.698278647780366	5.672536285770162
0.5820426891074936	-1.231935898791834	-2.005266592111346	-3.096054575193851	0.6474124157546001	0.9539648123900105	0.03740509818137592	-10.86527261520022	2.755087961426762	-6.030397106047925	-13.81433330823299	13.24927592211984	0	26.97541013407224	-3.461634100147467	-14.15948616496705	-6.094005899413006	-3.1391862874312	0	-10.15015359077054	1.212381827087293	5.675379033615014
0.5939211113341771	-1.332206928502388	-1.778645814593329	-3.42479393263262	0.6633433670845688	0.9528487547961162	0.03702995554079786	-11.06576490474642	2.263639906627979	-5.837355544908982	-14.96228237264312	12.64021353627114	0	27.03682934271851	-3.364796813406801	-13.31793882976276	-7.669321752941078	-4.342783637296972	0	-9.72754549547232	0.7376024086916719	5.696313425289034
0.6057995335608607	-1.434415715355347	-1.573907674844697	-3.801568595196494	0.6801857557364761	0.9519137370809516	0.0365079351746261	-11.24922552741547	1.758820360302159	-5.600492671518983	-16.18072252432464	11.79173117247745	0	26.75832268142029	-3.20344669149397	-12.57303381413254	-9.051148283816334	-3.265804698641368	0	-9.160074962260502	0.3213616405029618	5.744728396235098
0.6176779557875443	-1.55214515374477	-1.253548075170451	-4.178269990747623	0.6973838131882403	0.9513168787577851	0.03581930063358201	-11.28650219308392	1.105698358263971	-5.388963557275607	-17.59585406346516	10.73251741561094	0	26.31757726455957	-2.857753947611689	-12.04440037030439	-10.08459434385663	-2.707213349915193	0	-8.519558549573663	-0.2089736586963202	5.777436837065878
0.6295563780142277	-1.687739204078132	-0.7282319706868363	-4.516755778483124	0.7145592831695422	0.9511125903099655	0.03497056047065654	-11.09564858527675	0.2209089445354299	-5.229007390317761	-19.30088203387298	9.499412957816142	0	25.82705996601221	-2.263509441617119	-11.67062146982311	-10.71010810252885	-3.151153453587913	0	-7.864870034348176	-0.975085491117668	5.767538862870969
0.6414348002409114	-1.832735389624528	-0.02600936320139021	-4.783601386349178	0.73153395192913	0.9512388344690413	0.03396487802439204	-10.64792652498544	-0.8569594335382423	-5.101481243995488	-21.35327216550791	8.099811644564983	0	25.45532068574124	-1.477909119344553	-11.34075250210775	-11.4051499047723	-3.84978681771817	0	-7.23415022480317	-1.958391453675534	5.707331996177724
0.6533132224675948	-1.971056519111724	0.7363602328337789	-4.961984017683979	0.7482494056595126	0.9516489173357177	0.03281757993419789	-9.928699301373886	-2.000918150370401	-4.952308194290294	-23.82189842206256	6.509335115588862	0	25.22759452329576	-0.6275046330116676	-10.99385224408858	-12.34284875337229	-4.358475113573232	0	-6.658464068356844	-3.030648637137055	5.604173709780043
0.6651916446942784	-2.092775214494925	1.419404623761753	-5.037438839122001	0.7646395287535642	0.9522950694966278	0.03156021006193426	-8.902470331401361	-3.057637537090351	-4.719663619541329	-26.80463700986494	4.70985489658116	0	25.15015635373663	0.1285986815472602	-10.68813523282667	-13.66811520962089	-4.195883762668887	0	-6.162283426966491	-4.035581870455082	5.459696708319424
0.6770700669209618	-2.196492863531285	2.007061211700733	-4.998746669812547	0.7806362858772113	0.9531338059260164	0.03022564464390283	-7.497453046898879	-3.999235741577482	-4.362351623062818	-30.47813803467301	3.048582739742844	0	25.13412706821978	0.7784626486303712	-10.54088777023474	-15.20491166352527	-3.418840897096227	0	-5.747320231147291	-4.959019864818401	5.256827665826771
0.6889484891476455	-2.284341583090012	2.503554085305423	-4.86423128912131	0.7962809653989076	0.9541035855894994	0.02885264468981476	-5.723372298591283	-4.818647208397611	-3.963187537639961	-34.89704776773318	2.095749054682111	0	24.99602216479873	1.362807076775723	-10.53522886692033	-16.56312629283247	-2.394619830858981	0	-5.390862171519503	-5.797718995807298	5.009082035679317
0.7008269113743291	-2.359351708673557	2.966014474951708	-4.663028204973688	0.8116435221409796	0.9551216461484437	0.02746989271193959	-3.705232211208157	-5.567764521692179	-3.549068069665983	-39.78775331290389	1.788693423368705	0	24.65929376611451	1.958387221452278	-10.57284798398383	-17.58019885124269	-1.306559919462745	0	-5.063123350827835	-6.605149097498427	4.731376166946678
0.7127053336010125	-2.42407168345832	3.445255468418626	-4.419176608003756	0.8267493509157897	0.9561473610459622	0.02608578900114912	-1.590842768586186	-6.287104971414491	-3.084098795104283	-44.80173327379624	1.825929642140028	0	24.12988090901037	2.608816245000577	-10.65313920860456	-18.24079602954683	-0.2643004804142252	0	-4.749997378313329	-7.426445643354802	4.427963295743253
0.7245837558276961	-2.477368858256468	3.949267291874206	-4.154215437282605	0.8416141169345132	0.9572562019892464	0.02467475435050722	0.48668128588567	-6.98793168790851	-2.577137760360717	-49.50391372639485	1.47270533233863	0	23.41999058499283	3.314113062408031	-10.77850900630411	-18.5658733400339	0.6988270312770712	0	-4.454830555304473	-8.253807831860945	4.099667106257685
0.7364621780543797	-2.521404124812118	4.452221876326814	-3.891685990660476	0.8562122987503605	0.9585603493496759	0.02318025285725896	2.477148291278364	-7.680931701078861	-2.0926796530999	-53.61833112160689	0.4330238997720152	0	22.53539853824427	4.046992344840816	-10.92901803903434	-18.54495572469065	1.482156626649561	0	-4.187183815686508	-9.035476953113193	3.751788574106192
0.7483406002810632	-2.55892631687342	4.910410946051133	-3.648693725925609	0.8704634431877658	0.960098063300749	0.02152440625252189	4.370552157629155	-8.374472166839181	-1.716862921088388	-57.06707797509737	-0.7597361660411966	0	21.51977201498861	4.759452056956703	-11.08321647484115	-18.24894008856352	2.095334029916786	0	-3.964605409162391	-9.69761664922024	3.395988930208906
0.7602190225077468	-2.59255356605422	5.301544557594393	-3.431244194359053	0.8843345570169596	0.9618603575689937	0.01965534887566464	6.169876587138664	-9.096430212625204	-1.521426844694084	-59.84805128234622	-1.306970500779787	0	20.39310227510722	5.429198976361095	-11.22885996890046	-17.70478527024368	2.533401180562035	0	-3.791487304222944	-10.20125727097422	3.030603097308707
0.7720974447344302	-2.624614890914565	5.577513394654391	-3.234043344207537	0.8977112646656169	0.9638164405823659	0.01756453613172351	7.958826338909337	-9.803141658528371	-1.505467427474805	-62.06218496201258	-1.351757045781482	0	19.21124013259066	6.002242284177989	-11.32999316594492	-17.0067062195203	2.832541338837131	0	-3.687182365173123	-10.49081622445147	2.652495173245168
0.7839758669611138	-2.654787717552431	5.723646079289688	-3.042341382816345	0.9105346686101504	0.9659058579680433	0.01529200991204113	9.810573218833715	-10.46135011838378	-1.650750888276533	-63.86501829903013	-1.075548838323158	0	18.0078384961628	6.457518154745894	-11.36653178740853	-16.21654406061769	3.030193381904719	0	-3.661978995174395	-10.56383287871698	2.252317906671103
0.7958542891877974	-2.680231413325754	5.731293487558259	-2.840323275194296	0.9228128582982036	0.968061140997912	0.01290094308623241	11.75787623451473	-11.03196084439463	-1.93297172357722	-65.37298800992795	-0.5778793021971003	0	16.79422413299635	6.780121510819957	-11.32695565335976	-15.37324010454101	3.186821961147595	0	-3.717121092319353	-10.42940942779689	1.821743839622373
0.8077327114144809	-2.696699139346642	5.604425640556985	-2.61692379395222	0.9345913335459982	0.9702145550872873	0.01046604416408555	13.80386918680151	-11.4867974261037	-2.323928237315585	-66.65656840189595	0.02762178812950279	0	15.57589809465489	6.965929615520317	-11.21166658741666	-14.51041709420789	3.365957549549433	0	-3.848369265035013	-10.11208194757207	1.357322145481303
0.8196111336411644	-2.699206584237136	5.36391549340797	-2.36726869204727	0.9459543282171708	0.9723047924905676	0.008064147783094212	15.92198510117539	-11.81840713164327	-2.795085832053603	-67.73890202242517	0.7216165979839343	0	14.34918786461331	7.028529250209337	-11.03198518239206	-13.64061946971539	3.593185416885403	0	-4.044591320455917	-9.654559226670697	0.8609148495209856
0.8314895558678479	-2.682071428904512	5.032129126932851	-2.093670943835013	0.9570038117800902	0.9742825084789245	0.005760237938478412	18.06349796000523	-12.02417987398592	-3.318232684176871	-68.59335682398431	1.502336810659287	0	13.10818896867991	6.983261702285916	-10.80923716045272	-12.77512288925841	3.900276868731943	0	-4.292663550992381	-9.096126065548368	0.3419502217625426
0.8433679780945316	-2.639890826354415	4.636222754610046	-1.803740328866871	0.9678252869658585	0.9761106820939246	0.003605990638036851	20.17121821660137	-12.10949159606122	-3.864238143600727	-69.16238480604694	2.380421940328776	0	11.85008828173004	6.851189092391343	-10.57060953921665	-11.92023539893008	4.283169593649106	0	-4.583878745708033	-8.47732374471742	-0.186175905537733
0.8552464003212151	-2.569238002785902	4.205899540918629	-1.508740440017531	0.9784792584897757	0.9777597046867497	0.001639849310364682	22.19807894558199	-12.08572896849408	-4.402313215561987	-69.39267563242841	3.329430569166279	0	10.57664934634733	6.657595367992895	-10.34197639617408	-11.08263379013366	4.726866435983571	0	-4.912854791174068	-7.83777885190225	-0.7082455359263861
0.8671248225478986	-2.469406760333653	3.773210688960219	-1.220122177630099	0.9890181604397196	0.9792095994075932	-0.0001110133949233654	24.10209228851937	-11.96988302804116	-4.903163032743797	-69.22865073566881	4.316454566675693	0	9.28753795038244	6.433294605741167	-10.14415027984023	-10.25852540569249	5.202701159909679	0	-5.273712377860164	-7.217675870996483	-1.211337400034886
0.8790032447745821	-2.34394369160428	3.362552213619451	-0.9467364906910164	0.9994993684758172	0.9804563673129385	-0.001631336374815763	25.82816514073367	-11.77207653479215	-5.34548329835226	-68.57176427959629	5.304874485606793	0	7.984883449057206	6.203497224841954	-9.989828074904725	-9.442863615170085	5.676982363357867	0	-5.656221512282655	-6.646824539618786	-1.684841281957451
0.8908816670012656	-2.200429453512982	3.004957719602435	-0.6959174403378738	1.009956913963691	0.9814845658034737	-0.002914267575354768	27.34993902555747	-11.51761978097782	-5.70787437810316	-67.38182166328228	6.2301591453794	0	6.678185653162051	6.001941655145927	-9.885557244568382	-8.633479107308258	6.109036393968088	0	-6.049209747418153	-6.162040890328669	-2.122561929521051
0.9027600892279493	-2.047272764473876	2.718049833804647	-0.4684003434307739	1.020412785863718	0.9822735549160337	-0.003960338884845436	28.65425084908128	-11.22289998107283	-5.978848688273367	-65.66170618792762	7.019606379371475	0	5.385866428842997	5.848051846213765	-9.824896278498391	-7.851217278407218	6.497790399473351	0	-6.442562712263157	-5.784586026219865	-2.523746478171723
0.9146385114546328	-1.892318324719461	2.492493897948786	-0.2581975228359522	1.030909131713189	0.9828159591778597	-0.004758180608755608	29.71144732337523	-10.86617627925086	-6.152015744652574	-63.39827351002274	7.626718631517039	0	4.120964923978154	5.732036873521508	-9.79133408906184	-7.114685706047247	6.854451717624819	0	-6.823042477606071	-5.50754222734838	-2.892529471493225
0.9265169336813163	-1.743721424046762	2.329886479054216	-0.06114789160556391	1.04149087873206	0.9830985873774575	-0.005334252270341526	30.50982041235461	-10.4665837456	-6.235358984670649	-60.60186740513433	7.988118332866143	0	2.888618557983706	5.65838367369341	-9.777418742235605	-6.428368441831461	7.194995496827238	0	-7.175497981225608	-5.329540353296724	-3.232013958104978
0.9383953559079998	-1.607800524021674	2.225739883995551	0.1262160532813964	1.052191629814231	0.9831082767656695	-0.005726095009481449	31.05304816029383	-10.04386581059735	-6.23937334631487	-57.30904967665472	8.031034927426481	0	1.691609554056538	5.625691698776156	-9.765983107046734	-5.793212132103698	7.525566236262446	0	-7.488556118608726	-5.239376625643152	-3.543242543934349
0.9502737781346835	-1.490215695650722	2.182377663817114	0.3062890257782054	1.063021334145269	0.9828156318455773	-0.005963659771809794	31.39049142789262	-9.626479873229023	-6.165260765091609	-53.65093195279309	7.664166030908792	0	0.5381940620721279	5.6378313920462	-9.747618862140701	-5.223379882063034	7.879249378890503	0	-7.754965030085646	-5.234546652844773	-3.830425922798484
0.9621522003613669	-1.395889193219187	2.196506111002174	0.4814625381816444	1.07397558099874	0.982192819304519	-0.006077966491220178	31.58938009379527	-9.236811105552922	-6.016260739544328	-49.79388856969821	6.820169163470863	0	-0.5639319807442416	5.692652028814105	-9.715070669861726	-4.729355314589916	8.281589133194984	0	-7.971517580215474	-5.305032993647468	-4.09912370255143
0.9740306225880505	-1.331224531979384	2.267542440300934	0.6557683113846358	1.085049715502486	0.9812370162368372	-0.006098850601569224	31.67848739964374	-8.897915983070424	-5.813104984354103	-45.80774050582344	5.580889832233759	0	-1.59487977507352	5.788590302197318	-9.660451533355594	-4.338490561011485	8.747390155107672	0	-8.135357599364728	-5.445885417120339	-4.35011001160466
0.9859090448147341	-1.301195955337713	2.397930300003915	0.8345693265012224	1.096248880215849	0.979959712495198	-0.006058718675584067	31.66147440934522	-8.632571372543865	-5.584506711023688	-41.70897052929934	4.183613272900932	0	-2.540784827703818	5.928064612197322	-9.580230212635787	-4.066510013888048	9.271823529376331	0	-8.245075818430751	-5.655599947961367	-4.584524043371396
0.9977874670414175	-1.311335354663991	2.594856773344061	1.021961134940784	1.107582545933947	0.9783673185550404	-0.0059799337976874	31.54151432182713	-8.462465454184315	-5.364201569124308	-37.51140684900246	3.015820663936868	0	-3.393321840657427	6.118967438229228	-9.472110173109874	-3.919592298294459	9.852523969396076	0	-8.298804760077621	-5.939693518356859	-4.804668554855442
1.009665889268101	-1.366752817343648	2.856281882721558	1.22138334638068	1.119045992852781	0.9764730731761715	-0.005881163556330333	31.33163674682561	-8.396322948462723	-5.195405819949492	-33.23330348713393	2.148326315966237	0	-4.146836474581284	6.359681758703839	-9.333202631012208	-3.897465845326288	10.48158547311173	0	-8.297491110024751	-6.293184093503289	-5.012840934932365
1.021544311494785	-1.469479446608657	3.168406601139286	1.436602225924341	1.130632168561409	0.9743058274071956	-0.005779054678089562	31.03597552046492	-8.427327599858769	-5.142240668570857	-28.87862918467324	1.445299974551361	0	-4.799167064297834	6.636015384635594	-9.162357829673821	-3.997573837632973	11.14432578599098	0	-8.245581304975556	-6.697680902330962	-5.208885211622607
1.033422733721468	-1.616965222564342	3.504866846076062	1.671303161829459	1.142338428688328	0.9719070132668235	-0.005683710760951741	30.64348466226924	-8.527677312766549	-5.28077581208015	-24.43815940390195	0.7907080095438831	0	-5.349110505645248	6.91961702235746	-8.966120981514658	-4.224848560735233	11.83287097796871	0	-8.151350706049167	-7.120501811521063	-5.390979813604979
1.045301155948152	-1.802120070405858	3.834763137344095	1.92729520231926	1.154170774666569	0.9693268817701176	-0.00559401050418426	30.13994378730952	-8.655180911428189	-5.677689307766017	-19.91684854924406	0.08176776519046659	0	-5.800748660684555	7.177243818409349	-8.757265391894931	-4.583860889677052	12.54348433533888	0	-8.02538784544981	-7.524542671746627	-5.558075599502636
1.057179578174835	-2.013649110768533	4.119405691319623	2.204124703582616	1.1661454297891	0.9666249496841751	-0.005503891866385171	29.51465363843047	-8.75185250405938	-6.373988458157121	-15.35523655012596	-0.7438086305591118	0	-6.16762794963369	7.368352497760774	-8.547874940135914	-5.067629310449949	13.2638336672708	0	-7.879274749693614	-7.862921282156144	-5.708633454732357
1.069058000401519	-2.236268574227025	4.34946510910912	2.496479283802707	1.178326561514153	0.9638668238337459	-0.005400165139297663	28.75327449182234	-8.783835295623273	-7.371885709675739	-10.81094313369975	-1.588527801577437	0	-6.487863758229479	7.485930242266678	-8.339851229450607	-5.637504893510465	13.96152264571749	0	-7.719098959715501	-8.124129056054331	-5.840815123375429
1.080936422628202	-2.454296506318864	4.51647415013153	2.792044337122528	1.1907375911093	0.9611004283545089	-0.005264366442643947	27.91484893888214	-8.71862589040445	-8.610541692515248	-6.483391226208465	-2.254490861645566	0	-6.797751548108034	7.524307078462704	-8.13414154282432	-6.253067557057596	14.60294369252251	0	-7.555541751672687	-8.294625157007067	-5.955441657305798
1.092814844854886	-2.653184578749242	4.620464340785889	3.069111817263017	1.203323514085049	0.9583658817642655	-0.005073714046166103	27.13721466050695	-8.548892708002489	-9.969033125518321	-2.700206811746706	-2.643530306857192	0	-7.119586854464361	7.487223895126305	-7.941690892164925	-6.892596976847751	15.18077867338718	0	-7.409392301438001	-8.368175468355998	-6.053233783633964
1.104693267081569	-2.820371231975274	4.658391451447762	3.301232470372646	1.215958520162383	0.9557075385892745	-0.004809243944286246	26.62120373305062	-8.296399245927546	-11.29701653351248	0.09077265672526538	-2.806339658862184	0	-7.468543809090829	7.376666951693479	-7.778380376312681	-7.532066839523471	15.68169707972521	0	-7.309345271373212	-8.333064824563728	-6.134772450572672
1.116571689308253	-2.946875665080423	4.606807617989356	3.465132895777032	1.228520570919723	0.953175047583197	-0.00447444086826285	26.53164466342691	-7.987542926969325	-12.42217022941885	1.523709160041689	-2.863861268124565	0	-7.8577812053981	7.175068168614643	-7.662273440000134	-8.14331131452022	16.09856177556674	0	-7.279199985900487	-8.150635937219663	-6.198035352567376
1.128450111534937	-3.028394404272522	4.456492048772066	3.545655330884934	1.240985481244553	0.950807094697028	-0.004075826985714864	26.92532928455461	-7.660069805162335	-13.17447105178871	1.458159261082099	-2.790550507991532	0	-8.305915949854114	6.878981831164616	-7.599938643953557	-8.694685508299695	16.42437621621791	0	-7.325364693817275	-7.80364434975249	-6.236653998311756
1.14032853376162	-3.064448351192233	4.19829129706496	3.546342190713759	1.253462403539701	0.948639897481598	-0.003619304439851275	27.69977477112798	-7.314143800602094	-13.46099629460683	0.1085003484684942	-2.78608796163437	0	-8.824902206679987	6.47911248842544	-7.578397972604368	-9.17574660684688	16.64370262659241	0	-7.431738961747521	-7.283556501355083	-6.236864746991807
1.152206955988304	-3.058691751241211	3.834357868081784	3.486709447787581	1.266105376153612	0.9467103713296777	-0.003103892715192355	28.67531141283878	-6.925007095392536	-13.25544458973255	-2.114905066047268	-3.311268086266835	0	-9.39954220825034	5.971586382751009	-7.584571699590576	-9.62660874523581	16.75123006885605	0	-7.573764882978233	-6.60206136338448	-6.190541295573502
1.164085378214987	-3.020372398207496	3.377340822838911	3.398839956361333	1.279041080613152	0.9450455865052736	-0.002518011291708719	29.6859507129725	-6.465117651960587	-12.59773240452908	-4.824964056402391	-4.496818836920486	0	-9.963567428865034	5.355041091130994	-7.606886482080916	-10.16899231040647	16.75508053770661	0	-7.726902770038508	-5.788143433680987	-6.102329831598459
1.175963800441671	-2.961894194659849	2.852433614858405	3.328732930267936	1.292424962289309	0.943670978503392	-0.001841093570842847	30.51142099439539	-5.906352453052338	-11.6200956415983	-7.516302678576453	-6.174919780258382	0	-10.41559345048131	4.632454164262106	-7.626787313330748	-10.98669305126178	16.67433711598221	0	-7.857345727238372	-4.891134459085867	-5.991765252701188
