inDegrees=yes
nColumns=22
nRows=100
DataType=double
version=3
OpenSimVersion=4.5
endheader
time	pelvis_tilt	pelvis_list	pelvis_rotation	pelvis_tx	pelvis_ty	pelvis_tz	hip_flexion_r	hip_adduction_r	hip_rotation_r	knee_angle_r	ankle_angle_r	mtp_angle_r	hip_flexion_l	hip_adduction_l	hip_rotation_l	knee_angle_l	ankle_angle_l	mtp_angle_l	lumbar_extension	lumbar_bending	lumbar_rotation
0	0.6735566855184649	4.001184651567637	8.861116806954872	0	0.989044546264287	-0.02597202071778773	27.11923258721545	-8.701108568578904	-18.63067886957348	-11.57135620312155	0.6850822102908176	0	-17.24606704933376	3.980511313697567	-11.53483773922525	-11.42316565508858	10.15256866492011	0	-13.69996286274532	-2.307583053242989	-1.800679523644918
0.01192205840686784	0.7419657977808095	3.708333479037417	9.328854420896032	0.01963323133293182	0.9882239262943437	-0.02586254891636658	26.37001803955073	-8.256912428285341	-17.36434056680727	-12.50553482726136	0.6372656436832583	0	-17.74597503775612	3.126331091622843	-11.14757494076112	-12.49750143594833	8.69939009240561	0	-13.25484867298404	-1.745527602445031	-1.79132335234198
0.02384411681373569	0.7969946906430025	3.281647525764436	9.702116414291506	0.03901971113938907	0.9878608253867878	-0.02548524181731525	25.93963764313702	-7.681205697313314	-16.1702613662569	-13.72257592163683	-0.08502435782385229	0	-17.98188484847143	2.114909422307312	-10.77446965128431	-13.89681199896203	7.05199645150804	0	-12.82960164942176	-1.036052788314127	-1.727165861529365
0.03576617522060353	0.8310413952666057	2.69543902945828	9.975556520431629	0.05801822520176692	0.987932048590732	-0.02477112610210724	25.73611190141427	-6.919426532039856	-15.04120873670251	-14.99626704692694	-1.625571212344496	0	-17.82669455990881	0.91057295911023	-10.3963409365644	-15.82858525869936	5.242983450635473	0	-12.43593450971342	-0.1567497910297761	-1.593870064459216
0.04768823362747138	0.8449544195440905	2.066744276109471	10.14901191093791	0.07657830426379597	0.9883254344882014	-0.02374109854197253	25.71938769046239	-6.10649281438084	-13.95684549837824	-16.52027423605558	-2.982541650758893	0	-17.18499309868661	-0.3746032441017837	-9.978932707325718	-18.51141489344891	3.255526336501994	0	-12.1007233953929	0.760230206850139	-1.401641328877284
0.05961029203433922	0.8391870682356263	1.502063216099052	10.23080967942768	0.09458493956376679	0.9889174267533404	-0.02243852711373392	25.88460970792111	-5.400993459879574	-13.1156810788251	-18.47704788550982	-3.296445438997321	0	-15.95910923813603	-1.63618674278668	-9.425967891742912	-22.14734877701533	1.076255180432633	0	-11.85148701986797	1.593595543033637	-1.16199404922855
0.07153235044120705	0.8021543718749804	1.033712924123053	10.22682975352831	0.1120234765343505	0.989626842461223	-0.02090475697497881	26.11592522551991	-4.858895450990387	-12.72462913809811	-20.6036389428262	-2.783429280201267	0	-14.1344044535734	-2.805169305491535	-8.616643849983156	-26.78952129797836	-0.7707639474533388	0	-11.66407902782226	2.295231038068372	-0.8851568700582936
0.08345440884807491	0.7269091710959363	0.5921323350375665	10.17406608434545	0.1289635423227816	0.9904033173880809	-0.01917884577818505	26.26203670949825	-4.36845506225413	-12.76856433091064	-22.5252092086592	-1.841137440569362	0	-11.78939364347858	-3.900043740274339	-7.546228988597838	-32.23225593070724	-2.134147741506657	0	-11.48452235398337	2.92723738346786	-0.5906965558602619
0.09537646725494275	0.6073010202395216	0.1535788445624225	10.10765927776288	0.1454715640851867	0.9912241786071955	-0.01736905990750074	26.23351885111389	-3.864666347429312	-13.03570752062856	-24.02227168153808	-0.781781722431198	0	-9.132688372210055	-4.880454120786721	-6.280699707053966	-37.92264659482852	-3.346171161368141	0	-11.27813604560211	3.515804053240579	-0.2965802388681404
0.1072985256618106	0.4423207047157064	-0.3018960710612907	10.04704548331803	0.1615783423827585	0.9921170367161389	-0.0155722027211424	26.02918505431419	-3.323773933092723	-13.44106925711139	-25.07173451687346	0.2548711550315693	0	-6.311442620689178	-5.747289608613428	-4.977355096691389	-43.47007446455663	-4.879085541826261	0	-11.02690010045241	4.091891821261504	-0.01481558674046696
0.1192205840686784	0.2405935172201871	-0.7484980941552887	9.97121901748941	0.1772842145453838	0.9931438139327116	-0.01387860272473485	25.6915393322458	-2.771645308174123	-13.90952250134377	-25.76070796837882	1.225882567438288	0	-3.432503529332069	-6.426002480283186	-3.675807700878545	-48.63289180071843	-6.780411335985225	0	-10.7414560111677	4.643065086615837	0.2685753019798477
0.1311426424755463	0.01769436315092942	-1.151712775519983	9.855403110808073	0.1926242921504289	0.9943943950707532	-0.01236465178423354	25.24828768011292	-2.235683935203049	-14.34818892619709	-26.17003392436757	2.09565044319884	0	-0.6178544063129106	-6.82535100633127	-2.374847233889714	-53.16270791484291	-8.793385692027863	0	-10.44239750231882	5.147056691109631	0.5726431019019658
0.1430647008824141	-0.2057855981477202	-1.509463749619989	9.697582539155627	0.2076512293233119	0.9959460681395084	-0.01100100431853772	24.70293579391513	-1.711655732264052	-14.72057653333764	-26.34314249620445	2.825817708960822	0	2.061610834113655	-6.994469052041538	-1.196287385497244	-56.97897088395308	-10.32453066819846	0	-10.15049044642807	5.600986273326972	0.9035107743705035
0.154986759289282	-0.4118580742818322	-1.811457037525209	9.499392798150151	0.2223909023758109	0.9978216900219185	-0.009722569169807701	24.04853443837186	-1.206488412388175	-15.02189527058538	-26.3083771468176	3.427604770972201	0	4.586674924555905	-6.99371032682623	-0.2229211482076981	-60.15600876391381	-10.5945225006178	0	-9.889119915750097	5.984969003299069	1.266797136090638
0.1669088176961498	-0.5878431759664011	-2.044174484124129	9.264894407090937	0.2368612959909167	1.000020972249007	-0.008475811083717352	23.26544005072217	-0.7300692498641121	-15.25244240415031	-26.06956513310096	3.958749875139113	0	6.990040594809947	-6.865103223248702	0.5133338253971401	-62.758403503522	-10.17172066940598	0	-9.675731103525896	6.276419722227152	1.666806657049932
0.1788308761030176	-0.7260515660475167	-2.201465399001629	8.998210940520737	0.2510759538002545	1.002500216551093	-0.00722475785667316	22.33795449665104	-0.287198229401699	-15.41547912405843	-25.62410950360117	4.468142085634244	0	9.304552025114539	-6.643976910994846	1.002062519695737	-64.85563472066123	-9.462007357607144	0	-9.521246455062396	6.463742708812918	2.106096569428035
0.1907529345098855	-0.8224940949156911	-2.282629491705683	8.702672490645391	0.2650341749653136	1.005184864389181	-0.005949128884377049	21.26961722684804	0.1170854956520364	-15.51598688565191	-24.98962818216248	4.976326321360635	0	11.5520335254978	-6.357592724330583	1.249068697352735	-66.52315698244743	-8.512380136606728	0	-9.433666633946876	6.54423329919776	2.584562905632945
0.2026749929167534	-0.8768044084147167	-2.298160436548649	8.380832669473827	0.2787279835372933	1.007986033105506	-0.004637882088121713	20.08138171463134	0.4845066256255347	-15.56383931464323	-24.20050901851477	5.481483922269478	0	13.75244811828601	-6.034545089046745	1.273521309039156	-67.82051855047099	-7.433011256793984	0	-9.415793020499096	6.529655179473384	3.101020814396394
0.2145970513236212	-0.8916879483348649	-2.254612194058921	8.034819268860176	0.2921712246775716	1.010813255147063	-0.003281214908797504	18.79444937231666	0.8121965738538776	-15.57146226515855	-23.29119682420381	5.992445497376044	0	15.90896336615496	-5.692234479362904	1.098509173900846	-68.77955260102112	-6.25877740808977	0	-9.463655859445282	6.426076049623484	3.649472720765036
0.226519109730489	-0.8717874956262758	-2.160029674568178	7.666828147236272	0.3053887126923338	1.013584804177301	-0.001877082479180519	17.4333641063574	1.098756683646916	-15.54537499897475	-22.29937173211564	6.514849973674895	0	18.00502290112656	-5.34510739566092	0.7478624443197168	-69.38616073981765	-4.974896603692637	0	-9.569386834251683	6.242712074620581	4.220204116015883
0.2384411681373569	-0.8239143001574162	-2.025627050484137	7.278420478671938	0.3184013338623255	1.016227900392819	-0.0004375091884893376	16.02824576277261	1.345249069264024	-15.48778204362675	-21.26525880991567	7.039861644297064	0	20.01984943416167	-5.005665121797798	0.2483931378103511	-69.60519209181906	-3.607818600693902	0	-9.722602224625474	5.995365393008548	4.804188044463669
0.2503632265442247	-0.7575087582200025	-1.858049540018649	6.873165210367344	0.3312328275007539	1.018672869059484	0.001010247090204042	14.60309490265445	1.548797253184253	-15.40270060364455	-20.21914552447285	7.585037491257776	0	21.93499703889578	-4.674618049333552	-0.3677931935722529	-69.40896096421935	-2.156026576571491	0	-9.90936416181391	5.696391212168638	5.391697964679738
0.2622852849510925	-0.6823045235596508	-1.665109032085347	6.456074280825055	0.343916369983549	1.020855732079367	0.002437942273769169	13.1737560413168	1.711210163446793	-15.29103513227343	-19.1786475748957	8.176268255949353	0	23.73197422009168	-4.350976831034998	-1.065602049359642	-68.77570522843477	-0.6272035855379013	0	-10.11360157061737	5.359429305718289	5.972621053906735
0.2742073433579604	-0.6051568073978758	-1.45775549338547	6.032103817675121	0.3564986097525356	1.022734898074743	0.003828126533151719	11.74960998798726	1.840548499516492	-15.15534927014606	-18.15112902872084	8.81199219576928	0	25.37751789474384	-4.037404677282901	-1.811557969065204	-67.6563792866036	0.9170653537223099	0	-10.32065404775169	5.000371137891404	6.535997653334539
0.2861294017648282	-0.5286956887972021	-1.247888571942622	5.603279796385868	0.3690423331221888	1.024308659505457	0.00517585328001443	10.33342756488643	1.948409492060203	-14.99832144789932	-17.13552630578879	9.458365842251789	0	26.8038011043025	-3.738509877893609	-2.580439159656327	-65.92670640824458	2.396141952981424	0	-10.51941263414167	4.6350408817735	7.072840613956096
0.2980514601716961	-0.4503711633689506	-1.05838805844979	5.173873173469666	0.3815754222784953	1.02556606911462	0.006480581051548608	8.930112836724378	2.057684072212012	-14.82449600047707	-16.13951664285679	10.0822011267261	0	27.98014567304683	-3.471408305214579	-3.349648033026371	-63.57646456090107	3.734218631948525	0	-10.70867436824531	4.291540783491565	7.576771012202314
0.3099735185785639	-0.3665274291453139	-0.9019128442092383	4.745755348866189	0.3941564280225331	1.026509616010103	0.007732442239312571	7.538925221954043	2.18003167898964	-14.64023438572836	-15.17161826950103	10.6665635615443	0	28.86552741394364	-3.23740595106548	-4.103279133480215	-60.59446109187677	4.798409324693607	0	-10.88372285901757	3.987134341403352	8.043508367692946
0.3218955769854318	-0.2751851590784857	-0.800651732304159	4.322460573354543	0.4069370108936383	1.027158013358661	0.008933116514428097	6.13775039026363	2.342430820088591	-14.45718478018517	-14.20507268261606	11.19011157560747	0	29.37961742117223	-3.056060605408769	-4.828183372058194	-56.90688473015392	5.506567761075373	0	-11.02034940197356	3.747652993730545	8.466861578265412
0.3338176353922996	-0.178586472955094	-0.7669318723826053	3.911250000371395	0.4199511296137564	1.027497726418811	0.01006612659383355	4.716424504083447	2.560220946427982	-14.27590634754939	-13.22215319542006	11.65695123466431	0	29.51428056499397	-2.929456022490935	-5.531029285766436	-52.532960637343	5.815105455733422	0	-11.11243368588225	3.590527984445914	8.843419498910563
0.3457396937991675	-0.08275923812093218	-0.8239629523993087	3.522115465228012	0.4331894596580039	1.027489141509661	0.01111350686751132	3.266262261702113	2.861505473333998	-14.09934472433457	-12.1966194764607	12.07857101759458	0	29.31178078275576	-2.875583192053743	-6.236330079299379	-47.55790387544291	5.626499450098449	0	-11.15704825832567	3.5459836179537	9.173302790904987
0.3576617522060353	0.004152719739843839	-0.9929433922943781	3.165884759831735	0.4466219669895148	1.027067662995392	0.01206144817377758	1.789366038233379	3.27147555127641	-13.92538448038307	-11.11818022177095	12.46936225601136	0	28.86668290150505	-2.915188220142599	-6.981467221882053	-42.18951343919898	4.810193909328894	0	-11.15217303693406	3.640560874327532	9.455569927554954
0.3695838106129032	0.0742166799936827	-1.276598086441782	2.845052729391709	0.4601804055071832	1.026162779305104	0.01290250111954331	0.325528566571414	3.786865241111414	-13.74465776757086	-10.04801422713758	12.85850149054867	0	28.31829612702943	-3.057187584216921	-7.824349263713052	-36.7782599170036	3.350475418203302	0	-11.10278223623793	3.878693979067109	9.69092660956907
0.381505869019771	0.1236482027188348	-1.671674434559003	2.563742455628398	0.4738247926180588	1.024750613769542	0.01362711700259454	-1.118090921388935	4.404419108618788	-13.55234981987324	-8.995023952592753	13.26037759487885	0	27.7556160558018	-3.292184533085704	-8.802484539108111	-31.52900657902809	1.583289830808639	0	-11.01598169659535	4.257244298375978	9.879998472754391
0.3934279274266388	0.1490017011314589	-2.166434449284475	2.318088813863741	0.4874960273543516	1.022841082456347	0.01422154585784357	-2.506549674648738	5.104173363855842	-13.34118561479087	-8.017709417590961	13.6852334018027	0	27.21838706007269	-3.597490965991525	-9.958236190499994	-26.51481307843025	-0.04679632511014087	0	-10.90437069682022	4.76559558834759	10.02203212283715
0.4053499858335067	0.1490429544282965	-2.73170706772531	2.101122839621604	0.5011366721146131	1.020467120585265	0.01467585792919551	-3.799700884771185	5.844937610252654	-13.1285178220075	-7.187829291234054	14.14562089461528	0	26.73309024241007	-3.928993214735972	-11.30054637944012	-21.78263924994776	-1.253830347035726	0	-10.78262088379031	5.371081782951484	10.11981807501363
0.4172720442403745	0.1247941743559508	-3.33402865133975	1.904893718497966	0.5147204750230141	1.017688368739511	0.01500048843075847	-4.960084965747769	6.582804543531342	-12.93025231090538	-6.579599551080874	14.65914960254343	0	26.31028272169653	-4.246316956851623	-12.79543564130506	-17.35781457556342	-1.983676042120749	0	-10.66096938976123	6.032301245116289	10.17322704152084
0.4291941026472423	0.0813940670921873	-3.943021384769738	1.721740040445945	0.5282261615784407	1.014590271672905	0.01521574986333168	-5.957090999873693	7.279347915896312	-12.76548802653254	-6.258319429450855	15.23269892235174	0	25.95834844404854	-4.522832803062243	-14.33505198861442	-13.27240312448775	-2.406062178477465	0	-10.55241113415017	6.709948655940577	10.18377942453016
0.4411161610541102	0.02849479504314709	-4.524370434172391	1.547285440072804	0.5416434844778517	1.01127399078022	0.01533575289670964	-6.780481765997281	7.896217302643115	-12.64552365946227	-6.260617939151361	15.87233807989396	0	25.68243115536599	-4.739815789559637	-15.81646227969478	-9.573417278485174	-2.663710891927543	0	-10.4729852625803	7.360907582406774	10.15332608691615
0.4530382194609781	-0.02147154735446427	-5.049718169703799	1.379498226665935	0.5549540348413755	1.007843199337183	0.0153821558319545	-7.437786219280856	8.405694146332154	-12.57442590520759	-6.592044118580026	16.57276004311525	0	25.49774449921511	-4.897943279445771	-17.10192295818675	-6.340989350099045	-2.802560610491057	0	-10.44351833068233	7.947203020147439	10.08702423790254
0.4649602778678459	-0.05683402702485327	-5.497731561036651	1.220818870699193	0.5681094844204899	1.004391911532984	0.01535960437738184	-7.95449304850534	8.791309170415545	-12.5498046593825	-7.215492033666415	17.30468751465705	0	25.45073582506744	-5.013605492409734	-18.12436737659403	-3.723294334146515	-2.805404663027502	0	-10.48908631576442	8.441580432856451	9.99524727297872
0.4768823362747138	-0.06810244867086221	-5.850448421224945	1.074346249418865	0.5810965023543639	1.00100630054495	0.01528088172379186	-8.383266710453727	9.046177480093927	-12.56742228261335	-8.0399995863417	18.0162003915853	0	25.59776381262907	-5.112843071011537	-18.86873079444797	-1.905565525144882	-2.706417890950343	0	-10.62455141200561	8.819456159029494	9.886764628288764
0.4888043946815816	-0.05193739575608497	-6.084665859111125	0.9356689628353256	0.5939651476889758	0.9977626424727879	0.01517159134933913	-8.793853778991965	9.160871504459919	-12.61962144065445	-8.93607847851294	18.64492961932635	0	25.95491869494726	-5.204204372087711	-19.34356749221768	-0.9692784441602402	-2.539354792664646	0	-10.84765205598116	9.04835163824435	9.771431055131824
0.5007264530884494	-0.01263823987582803	-6.17291008883153	0.792950315150681	0.6068014262956212	0.994722062902212	0.01505566199761555	-9.239499687336625	9.116983717681295	-12.69029964883939	-9.801147426927526	19.16217866217386	0	26.49397552980788	-5.269140396778228	-19.58572453877833	-0.8583484767470144	-2.375735402927494	0	-11.14247251831769	9.091725924610273	9.657070512076862
0.5126485114953173	0.0399630435980636	-6.103316056869057	0.6318836540114193	0.619713157229876	0.9919333668531159	0.01495544590845901	-9.752757180997387	8.90855243421937	-12.75787193764644	-10.55877723983097	19.5278076504957	0	27.16932374610785	-5.289860755652643	-19.64073917736957	-1.459749685594781	-2.286420100133439	0	-11.48281945613451	8.932103572543907	9.54988023368869
0.5245705699021851	0.09230890111215551	-5.875405516145823	0.4349578848965996	0.6328326431822253	0.9894326031606544	0.01489816828518474	-10.34177169537075	8.53579130245228	-12.80045482694993	-11.17669930994061	19.71828018937512	0	27.92090730938801	-5.25012472220828	-19.56386878142582	-2.619712679279238	-2.253754560571914	0	-11.83299936863794	8.56484492692174	9.45439318378665
0.536492628309053	0.1280192240690062	-5.487654323714043	0.1821773067333752	0.6463373473347109	0.987239938541978	0.01491434495564893	-11.00425471623251	7.994577546652724	-12.80759617357777	-11.63962401334503	19.71739197665503	0	28.66588291568491	-5.124733078588695	-19.43196810076721	-4.128131495198604	-2.213363681514354	0	-12.14389006874061	7.983949797169056	9.371818058427937
0.5484146867159209	0.1334252118516019	-4.957914329370437	-0.1385813731846978	0.6603954845980016	0.985365473709753	0.01502292217279593	-11.73092875455299	7.300429306350344	-12.78490201801915	-11.9451191536979	19.50329473371483	0	29.32447759072909	-4.906538285973854	-19.3195184464649	-5.774057084975199	-2.178192588689417	0	-12.36824140421295	7.208205565704059	9.30178269606815
0.5603367451227886	0.1025010127738917	-4.338143774433133	-0.5293859684678577	0.6751227909226527	0.9838257491308509	0.01522188405170605	-12.49243583460131	6.500986035174905	-12.75788408004881	-12.13342783263576	19.03801762423707	0	29.81990620109261	-4.62227769118164	-19.2698316795007	-7.359293641941894	-2.278121294505676	0	-12.47549720969777	6.300142147595746	9.248113666060364
0.5722588035296564	0.03753704378939415	-3.713164677979655	-0.9880461671213103	0.6906255787142481	0.9826597086883802	0.0154827063767487	-13.21626283495377	5.666698941421363	-12.7632295712359	-12.34613662131111	18.28557565760299	0	30.02026461035193	-4.317492521620844	-19.25682079925084	-8.589138972456213	-2.734061777573266	0	-12.44591561725322	5.366195849030063	9.221543131837802
0.5841808619365243	-0.05133221392394548	-3.183950209543478	-1.508417195644322	0.7069476358374049	0.9819189060125679	0.01570887817433565	-13.78452597916887	4.868803628573918	-12.82129770825213	-12.82535844263204	17.22223988413675	0	29.7864976706838	-4.035885969346013	-19.18479426639006	-9.169926517789667	-3.764858515219753	0	-12.28127598398422	4.54403661683765	9.246432041866425
0.5961029203433922	-0.1501197475684607	-2.811292302820848	-2.069474318466923	0.7240347602492256	0.9815571507082262	0.01586198168329781	-14.17963197002322	4.163867977228136	-12.89311111593156	-13.62534993291128	15.86478418029889	0	29.18626734618698	-3.837770105700196	-18.91069780038146	-9.368719197527128	-4.551486238545599	0	-12.00808075765822	3.911190870841533	9.331267095571361
0.6080249787502601	-0.2524847058623031	-2.508811483889731	-2.642088718009214	0.7418363737160714	0.9814623489800369	0.01595493861977405	-14.59488768022332	3.503532522747884	-12.83486132581623	-14.37987346273348	14.20804181617496	0	28.45383222556111	-3.674126912150914	-18.47616405352644	-9.854424966682657	-4.134883809992224	0	-11.64283991909652	3.360303505901699	9.45336112675268
0.6199470371571278	-0.3570292569974923	-2.13260666945154	-3.190274849719306	0.7600223015944478	0.9816778045125795	0.01597348376155084	-15.04255914943036	2.758011758023353	-12.67993700869581	-15.02329049495629	12.27536748252334	0	27.79752468384984	-3.414076601851457	-17.97458870739996	-10.70881425731467	-3.490976505591069	0	-11.2312658359241	2.716249406972073	9.570899155553896
0.6318690955639957	-0.4590305403956374	-1.601392770458943	-3.67248535774374	0.7780807310768292	0.9823518994576937	0.01584546941622364	-15.37401169841246	1.832734998494534	-12.49833380299395	-15.78310335354913	10.13812272412185	0	27.36991169841957	-2.9829568509319	-17.38985779723708	-11.77345184839555	-3.426936711460283	0	-10.85364340292196	1.883540830847978	9.645031575553395
0.6437911539708635	-0.5550486490807819	-0.888634671535328	-4.069833193408219	0.7958210059122184	0.9835242954952247	0.01551036751727202	-15.45999746817154	0.6834928461118542	-12.32318158168861	-16.88943672522517	7.835250025298427	0	27.1518640421145	-2.343962926280584	-16.71211295750076	-12.98083500212559	-4.055291339021942	0	-10.5400113477598	0.8349747960955738	9.649659909831826
0.6557132123777314	-0.6307777422506018	-0.1060876355541975	-4.371600440718133	0.8132671893506682	0.9851201896272805	0.01494260077944704	-15.21190553914643	-0.589900869749989	-12.17483153270193	-18.56107426489278	5.370362132730643	0	27.07579613911887	-1.600095785345459	-15.92317080381225	-14.41957744996705	-4.584352522170525	0	-10.30605373060009	-0.2958766682254865	9.590087838004608
0.6676352707845993	-0.6768009261591519	0.5826633295617076	-4.576478860556259	0.8305050766172437	0.9870514057545239	0.01414425527708964	-14.53980244373715	-1.83723270614895	-12.00002296683722	-21.00754685619115	2.689812983604807	0	27.0017099483919	-0.9076600408533898	-15.09092305595396	-15.98212503729874	-4.607240260308489	0	-10.1508958854766	-1.312809872285655	9.483525403209608
0.6795573291914672	-0.7033005345064617	1.067724438860804	-4.669476944193152	0.8475251995492898	0.9892223155218308	0.0131218681157234	-13.35702104937779	-2.944604682886108	-11.67486480518437	-24.3925555747538	-0.05531885541143706	0	26.81101630395346	-0.3907928851162598	-14.47170363521426	-17.45866627738521	-4.123623791293842	0	-10.05915689943732	-2.080549584958433	9.322806268188398
0.6914793875983349	-0.7315284800074006	1.387596685312813	-4.658427181361382	0.8642750513332216	0.9915157852965092	0.01191256946063812	-11.6428325611745	-3.923613817493262	-11.14694897602178	-28.74727893326012	-2.342687200191464	0	26.42491321293167	-0.01093415797748293	-14.25117406728383	-18.60982454721484	-3.33200842716938	0	-9.99824445492399	-2.638826963462974	9.100906545168444
0.7034014460052027	-0.7750331308720322	1.632857306569088	-4.574680380691355	0.8807622260775676	0.9938139631448696	0.01060181101186379	-9.521124770252065	-4.814080823477674	-10.46799136991158	-33.71766120558974	-4.270987644357789	0	25.82382631183563	0.3414396186424715	-14.28498367365539	-19.34787612458572	-2.32314137840123	0	-9.933833540241688	-3.095115076886636	8.826526925190704
0.7153235044120706	-0.8390996116694867	1.847010506624646	-4.441446938058215	0.8970126849612072	0.9960512853081189	0.009270926824864309	-7.168992094884526	-5.615972792216104	-9.724165507365818	-38.8406273130139	-6.152940198132383	0	25.04765794709769	0.7059276231277073	-14.42592192427475	-19.71760471885572	-1.231208462428268	0	-9.845817205132043	-3.503870930442453	8.51051813037086
0.7272455628189384	-0.9204864836958788	2.054563514311542	-4.269221294334771	0.913028589862845	0.9982284246285094	0.007953413227885049	-4.713051425590562	-6.338356357290897	-8.992835782731978	-43.79677939654024	-8.299816103102458	0	24.17369730915603	1.091561245076407	-14.60883503572474	-19.84647419053367	-0.152380854639313	0	-9.731966320290828	-3.894519991256325	8.158110570307759
0.7391676212258064	-1.011624543135234	2.241067722034977	-4.051455771165997	0.9288202923833584	1.000362942634206	0.006659032642002263	-2.267564079169768	-6.934436607697292	-8.286800427583159	-48.36109726085826	-10.3975130217344	0	23.26658305083583	1.472479842826577	-14.78267443727277	-19.85548355706896	0.8389981067053059	0	-9.599783273468988	-4.249269915231972	7.768463220294324
0.7510896796326741	-1.102731323341713	2.413633185158933	-3.790323564191467	0.9444228722275434	1.002463451787361	0.005388745461441379	0.05608039081221373	-7.395504389991513	-7.640997819491464	-52.40244123344125	-10.83526763214566	0	22.3575386711381	1.848162366255133	-14.91648679749213	-19.82430851671494	1.74094078189491	0	-9.456166877686627	-4.573669081416975	7.341971756917037
0.763011738039542	-1.180915913401656	2.547959030764511	-3.491932430019175	0.9598614255775977	1.004628180447984	0.004108393603933324	2.245151995288451	-7.727926380401323	-7.092716923439027	-55.8040879538268	-10.70038885774249	0	21.42640911026255	2.196551854702299	-14.98815440015551	-19.74237334916662	2.52278083294625	0	-9.318225079573814	-4.833815875992244	6.884412186192274
0.7749337964464098	-1.236559506584869	2.634319854205939	-3.165632332616782	0.9751307296089888	1.006893226374145	0.002803524911485342	4.311170360680022	-7.954191150774315	-6.655808889659269	-58.58556330964593	-10.08813055300988	0	20.4450505065605	2.509849073845571	-14.99194348376236	-19.58077524537113	3.200500974277862	0	-9.20248459641029	-5.016025112872643	6.398152766870358
0.7868558548532776	-1.262961928867283	2.660694419832133	-2.821545278984689	0.9902185930338054	1.009259911959661	0.001470602135436791	6.278722835490724	-8.08564040531332	-6.325497006864317	-60.80559072600178	-9.049254329862885	0	19.3844065328079	2.776983143242693	-14.9299124684054	-19.30695679637443	3.814828050024703	0	-9.122133484880591	-5.105162124414942	5.888034042523389
0.7987779132601456	-1.256161212724872	2.622002842185132	-2.469769566101504	1.005112771903314	1.011709578222824	0.0001092727972528071	8.1778535696681	-8.134621960814497	-6.088827847838953	-62.52596725780473	-7.806912457660136	0	18.22697519098138	2.991655622206589	-14.80788998124033	-18.89904829930618	4.383967235528015	0	-9.08563528685521	-5.09459909523419	5.362080370162483
0.8106999716670135	-1.215778880114659	2.522886692970784	-2.117811321267164	1.019796854834521	1.014203051660397	-0.001280111274578209	10.03534883757229	-8.115552133358891	-5.925061924003908	-63.81628012220168	-6.447752364029576	0	16.97802215035906	3.152826180587185	-14.64223419683563	-18.36302581125279	4.90177476784136	0	-9.096812982618715	-4.989012728051942	4.827310284081965
0.8226220300738812	-1.144579898642669	2.378679687485787	-1.771697921134836	1.034256193025404	1.016689104041219	-0.002699949129241073	11.87516177973329	-8.04997819936294	-5.810503889602373	-64.74014834292284	-5.074288668935463	0	15.65572810752949	3.269006115853765	-14.45534624693172	-17.72056618689574	5.361330063310804	0	-9.155191800055725	-4.805045555894556	4.289969160390545
0.834544088480749	-1.047381826666502	2.204801226383565	-1.435232594588281	1.048486225401341	1.019108663031098	-0.004153695026726833	13.70608185076052	-7.957911168530668	-5.73040411654864	-65.33928087445948	-3.688929488149356	0	14.2848607838371	3.349295557738331	-14.26414171687961	-17.00573998460317	5.770632792361799	0	-9.257196178552979	-4.559841209766241	3.759093956240029
0.8464661468876169	-0.9298151491022093	2.01254708454309	-1.108522520167589	1.062507565516996	1.021408245128811	-0.005631895434848483	15.5116027316138	-7.850797585639159	-5.679567080798787	-65.60309451417554	-2.262629085811379	0	12.88601084177722	3.399519410933281	-14.08492448573019	-16.24827682460581	6.14579980216225	0	-9.395613691337637	-4.269155715859848	3.241214807869261
0.8583882052944847	-0.7982345156060447	1.8052553379304	-0.7894708407368105	1.076346556637019	1.023536014733201	-0.007113812106384596	17.26467419155195	-7.72886913344663	-5.658892556124202	-65.50306492034646	-0.7487553927342496	0	11.47714079828133	3.41846762999016	-13.92935472144608	-15.47499732384625	6.514514823059056	0	-9.562530753013363	-3.942092191400649	2.740145648642978
0.8703102637013527	-0.6595227856361578	1.58313426726869	-0.4764934480883962	1.09003080443446	1.025442600895059	-0.008581818904230791	18.94066607991997	-7.589517929637552	-5.670845453481344	-65.01441314464581	0.827785429904327	0	10.07050900974223	3.40466741502434	-13.80040329173818	-14.7009139722941	6.896356139575698	0	-9.749352354231851	-3.58353507230728	2.260235032715534
0.8822323221082204	-0.5198826199955082	1.347942981605972	-0.1678447295825408	1.103584543146182	1.027088668128069	-0.01002724683254516	20.51600721008716	-7.432702570286848	-5.718222477103305	-64.11836552342568	2.407137214648554	0	8.678225601914018	3.359364207453337	-13.69677197733832	-13.93843158093913	7.289050959947003	0	-9.94866531099755	-3.198520953388141	1.806375481702539
0.8941543805150883	-0.3848065070424854	1.106816854969928	0.1386383020044686	1.117043869978371	1.028454367086737	-0.01144408142823044	21.95686862910854	-7.262653372389297	-5.802293211156689	-62.77562583607323	3.907935577726288	0	7.310803271888652	3.289597225579018	-13.61908384426753	-13.19711162763371	7.676401344372208	0	-10.15155751378557	-2.797965653164427	1.381854960153209
0.9060764389219561	-0.2583577214452413	0.8715302519440501	0.4470553039356914	1.130476288862866	1.02954941111889	-0.01282620231913625	23.19910923935667	-7.08552150948953	-5.925500432195051	-60.87835384380517	5.228033873039079	0	5.968216512900224	3.209075215708508	-13.56309479896669	-12.47220813422843	8.037016363761452	0	-10.34576475619254	-2.398892783472355	0.9857172054786526
0.9179984973288239	-0.1432414905331613	0.6589928574067589	0.7613912599511808	1.143926338512081	1.030368851214122	-0.01415288429539012	24.21201217216738	-6.911950500558168	-6.084997250564538	-58.41870711744907	6.299671394025727	0	4.651609208150326	3.135724451067625	-13.51341297926204	-11.76543489287494	8.365542361605945	0	-10.52350197002256	-2.026838290583985	0.6138170701096922
0.9299205557356918	-0.04105709346421813	0.4813043360778528	1.088209049852361	1.157426488391677	1.03090726519156	-0.01538984826485807	24.97597431344935	-6.743259769238254	-6.280103723412233	-55.41327252007337	7.060714171670836	0	3.36424249813583	3.08018408985678	-13.44895009155978	-11.08545684655509	8.663247926472071	0	-10.68022641318536	-1.704575011311672	0.2611383176634711
0.9418426141425598	0.04552657749550656	0.3616702600821365	1.429553847224783	1.17098442284295	1.031151408453156	-0.01653447581549448	25.49831553276067	-6.611334789249169	-6.521800618379972	-51.90486729160366	7.398628130678032	0	2.105706461365893	3.067260159945824	-13.36281363030624	-10.42910755488221	8.925831823200889	0	-10.81486615079425	-1.461579446858702	-0.07437633436410056
0.9537646725494275	0.1161106914165198	0.3142184410676558	1.783232914914277	1.184570409081841	1.031084143121111	-0.01759607633105832	25.81013585775107	-6.539710180987675	-6.821371294521374	-47.96943286014998	7.213587656090652	0	0.8765006788513209	3.112453484667336	-13.24901338767277	-9.798618572443276	9.160630485079395	0	-10.93611642456974	-1.312524597775452	-0.3890335981930165
0.9656867309562953	0.1686869945147375	0.3501508650305795	2.143931349000874	1.198139874426545	1.030681650031791	-0.01858182565310261	25.96015840696806	-6.546560456259196	-7.195668555564169	-43.70869733916666	6.49238315349665	0	-0.3210050934879626	3.228211257717195	-13.1111469389862	-9.196232195866022	9.38059506776286	0	-11.05399941907146	-1.267621264001442	-0.6771001833522562
0.9776087893631632	0.1992528277765893	0.4788399684797539	2.505262016520748	1.211646599012928	1.029913021158664	-0.01949358950386816	26.0030920651048	-6.643601850870221	-7.665640803731065	-39.23827101700471	5.531570179123952	0	-1.479976404956952	3.424827778886145	-12.95921714801294	-8.629233849115151	9.603752013729496	0	-11.17740011015796	-1.33472563991788	-0.9346735730911108
0.989530847770031	0.2065213214894125	0.7026597775098977	2.860595514288343	1.225063633350985	1.028756473107628	-0.02033255602482124	25.98890965390177	-6.83181883919166	-8.261017725113058	-34.67312135593129	4.727564161474173	0	-2.601739865008217	3.706496343236353	-12.80458624737403	-8.096950849176363	9.848646880697826	0	-11.31514311928351	-1.512787542346887	-1.159158479304032
1.001452906176899	0.1918451254126415	1.016242797173266	3.20291083505374	1.238383774307021	1.027213337458978	-0.0210996310764917	25.96140796306438	-7.10037431139373	-9.013319860176813	-30.11786647093215	4.144553987319362	0	-3.696204883190082	4.070623818041303	-12.65820206620077	-7.586909135398686	10.12085574134989	0	-11.47472108155467	-1.791451880569342	-1.348684054799741
1.013374964583767	0.1578521437606732	1.40723472661147	3.526513179924046	1.251615419009776	1.025305569340752	-0.021795067225067	25.94890857756481	-7.42529937904903	-9.941237995259359	-25.64529504626795	3.658079672205445	0	-4.771279591453324	4.506435022299945	-12.53147199710102	-7.091662716605934	10.41783223558475	0	-11.66108483921098	-2.152403860333817	-1.502224558619528
1.025297022990635	0.1082361611962544	1.86140003784915	3.828907634790212	1.264779475608714	1.023066949739857	-0.02241831001414419	25.96125640175166	-7.77731932333253	-11.03956608046719	-21.30306342222328	3.196599153072689	0	-5.824507614573025	4.998275227895757	-12.43578574801423	-6.626008103795495	10.74153858173836	0	-11.87717366874172	-2.575923164298222	-1.620765294725728
1.037219081397502	0.05005854463525064	2.355980027737239	4.111088869790193	1.277905568578435	1.020540593919148	-0.0229720231994341	26.00123443154366	-8.120887108774136	-12.27743679584279	-17.14807338682004	2.756457106352486	0	-6.84961047838538	5.51930552715639	-12.37942059984399	-6.217771615898403	11.09614941642358	0	-12.12648583908113	-3.032027482328069	-1.707274997518533
1.04914113980437	-0.006524145178345364	2.867059458877689	4.377533866396139	1.291051605305892	1.017782812991917	-0.02345855595894813	26.05423472858526	-8.423848205474625	-13.61106177581026	-13.21574293945375	2.364477254769616	0	-7.850863125225986	6.041042905495309	-12.35866751160192	-5.881529720022631	11.47380010562468	0	-12.41014637631165	-3.4906127079622	-1.767946799365944
1.061063198211238	-0.05128362757512941	3.371836982565038	4.636984062240783	1.304304417318604	1.014859166153787	-0.02387237301350281	26.08827130456465	-8.659449450818901	-14.97920140174982	-9.517941930846815	2.075365816788606	0	-8.83132418631026	6.532773689957589	-12.35647115622487	-5.637455454871533	11.86203575000762	0	-12.72337694913779	-3.926429661004615	-1.808947806413091
1.072985256618106	-0.07394213919284243	3.844612895946904	4.899709433555054	1.317751552854415	1.011836018489855	-0.02422915555377783	26.11441614393093	-8.824039819645302	-16.29755855420957	-6.205062377010583	1.891709379961601	0	-9.796149329840201	6.962046168803129	-12.36543274067819	-5.498978751577279	12.24498493047209	0	-13.05777189267866	-4.308334399905086	-1.834303111313573
1.084907315024974	-0.06821596133774123	4.258786894635344	5.174282266150509	1.331456327128151	1.008781781475536	-0.02454483097557941	26.20021601701324	-8.941786724185704	-17.47111526548566	-3.584244753990156	1.774005795118748	0	-10.73772595789055	7.294387675485403	-12.38255679920321	-5.491144055191184	12.60629125296339	0	-13.40070709538232	-4.605369666793386	-1.848111626743034
1.096829373431842	-0.0305666725241395	4.590688297022865	5.468063173896351	1.345478982803471	1.005773300935999	-0.02482678195478999	26.40270908918504	-9.044699489580738	-18.44730970051211	-1.929746370413151	1.697787143440236	0	-11.64578881537016	7.498303477137146	-12.40237097775582	-5.63605258232693	12.92416554581586	0	-13.73677367962299	-4.792309357530838	-1.855121782060752
1.10875143183871	0.03697174631650735	4.828285480596537	5.78519320099066	1.359889444725937	1.002881393924852	-0.02507565930238184	26.73722690062872	-9.158253214803207	-19.19956793252271	-1.365764496428411	1.652389079744651	0	-12.51434990193833	7.557270839789163	-12.41735817880909	-5.936692448242119	13.16584926933151	0	-14.04590209076523	-4.85860921162528	-1.85846444286214
1.120673490245577	0.1269561548747959	4.95797104717022	6.130939677861835	1.374760112928233	1.000163469314775	-0.02529179128332749	27.16659024770005	-9.275873134056042	-19.73028549469491	-1.825602607779063	1.602127115170508	0	-13.32992080004637	7.452775797446575	-12.41759547421993	-6.399196387362148	13.30368581739337	0	-14.30467810668198	-4.791136990869837	-1.858095498499385
1.132595548652445	0.2296255000810965	4.97251231389892	6.511709403088995	1.390169785270063	0.9976613398427749	-0.02548273412857786	27.62243825089366	-9.374345884805251	-20.05460008576225	-3.119098395030497	1.554499385045674	0	-14.08097674219411	7.174205555170188	-12.39510685048902	-7.024262195213848	13.31772794152908	0	-14.48931096807835	-4.582469652662472	-1.853425020639401
1.144517607059313	0.3336679369942306	4.883177127650465	6.927959155910608	1.406205296780487	0.9953989137544127	-0.02565169831861744	28.02917635578791	-9.431431791798779	-20.19227798103221	-4.990971215840537	1.467571559981579	0	-14.77225137520398	6.735813269934209	-12.34291463005796	-7.780614830233324	13.17109516449937	0	-14.57639512322118	-4.247616505523398	-1.843477905422001
1.156439665466181	0.4317331388637498	4.707333715007395	7.378758658723996	1.422969900760247	0.9933953866891841	-0.02580352972757591	28.28825927365744	-9.416731433080598	-20.16023470889064	-7.126181599203633	1.241330802703642	0	-15.41879391810702	6.159637225865335	-12.25175923460304	-8.627650890298158	12.82181523918452	0	-14.54525649145793	-3.808526864683124	-1.828343391207212
1.168361723873049	0.5199456773963615	4.476418931981716	7.856309476644737	1.440549099905917	0.9916658239427193	-0.02591758570557955	28.28849983121099	-9.29799243177967	-19.95496250683194	-9.158386341924906	0.7740750347198557	0	-16.03334559915345	5.480699099936027	-12.10727017737579	-9.538163662976217	12.23050009339053	0	-14.38539254965	-3.307038419313123	-1.810045367914087
1.180283782279917	0.5989662363051673	4.231740883844469	8.354911931162016	1.459035961924983	0.9902204591552567	-0.02596836496744706	27.8679567252004	-9.039141806334042	-19.52390713222817	-10.5837539201479	0.4132115511943131	0	-16.64163335984928	4.742856592159964	-11.87448065028465	-10.47213819768372	11.34596865246129	0	-14.09507383635455	-2.797270189579227	-1.798084355853356
