inDegrees=no
nColumns=32
nRows=116
DataType=double
version=3
OpenSimVersion=4.5
endheader
time	pelvis_tilt	pelvis_list	pelvis_rotation	pelvis_tz	pelvis_ty	pelvis_tx	hip_flexion_r	hip_adduction_r	hip_rotation_r	knee_angle_r	ankle_angle_r	subtalar_angle_r	mtp_angle_r	hip_flexion_l	hip_adduction_l	hip_rotation_l	knee_angle_l	ankle_angle_l	subtalar_angle_l	mtp_angle_l	lumbar_extension	lumbar_bending	lumbar_rotation	arm_flex_r	arm_add_r	arm_rot_r	elbow_flex_r	arm_flex_l	arm_add_l	arm_rot_l	elbow_flex_l
0	-0.08382987263184234	-0.07782315112443607	-0.1110991728053676	0	0.91659327	-0	-0.1258077677144464	0.08504267314990356	-0.2101862893278252	-0.2861313166401155	0.356134044137421	0.1444312930258764	0	0.5003218433122919	-0.1266494440195745	-0.4088224787072083	-0.08883142359269025	-0.02812308801265344	0.02273653733435205	0	-0.04942804869865444	0.03203087916067119	0.2332904247676396	0.007528898527360196	-0.3062811672889995	-0.1848603233957503	1.018208670268278	-0.2511500103897596	-0.08762836604489548	-0.08777371689046863	0.5183465838564745
0.01000000000000001	-0.08230092892254899	-0.07504730314893208	-0.1116423605485025	-0.001287309999999986	0.91635467	0.01317301999999999	-0.1301413176217883	0.07484992605818007	-0.2139044867554622	-0.3065095605513167	0.3416459895711948	0.1450889426873388	0	0.4967464277801021	-0.1245972460915726	-0.4147911418950774	-0.1121772550198477	-0.0379551406487708	0.01860789920410395	0	-0.04781663122978277	0.02889834110070782	0.2314844451496056	0.0007793816643999734	-0.3005428022157932	-0.1834880514645856	1.015533232717681	-0.2570330238135151	-0.0873824854561379	-0.0889216234301638	0.5149208535205222
0.02000000000000002	-0.08677826153788629	-0.0576426853709086	-0.1187028588642941	-0.002891649999999996	0.91611882	0.02623481	-0.1178748605463675	0.04494410708579376	-0.2192119014129514	-0.3429862816599422	0.3282513242656156	0.1601120535921038	0	0.4916179816275734	-0.107112335535966	-0.4254588813899287	-0.1086383774319496	-0.07625724681871862	-0.01254001073213338	0	-0.03628697763899489	0.01152570146722966	0.234299620217835	-0.004744283650734409	-0.2926864556606824	-0.1825111144113561	1.001050692344694	-0.2604859362563038	-0.08475016137778998	-0.09850330998134596	0.5015069531157897
0.03000000000000003	-0.09025066388672308	-0.04255850306312001	-0.1180529821515422	-0.005142079999999993	0.91633727	0.03901712	-0.1071729003808724	0.01889273641443065	-0.226080854647284	-0.3764428604217742	0.2988626110949443	0.1688853278938388	0	0.4892147348060765	-0.08917452006798145	-0.4173906832795522	-0.1097679117632736	-0.1013061153775677	-0.04916411512224594	0	-0.02785758451258278	-0.003437674671221241	0.2302066648205451	-0.009905451410612429	-0.2846812365346336	-0.1821285755893649	0.9883695387558142	-0.2626263731443647	-0.08368709860915984	-0.1059867007937897	0.4916463254255599
0.04000000000000004	-0.08861453510333134	-0.03709767073848537	-0.1158116672229658	-0.006578349999999983	0.91699641	0.05187172	-0.1039120228504892	0.005374402837641651	-0.2268856317249652	-0.4065027052242478	0.2728702583831716	0.1706101612208282	0	0.4858284457696266	-0.08374809629572071	-0.4104142695995755	-0.1283799915545349	-0.1163990555094417	-0.05028129932924996	0	-0.02783403932284168	-0.01034557510234512	0.2269731086742727	-0.01775636632655823	-0.2774324362996151	-0.1793032011660527	0.9829709583956434	-0.2639133059800225	-0.08572944066287569	-0.1072688566632849	0.4891854851822082
0.04999999999999982	-0.09534361448777441	-0.0162783679865551	-0.1143692065229163	-0.009105069999999993	0.91702326	0.06538935999999999	-0.08305131338536892	-0.02938577298901337	-0.240249596165403	-0.4517088415577032	0.2456709321283612	0.1824666535449249	0	0.4844871640791933	-0.05978383554792004	-0.4016351159817221	-0.1348614502789983	-0.1459627182154049	-0.09072676721001907	0	-0.01265896033117747	-0.03047511989257978	0.2202438837073278	-0.02405538927496919	-0.2683052214428803	-0.1750386441240421	0.9615412256922137	-0.2684760855114592	-0.08519878883723717	-0.115127720332243	0.4805748193671571
0.05999999999999983	-0.09331725040938427	-0.005542567498192374	-0.1117207811868531	-0.01099992999999999	0.9180767399999999	0.07867433	-0.0748545923704682	-0.05037644700061998	-0.2443423297313449	-0.4880453458812831	0.2021768927562118	0.1810321588805975	0	0.4772603977533166	-0.04803504784102973	-0.4043702375095516	-0.1517093400922364	-0.1253246645917517	-0.1033390947870442	0	-0.01117382284420828	-0.04219221538731361	0.2151212507229388	-0.03298764858532809	-0.2602925567422426	-0.172531574821194	0.9525748375155294	-0.2708846911918913	-0.08767952129620557	-0.1173003280017412	0.4786262086501232
0.06999999999999984	-0.09075494203217535	0.007932710712622412	-0.1088595421074563	-0.01295515	0.91916637	0.09195626999999999	-0.06349287750189987	-0.07575987161513154	-0.2497955025942547	-0.5299740434296161	0.154151782470877	0.1760278810361092	0	0.4708111546652524	-0.03413270500235475	-0.4084884368255436	-0.1700661934056616	-0.1046786178837232	-0.1179628174612193	0	-0.01071316709915513	-0.05696571872723637	0.209539024724478	-0.04120820172209894	-0.2521561331878068	-0.1689010812356673	0.9407122236236144	-0.2713753254103085	-0.09044325470459465	-0.1196537140826342	0.4757843415635114
0.07999999999999985	-0.09267102836347062	0.02542965903222147	-0.1055233460485843	-0.01536792000000001	0.91982665	0.10483869	-0.04091627812594329	-0.1069219157512503	-0.2535701698007741	-0.5798388466364153	0.09813368677035249	0.164261530255489	0	0.4708711276690094	-0.01552040337974557	-0.4069974533582448	-0.1917626384242019	-0.09235730929870238	-0.1283386733279548	0	-0.005250734042833089	-0.07542911880644214	0.2041742252119797	-0.04841948209058856	-0.2447193088070039	-0.1632951976482617	0.9227676841001536	-0.2722993329105103	-0.09364909624407593	-0.1213859216002462	0.4793675543541345
0.08999999999999986	-0.08943385607373217	0.03840062421135209	-0.1013656713171554	-0.01771486999999999	0.92084563	0.1176809	-0.02339299074714509	-0.1337871884306898	-0.2568444205674849	-0.6294127999736144	0.0375682894672638	0.1563390805766893	0	0.4654500170280576	-0.0007090881797100513	-0.4021817522307821	-0.2160230195868776	-0.06382604951146545	-0.1327271510157851	0	-0.007069280031481505	-0.08894631861734903	0.1976733814645802	-0.05752867031414402	-0.2382242586800564	-0.1588003294016189	0.9134994489087858	-0.2716994131556503	-0.09698301248752951	-0.1208979284140532	0.4806247750536724
0.09999999999999987	-0.08865023902721829	0.05285082005390149	-0.09526095674891902	-0.02004681999999999	0.92170976	0.1302874	-0.0009154990200983852	-0.1609455811294872	-0.2564170472040697	-0.6813258205359904	-0.01409598310492646	0.1438884486791493	0	0.4601784036113829	0.01604184929171153	-0.4046913557517042	-0.2343581929439331	-0.03995219664438517	-0.1314710413928491	0	-0.006856249680839132	-0.1047660838374564	0.1890945258459431	-0.0661110094354352	-0.2308098411852564	-0.1534336128194701	0.9012299615927176	-0.2704743843560339	-0.1021166035216272	-0.120130122645917	0.4845566601229481
0.1099999999999999	-0.09418681973628397	0.06965884457915771	-0.09112337270424736	-0.02201438999999999	0.9219625299999999	0.14224959	0.03345126475785846	-0.1885924591973266	-0.2474487585383631	-0.7385219150450412	-0.05744755875515146	0.120728031083347	0	0.4580805354783112	0.0340088700522014	-0.414146061920355	-0.244295588766779	-0.02259559047808045	-0.1145463120630284	0	-0.0001968986214320395	-0.1230798236786329	0.1827140515229342	-0.07329462371728682	-0.2238683770254191	-0.1435381621454716	0.883851636898267	-0.2704942767461835	-0.1088083887326558	-0.1167341077622104	0.4961880021810108
0.1199999999999999	-0.09705964493366849	0.08206756200554005	-0.08508773045902761	-0.02373239999999999	0.92258568	0.15403027	0.06492827013812749	-0.2096704782113493	-0.23909574171815	-0.7930291130715018	-0.1024647436493909	0.09355195034524527	0	0.4496061571885606	0.0493813272817761	-0.4237097654715893	-0.2480634172496903	-0.001500583476316417	-0.09708370140474169	0	0.002175983310804474	-0.136993090707629	0.1741637201693282	-0.07984992557707288	-0.2163133474284981	-0.1352725952219626	0.8685556486518746	-0.2702270148268914	-0.1165162274906426	-0.1109787061811096	0.509499034450427
0.1299999999999999	-0.1028510529080905	0.09384362055401899	-0.08098970658945864	-0.02516615	0.92302575	0.16500703	0.1044194595281482	-0.2267330363667328	-0.2223161667098287	-0.8480656670166313	-0.147987662478071	0.06189954897446173	0	0.4423082894650833	0.06443329895105211	-0.432523159482307	-0.2453747371879272	0.01314247604970739	-0.08533496867572279	0	0.006269501751311025	-0.1500025986737403	0.1667329969359915	-0.0849024497326069	-0.2082486658074985	-0.1270594220354008	0.8529049409100371	-0.267753851860889	-0.1250270215516373	-0.1059568317525698	0.5221610016348398
0.1399999999999999	-0.1068404123230764	0.1019739866113013	-0.07671843407452392	-0.02637401	0.92372737	0.17612672	0.1414941503352604	-0.2380878707983239	-0.2078968287233133	-0.8980193977158792	-0.1873710584136263	0.02826960020031088	0	0.4308103523465284	0.0762239164405262	-0.4409081444512313	-0.2400856849649654	0.02874152867793681	-0.07034125295528572	0	0.008112145500941728	-0.1591389721457249	0.1587292599435435	-0.09005563400742043	-0.2015526287998791	-0.1173734895859909	0.8367505864730117	-0.264602695326597	-0.1332207243686625	-0.1007249729219983	0.5355439130205715
0.1499999999999999	-0.1099524732730206	0.1119128552938311	-0.07519861055049271	-0.02740554000000001	0.92448429	0.1868997	0.1808084054015637	-0.2503758439436975	-0.1901623353865398	-0.9465360860936906	-0.2114486940043072	-0.008708096377082676	0	0.4174193630534197	0.09013099872078495	-0.4484601178020992	-0.2310824914595482	0.04062129426947719	-0.06010385056745238	0	0.008677911082202359	-0.170227428841823	0.1530526074437597	-0.09392185036545815	-0.1945450700684663	-0.1080632514753775	0.8199683360494801	-0.2611956478676227	-0.1421935945236556	-0.09465786513580211	0.5502204090408063
0.1599999999999999	-0.1093761483242909	0.1209303881734927	-0.07315215114019541	-0.02874926999999999	0.92560579	0.19753172	0.2151353952202628	-0.2615628885296543	-0.1758798369729673	-0.9908338195667203	-0.2096930128554535	-0.04931153505564734	0	0.3996627235828336	0.1051375094499684	-0.451052484312552	-0.2207266115842334	0.0556393849091818	-0.05544181451052067	0	0.004223637623164634	-0.1793246601637389	0.1460143558757202	-0.09847368266822752	-0.1879076476748472	-0.1001549333784654	0.8069273666037394	-0.2533065711530491	-0.1501108242717284	-0.09205074221558959	0.5617593858313923
0.1699999999999999	-0.10877398596358	0.1264291122309081	-0.07265277097774887	-0.02973841999999999	0.92694555	0.20832	0.2495343147698255	-0.2668635574895845	-0.1616656067640207	-1.031525114803705	-0.1881355684765358	-0.08481050543854599	0	0.3802489240071419	0.1161468948769696	-0.4524755983829589	-0.2081189566026817	0.06147728261897082	-0.05058207837696438	0	0.0002642105601607796	-0.184825630089945	0.1403582518353518	-0.1020712596931275	-0.1818353735395322	-0.0926927331320689	0.7899882267884167	-0.2463255599267567	-0.1569748921549519	-0.0891630010694512	0.5738049177338324
0.1799999999999997	-0.107493207367293	0.131689965787169	-0.07458313155120806	-0.03070008999999999	0.92846132	0.21881991	0.2850008972523277	-0.2701231686090624	-0.1455070773248914	-1.067130821669674	-0.1637567283268688	-0.1189023831754393	0	0.3607849975281354	0.1270366727157986	-0.4520794534977179	-0.195834591052872	0.07118745105943977	-0.04854924208448657	0	-0.003902716254151728	-0.1891832302853135	0.1354236295577119	-0.1033065136786997	-0.1772335998619474	-0.08362172555669713	0.770838998706975	-0.238623481977032	-0.1638376965943298	-0.0850204851281888	0.5867033972777097
0.1899999999999999	-0.1036482103830011	0.1330515959563114	-0.07603716168849989	-0.03154546	0.93042746	0.22974745	0.3144112223115277	-0.2676817388704538	-0.1316121172289524	-1.094364403676246	-0.1354409601535854	-0.1460681443052728	0	0.3378500515134825	0.1343861313247674	-0.446817519153476	-0.1842930906907204	0.08003967445722412	-0.04880678164718039	0	-0.01058241069678714	-0.1895897764602317	0.1310614353066863	-0.1058025315567241	-0.1733791025171723	-0.07563059874262773	0.751810597849787	-0.2305080032462848	-0.1700293683547079	-0.08230538514487361	0.5999332654537231
0.1999999999999997	-0.09912864655915399	0.1342925552007993	-0.07769706045913735	-0.03236295	0.93230829	0.24033268	0.343606095724814	-0.2646250629426918	-0.1186472570540352	-1.11698132888457	-0.1068844039132359	-0.1638016497856896	0	0.3138646113697419	0.1418376532977343	-0.442570003506282	-0.1713211319126695	0.08842138274501078	-0.04884890865933577	0	-0.01842477594285913	-0.1897029551281041	0.1249050935482246	-0.1055620787674073	-0.1697230421270318	-0.06707339410789454	0.7306344784163659	-0.2217072944631036	-0.1767655069198857	-0.07869174271327488	0.6131572900928677
0.21	-0.08977769858421254	0.1360940290061221	-0.08087996307224171	-0.03324507999999998	0.93468038	0.25097586	0.3664274260411498	-0.2632593237789174	-0.107731080412138	-1.132395014281735	-0.07686737535343936	-0.1715709599125962	0	0.2827963950870128	0.1511392197399592	-0.4390037328012408	-0.1535699586387676	0.08946556942871477	-0.05023858414113665	0	-0.03213088652681047	-0.1893493959275459	0.1159433788396786	-0.09967237636929356	-0.1669112498559586	-0.05349416581897052	0.7020024813662964	-0.2150326441965393	-0.1843930991040572	-0.07007204115415333	0.6298997328722868
0.2199999999999998	-0.0869230162092457	0.132368290995231	-0.07967308907607831	-0.03444644999999999	0.93650618	0.26139218	0.3933809724127004	-0.2546772632121748	-0.1001832007310307	-1.142211302754983	-0.05680001245566306	-0.1775229810369817	0	0.2589535080260543	0.1545053167132269	-0.4295970678674487	-0.1378669489643017	0.09480972413962302	-0.04822115491716376	0	-0.03912492349437632	-0.1829285861728588	0.1089567712151397	-0.1052045042623721	-0.1648119243729615	-0.05016196855029723	0.6918803504706416	-0.2026551621895431	-0.1885809400242635	-0.0686779292199268	0.6374484361742682
0.23	-0.07597812720666053	0.1276995757232686	-0.07854325877269762	-0.03528684999999998	0.9391108500000001	0.27205765	0.4078806147434293	-0.2463930601865117	-0.09720721207272	-1.145203835912872	-0.0193144198299514	-0.1656751504328968	0	0.2248841774996358	0.1574038642399619	-0.4255690790354387	-0.1193301721017494	0.09768841331012887	-0.0463294257021829	0	-0.05459638347857285	-0.176323782586696	0.09761813937312656	-0.1003070321905255	-0.1620190827123735	-0.04118069795108139	0.6644384971026984	-0.1928643368483517	-0.1971779887804904	-0.06010847778436527	0.6514963391234937
0.2399999999999998	-0.0736431224153543	0.1238492087614904	-0.07707433760942227	-0.03634876000000001	0.94072196	0.28249865	0.4324366949984985	-0.2373405632241208	-0.0943347945683483	-1.142432234036616	-0.01666369771235943	-0.1727309272010215	0	0.2014972341438159	0.1599640226189313	-0.4157899423387809	-0.1034259500500721	0.1024314432908616	-0.0446142438714241	0	-0.06017518549010698	-0.1690871965148488	0.09127273831410114	-0.1064965257799971	-0.1606763621725049	-0.03948515316880264	0.6549897863145612	-0.18000667706502	-0.201836221939515	-0.05901377219639647	0.6599095631706494
0.25	-0.07052857502710104	0.118712925069143	-0.076088502320889	-0.03742846999999999	0.94220157	0.29286591	0.4516038627957225	-0.2275437205112673	-0.09355352655209277	-1.131274257211219	0.008286675284548508	-0.1775386937126387	0	0.1765677865974419	0.1612945125895336	-0.4085207650356795	-0.08577682739926488	0.1066058294678642	-0.04338584082676478	0	-0.06630991536003995	-0.1605813277730033	0.08463364529132195	-0.1106281969434193	-0.159620436404252	-0.03795786894745752	0.6436894171512065	-0.1675539860280285	-0.2065590300119353	-0.05683223542244508	0.6679001011106291
0.2599999999999998	-0.05698661993825004	0.1107698384625137	-0.07350626995862562	-0.03847902	0.94461773	0.30333195	0.4555121070312141	-0.217618095014364	-0.1005314262053947	-1.112903837104452	0.03245166704775274	-0.1757122480147299	0	0.141118765792406	0.160052222483615	-0.4034737400635526	-0.07021579170733533	0.1088843473815648	-0.04298750694957599	0	-0.08544914689365779	-0.1491160141742939	0.07248217382314809	-0.1070160181449313	-0.1583719936636542	-0.03780867541047023	0.6224699175592269	-0.1552843158014548	-0.2147031131183263	-0.04887042595101898	0.6823894447770409
0.27	-0.05244757563658884	0.1059323228406227	-0.07074312285722628	-0.03953760000000001	0.94586294	0.31375544	0.4705352144453206	-0.2098838726376736	-0.1067958692944017	-1.092658296859466	0.0651284300817998	-0.1725348600544451	0	0.1162708272164952	0.1606084435573281	-0.3961624500599957	-0.05650797000258535	0.1160221172744872	-0.03729233388843466	0	-0.09300271390466566	-0.1405113350131101	0.06372981572170192	-0.1110571014841873	-0.1581159205265979	-0.03799124610047388	0.6137959734358814	-0.1421195278116558	-0.2215335519975224	-0.04483194280328263	0.6916203972921251
0.2799999999999998	-0.05040873935141856	0.1034665683700886	-0.06824203215021069	-0.04081522000000001	0.94664676	0.32433266	0.4863066722678584	-0.2041185813228993	-0.1113217651318218	-1.066216716993115	0.06945004176252514	-0.1816792477292889	0	0.09377680058918095	0.1637306084274152	-0.3886474012438488	-0.04196124043396686	0.1214125141348612	-0.03422311253400928	0	-0.09628614318337973	-0.1337830657884637	0.05543802819324138	-0.1176936805347119	-0.1576748351584474	-0.03907590784219624	0.6063913465400534	-0.1301933731139266	-0.2272463303693615	-0.04280839864374245	0.6997445674134815
0.29	-0.04136705593454972	0.09617417480801496	-0.06315029836416261	-0.04183767000000002	0.94805534	0.33448109	0.4897831566039258	-0.194356854460063	-0.1236266168327926	-1.03144354666658	0.07750274745779634	-0.2008585881508481	0	0.06464828494312135	0.1612942694651688	-0.3806660765479245	-0.02880763337242194	0.1227185038715558	-0.03282224704824216	0	-0.1106820640873211	-0.1228050325834807	0.04260337115131925	-0.117541604411932	-0.1556014182155314	-0.04458601055277922	0.5966106919305452	-0.1163245681730921	-0.2359841743127481	-0.03729534859565162	0.7110401437281771
0.2999999999999998	-0.03619112848976437	0.09229351938465016	-0.06021667072716021	-0.04300288999999999	0.9486729699999999	0.34491174	0.4972257529630979	-0.1881564197505765	-0.1351987520866399	-0.9923964508942086	0.08303737937475268	-0.2155906620867175	0	0.03978176122867064	0.1622180038213427	-0.3759267688308876	-0.01624293583068374	0.1314127524572873	-0.02628189393349944	0	-0.1187067459034577	-0.1147090238732041	0.03419957956157294	-0.1225077363402886	-0.1556996313831996	-0.04980852436693681	0.5926714059671093	-0.1028062064965022	-0.2433097826484225	-0.0344842530600158	0.7203479114997672
0.3100000000000001	-0.03140614141241345	0.08800254609091211	-0.0560182830830149	-0.04379805000000001	0.9491798	0.35540862	0.5018679486406918	-0.1800800309845533	-0.1466995009306197	-0.9481067398270855	0.0908279460411523	-0.2289819587323074	0	0.0183646692468814	0.160680127894899	-0.3696173294084348	-0.01054862094793561	0.1423385072915865	-0.02227473037012429	0	-0.1257220957846513	-0.1068852369588879	0.02430520505759122	-0.1272082898939497	-0.1537724740787984	-0.05681003797595237	0.587674585565449	-0.09025301957571379	-0.2516791971860241	-0.03151453135545031	0.7289462582573588
0.3199999999999998	-0.03181126094197519	0.08650470826566178	-0.05193454188942536	-0.04528630999999997	0.94866409	0.36590296	0.5126214658322908	-0.1765855526529637	-0.160034038945336	-0.9021238464553594	0.09745184876531968	-0.2298846908434604	0	0.0004166120123132236	0.1635755059037124	-0.3700980796527649	0.0007361777840961058	0.1485972417576761	-0.01652312069135632	0	-0.1254335432919459	-0.100397365196621	0.0162343687075174	-0.1349529256030892	-0.1561642497237865	-0.06114902755097396	0.5839343631298495	-0.07778784908550471	-0.2574119260674768	-0.03048806115991746	0.7365576040441881
0.3300000000000001	-0.02492944111742967	0.08087367875462795	-0.04626727638597364	-0.04611976999999998	0.94905091	0.37618746	0.5099403369375365	-0.1676771352383188	-0.1753456890783041	-0.8466724190203845	0.09839835670117239	-0.2297554746941573	0	-0.02228201851601477	0.1598513270581959	-0.3637166567433076	0.004937039558653915	0.1542265590082836	-0.01390560101932259	0	-0.1357028445389192	-0.09107282358918872	0.003896836938033461	-0.1376859173056324	-0.1540516916779995	-0.0685061399523115	0.5821878309969346	-0.06413130829577096	-0.2656104157990415	-0.02855100993305251	0.7438213092164858
0.3399999999999999	-0.02268951127887368	0.07964023160729802	-0.04077791183260575	-0.04717321999999999	0.94861282	0.38644224	0.5131177468889698	-0.1625178182255796	-0.1881434509070366	-0.7905465028127913	0.09551866466447838	-0.2270337546769893	0	-0.04045759512654367	0.1609252665441915	-0.3623271318834211	0.01118513275229413	0.1637579102638383	-0.003062433768964366	0	-0.1396949830863627	-0.08614235327530639	-0.006143395255136202	-0.1422147578625665	-0.1530279384365133	-0.07752368180950937	0.5788365483783577	-0.04988990994262193	-0.2736898374237059	-0.02727258243590544	0.7503908896148824
0.3500000000000001	-0.02198943905516655	0.08066041734649744	-0.03906092971198535	-0.04778597999999998	0.9476187	0.39691801	0.5184460285284629	-0.1575326477221434	-0.1953074670612505	-0.734118298894878	0.08803690713114869	-0.2176353826751379	0	-0.05704083350945201	0.1642297788766709	-0.3544440440916429	0.0170360012254852	0.1746462550128186	-0.001934357485697426	0	-0.1398227958164142	-0.08468034698597973	-0.01123368938288094	-0.1484055058201715	-0.153455238147034	-0.08165345998882488	0.5760917043193974	-0.0361643960097774	-0.2817642852090679	-0.02890263495973357	0.7568451990446993
0.3599999999999999	-0.02162678638957619	0.0804804729702996	-0.03452336789051599	-0.04849118999999999	0.94665085	0.40712651	0.5207912974320708	-0.1517044357170384	-0.2046130706245682	-0.6720780536934252	0.07386922293349057	-0.1956011351139936	0	-0.07099506254332781	0.1653069329100829	-0.3517583188723034	0.01915101006260785	0.1835787204465621	0.001868651773479296	0	-0.1421270093400274	-0.08020954089560249	-0.02328453424209691	-0.1509953862836377	-0.1523820526432752	-0.08669026867617517	0.575398275582802	-0.02480975949852346	-0.2907319572499498	-0.02986685187884165	0.7636017214847441
0.3700000000000001	-0.013691747560225	0.0793822301821992	-0.03096015630548825	-0.04894074000000001	0.94618504	0.41783021	0.5121500284903164	-0.1454069802488286	-0.2163423335076494	-0.6077284591625025	0.07565753056924941	-0.1606626355070038	0	-0.09321983391081133	0.1648779475605706	-0.3418516504436035	0.01945707449089608	0.1978361440638371	0.0001829162651955373	0	-0.151244758054498	-0.07685822878096137	-0.0317520448357738	-0.154167406483808	-0.1499040284117071	-0.09680078126406537	0.5729600925056679	-0.01111791279241697	-0.2979594058250312	-0.03105610439585195	0.7699120503269837
0.3799999999999999	-0.01510721963362893	0.08129411846448498	-0.02876288471029882	-0.04934393000000001	0.94451649	0.42821158	0.5148654740488235	-0.1401865398858224	-0.2210048790261898	-0.5442627325260455	0.07079714796573819	-0.1218214706094764	0	-0.105935028925021	0.1678147031371585	-0.3381025418386504	0.02233835198468261	0.2089302074556244	0.003728819675997573	0	-0.1499487262938507	-0.07621694454829618	-0.03835464145309746	-0.1583595936229175	-0.1492009631887128	-0.1007452311331591	0.5723937506166882	0.0009654794902889713	-0.3046323296118992	-0.03167154955254012	0.7761054775395234
0.3900000000000001	-0.01275841705263171	0.08624982092229831	-0.02783167916857124	-0.04970924000000002	0.94292826	0.43894204	0.5133028003098344	-0.1389568835202272	-0.2286870342170359	-0.4820148496922732	0.07337561310323173	-0.07314977308307728	0	-0.1226066212851859	0.1742660774467724	-0.333901067453525	0.02422366571839899	0.2195022329197633	0.00296600066260025	0	-0.1519695625750564	-0.07916104551757411	-0.04482027510270013	-0.163555071763363	-0.1484944275530338	-0.1054332909219027	0.5723565724856269	0.01165673921667307	-0.3132224947895564	-0.03549770850984944	0.7845994838020418
0.3999999999999999	-0.01004780861532235	0.09082011905890837	-0.02768422832204234	-0.04979935999999999	0.94125641	0.44958146	0.510120422802284	-0.1362589275570885	-0.2337309277194188	-0.4200170109301891	0.07293711448756558	-0.02675221845354279	0	-0.1390145418683302	0.1797081093494679	-0.3283665580586822	0.02481892247709643	0.2302369642599585	0.001702401482778127	0	-0.1540590908268304	-0.08208989737064444	-0.04847711652768083	-0.1686364586032701	-0.147656957665936	-0.1089713253412392	0.5731321175672651	0.02465645658381236	-0.3204730297073184	-0.03806776203301301	0.7899998503321692
0.4100000000000001	-0.01174547634554616	0.09640906099082031	-0.02818903941526606	-0.04969556	0.93905446	0.4599400499999999	0.5106428548252774	-0.133267200392248	-0.234359772990505	-0.357715419428411	0.06726241553481355	0.01283022739628057	0	-0.1514207048709245	0.1864045675050358	-0.3253648160200608	0.0280530825072901	0.2380120406056479	0.001709578451195253	0	-0.1524348064416472	-0.08648377510718031	-0.05239036776373052	-0.1713443502022416	-0.145675023028428	-0.1121343649497433	0.5735070704901954	0.03683976093768042	-0.3273616240043885	-0.04011509241226401	0.7961259889933922
0.4199999999999999	-0.01102858852174307	0.101865058996459	-0.02772163156052889	-0.04946738999999997	0.93693877	0.4705943	0.5079579685857094	-0.132073091671127	-0.2398497623522551	-0.3006472935073138	0.05898449848698447	0.05011217779739634	0	-0.1651432714662612	0.1918976497647533	-0.3215778152698492	0.02709763482047574	0.2506363231644504	0.00396090989473635	0	-0.1524198009734032	-0.09126826608242583	-0.05705518238483143	-0.1763554741007208	-0.1447122493220784	-0.1153785400282508	0.5741170836586527	0.04689344176540133	-0.3366414406770737	-0.04294356968192044	0.8028253133286577
0.4299999999999997	-0.009833900874002356	0.1071644154028471	-0.0296661400107541	-0.04916141999999998	0.93485666	0.48133898	0.5039489446758845	-0.1298738891980857	-0.2402256361108987	-0.2447781866166553	0.04509058139980643	0.07582288131725409	0	-0.1795435604057216	0.1978696210496866	-0.3191256404117008	0.02681256111803539	0.258912694374161	0.003376528282608096	0	-0.1529032077833878	-0.09569698198709489	-0.05854155870650368	-0.1796277282107673	-0.1431992335164342	-0.1192209523642193	0.5735696522375855	0.0576423338344826	-0.3429219406206662	-0.04692801307269189	0.80937782859576
0.4399999999999999	-0.01058887538509267	0.1117863443052697	-0.03236904798521103	-0.04836521000000002	0.9325795	0.49194729	0.5014529927713057	-0.126714689139403	-0.2397224943394631	-0.193662974555856	0.03025802344837904	0.09147126620038991	0	-0.1908276194672163	0.2025655463392373	-0.3192432333663173	0.02545187066818823	0.2674522778157003	0.00329644262814986	0	-0.1513330884698097	-0.1006647480672302	-0.05845944916824484	-0.181882630423425	-0.1407335553949288	-0.122729045311172	0.5719434863874685	0.06969495648607466	-0.3483080708491508	-0.05185076990394504	0.8156295148987313
0.4499999999999997	-0.01078722138410564	0.1163120959228886	-0.03444161516831457	-0.04760243	0.93039539	0.5024089899999999	0.4984999489094735	-0.1243671802802332	-0.2396048380293947	-0.1499497974024127	0.01406618265514621	0.09968155697569198	0	-0.199138192148949	0.2059592645441812	-0.3179782689899542	0.01669843255700092	0.2784186195836229	0.004845287774409499	0	-0.1502743340464381	-0.1050997024767776	-0.05850494222239563	-0.1850680435821434	-0.1402035893091534	-0.1243051200372237	0.5714834818247593	0.08086078886390144	-0.3544816398799943	-0.05672266958612433	0.8199444161375484
0.46	-0.008519611100252511	0.1139956375042163	-0.03494403700790091	-0.0466116	0.92868973	0.51335434	0.4890083972695167	-0.1151446133740731	-0.2466811559265519	-0.1085975602893978	-0.006136770159828558	0.07839035105499302	0	-0.2123991355632281	0.202090986603231	-0.3220872219006349	0.01160293211209748	0.2923059778980048	0.01313496869046286	0	-0.1523364194391855	-0.1022024548712694	-0.06101924224980177	-0.1869409042171139	-0.1385983831180237	-0.126525669981412	0.5704510028096776	0.09055857925478235	-0.3591777822885038	-0.06052307603578756	0.8223166741145775
0.4699999999999998	-0.00818159880067189	0.1203301498360658	-0.03636981607926219	-0.04622034999999999	0.9266155	0.5241261	0.4908398415904033	-0.1168300001655723	-0.2522293986191471	-0.09000192848100734	-0.01611764213434157	0.06284260238012597	0	-0.2214957650956179	0.2082343951228696	-0.3229597200222215	0.003308596751994898	0.3002490917515494	0.01335475905036406	0	-0.1522644059325177	-0.1087040199632488	-0.05797551055643715	-0.189334873391906	-0.1379954430708932	-0.1300150669614173	0.565499888043271	0.1028345817104152	-0.3601738036444393	-0.06717598648118893	0.8290638531090047
0.48	-0.008539239466539394	0.1237316673506815	-0.03500083128842282	-0.04584604	0.9247423	0.53550431	0.4937456486396291	-0.1169399084354923	-0.2551348806880661	-0.08314344495325858	-0.01352262132716237	0.02144892504201637	0	-0.2307690921105455	0.2102570605091314	-0.3245683357140449	-0.005256630812243876	0.3079175874720707	0.01700616080766507	0	-0.1505349865783858	-0.1112766127659411	-0.06466537032023496	-0.1889277919245061	-0.1353021579578987	-0.1370416246489356	0.5611262449559512	0.1064640966898304	-0.362104149490851	-0.08064775659339689	0.8325223661388301
0.4899999999999998	-0.00696472604925528	0.1260690153514702	-0.03523693101113393	-0.04594615999999999	0.92333246	0.5468991599999999	0.4998777886154849	-0.118792277334248	-0.2649010443523939	-0.09361840358198206	-0.00970344246513055	0.009696126219439116	0	-0.2407884285237786	0.2126274083978269	-0.3310269070633623	-0.0149732478952331	0.3101047515365963	0.01531458368237489	0	-0.151080096537015	-0.1115355889091422	-0.06433740026450495	-0.190346918441171	-0.1364274071568432	-0.1384169098910538	0.5581651701360988	0.1140555856912268	-0.3610481785185705	-0.08379127975567233	0.837374412526235
0.5	-0.006574636274121968	0.1277126972203262	-0.03295341221741414	-0.04598506999999999	0.92210976	0.55858146	0.5058368987436933	-0.1213101097335273	-0.2674774679782614	-0.1106651937347714	-0.0006708438270086509	-0.005595530468815726	0	-0.2501829698769876	0.2128819248757234	-0.334231970535063	-0.02471331888724356	0.3118183009609057	0.01702988803524716	0	-0.1500735012783392	-0.1112088706035517	-0.0671160037035881	-0.1923726484510664	-0.1376322034016389	-0.1397475468183791	0.554972844251812	0.1196872135832311	-0.3606568737804111	-0.08942979768396467	0.8412991843316113
0.5099999999999998	-0.006909286677359542	0.1279114981766701	-0.02968968251537166	-0.0458682	0.92112195	0.5703591299999999	0.5106514825113688	-0.123097867066973	-0.2641142576050435	-0.1309946768118633	0.004217351470797727	-0.01769600289264753	0	-0.2580099592959483	0.2104711710440478	-0.3373146780486186	-0.03607019483046073	0.3101462366166529	0.02023335034189212	0	-0.1485307125991169	-0.1098461440525992	-0.0699224296108102	-0.1926954258032059	-0.1376908468135717	-0.142395973304406	0.5497448286362534	0.1242226186725478	-0.3589116939286008	-0.09544036430731201	0.8449337349349842
0.52	-0.009361648940218384	0.1306950117107464	-0.02885442958789992	-0.04526786000000002	0.920037	0.58255385	0.5159116078218411	-0.1246528234836084	-0.2428969281554559	-0.1532107505055525	0.008144835866897432	-0.04139934459672375	0	-0.2641295582084641	0.2108967980310134	-0.3435373838574922	-0.04678376300627797	0.3083182016219271	0.03035985834877808	0	-0.1419546713408953	-0.1121515562683425	-0.07177748579301525	-0.1915765584006713	-0.1354817460547436	-0.1495786616890894	0.5374797484510795	0.1235186240617267	-0.3536498033921232	-0.1199231922210104	0.8503094642228574
0.5299999999999998	-0.008834265860934103	0.1275776921004884	-0.02561613778777967	-0.04479009999999997	0.91955505	0.59511526	0.5149904708646599	-0.1232987387559142	-0.2412180776220054	-0.17629512497851	0.006480816792364539	-0.0459881806721622	0	-0.2732179257012408	0.2040702060320217	-0.3467695686985714	-0.05865046672822936	0.3040952879613362	0.03135700596567986	0	-0.1395846067191373	-0.1073461740510165	-0.07374880551254555	-0.1937594504227868	-0.1360750784134078	-0.1502923360704749	0.5350167426031919	0.1245929195948898	-0.3509564118140443	-0.1229203803465474	0.8527767613117769
0.54	-0.007758404361962406	0.1243441091113459	-0.02271728159751044	-0.04395808999999998	0.9192656299999999	0.60795564	0.5114822147294221	-0.1211515771142455	-0.2366618079941458	-0.2008900911693136	0.004185602360907623	-0.04995646021966511	0	-0.2818355829562095	0.1959629354102138	-0.3493178373710774	-0.0729444513281422	0.2961893929050247	0.03348211868837522	0	-0.1369970660440663	-0.1030852270480308	-0.07478892261203265	-0.1967874867192541	-0.1361593275507967	-0.1506714631228443	0.5316522354503398	0.1234058763156467	-0.3485973012277377	-0.1267274324864035	0.855776627994117
0.5499999999999998	-0.007608679084051715	0.120641698175976	-0.01965039426961591	-0.04276857999999997	0.91914354	0.6210274	0.5066641930121861	-0.1180344855672281	-0.2313402036353049	-0.2220137269813311	-0.001745213362131997	-0.05029483121600652	0	-0.2882751253297582	0.1863245598667951	-0.3518298562531512	-0.0893572591822579	0.2859263538994075	0.03580543641144776	0	-0.1326355819675133	-0.09940249593252473	-0.07426492415603565	-0.1996608458287573	-0.1353700620868426	-0.1514872197177839	0.5270070385045642	0.1215926717326411	-0.3455255926045953	-0.1304439905262741	0.8590449455140355
0.5600000000000001	-0.006744997484537133	0.1160548019398265	-0.01942297349182659	-0.04153482	0.91935394	0.63383384	0.5043844217775496	-0.1142443971550368	-0.2320155706576031	-0.2422713995335473	-0.01744777361431556	-0.05312475082575681	0	-0.2930887551004646	0.175889714663869	-0.3544207422007994	-0.1089299502169256	0.273328115841835	0.03805568051486486	0	-0.1299513891472571	-0.0942100345936914	-0.07217248417147054	-0.2013277738435545	-0.1363303876198504	-0.1512557707330123	0.5231562916978186	0.1193614731856205	-0.3415673129210417	-0.1349947002332686	0.863114937439824
0.5699999999999998	-0.01513662016539142	0.1008907752423965	-0.01549906199605288	-0.03962129	0.91993232	0.64680869	0.5029190096527206	-0.09768279334993744	-0.2317755243554691	-0.2420782261428707	-0.04889557719273777	-0.08531997542478353	0	-0.2825835921527719	0.1499835101822442	-0.3617362476980988	-0.1392966684077957	0.2689336115320976	0.04637606055073032	0	-0.1165942026929693	-0.07795788429722175	-0.07706516601265209	-0.1956601729703374	-0.1348242665628833	-0.1549914959787282	0.5031027177737978	0.105936974792604	-0.3308955041910394	-0.1624808840915477	0.8708305443092457
0.5800000000000001	-0.01383169743188758	0.0956513094330126	-0.01867117774469487	-0.03770719	0.92084098	0.65915404	0.5003854916303878	-0.0920083312383649	-0.2295685869322488	-0.2590272232287427	-0.0560546303286907	-0.08434472610494068	0	-0.2828280146934724	0.138263589872116	-0.3613730176281553	-0.1657793399569897	0.2507921442402063	0.04534099635396067	0	-0.1161583016508289	-0.07326989851043844	-0.07025761084341069	-0.1949921012497797	-0.1349076377996584	-0.1549923908090358	0.500967880949175	0.1046548693631242	-0.326920617874186	-0.1637401260568922	0.8733311623515795
0.5899999999999999	-0.01547376743953733	0.08597555957498033	-0.01902518740604058	-0.03589066999999999	0.92180567	0.67201484	0.4960924263803752	-0.08308717117485113	-0.2318188491870901	-0.2720548648167164	-0.07138525096889756	-0.08794726335557482	0	-0.2772127729996834	0.119614580135613	-0.3667387416415586	-0.1982334722823109	0.2276049733649648	0.03726666934538286	0	-0.1109601910302727	-0.0638294242801071	-0.06436612018094529	-0.1965064916767428	-0.1338240236045531	-0.1557143418908001	0.496569857008468	0.09963813300936941	-0.3200521711344022	-0.1661885449664904	0.8779841036723121
0.6000000000000001	-0.01976813029189296	0.07452347376343955	-0.0175912790887639	-0.03404453999999998	0.92287508	0.68545299	0.4934328458441647	-0.07224292251848838	-0.2301341022332947	-0.2877216234790196	-0.08998609590123079	-0.1009158793045094	0	-0.2684436216892404	0.09854160337779935	-0.366668001527113	-0.2312854102451691	0.2003894029817404	0.02673608393180566	0	-0.1016836759969335	-0.05157990440334641	-0.06344543823110019	-0.1962539753461691	-0.1350663110924779	-0.1578464343597071	0.4908956593142771	0.08714702710100863	-0.3143794074027248	-0.1715297764254345	0.8817295179388377
0.6099999999999999	-0.01909895061729468	0.06942063577947037	-0.0169027500332201	-0.03225946999999998	0.92422276	0.69850698	0.4886744690087863	-0.06895858479589866	-0.2323374933220079	-0.3082480529995651	-0.07841118260681312	-0.1130939893839906	0	-0.2616951921664041	0.08368845071573135	-0.3701374274026195	-0.268161329343496	0.1700638715941576	0.01798565145212321	0	-0.09955409435868834	-0.04747811781457438	-0.06065351932608773	-0.1960407750004576	-0.1333733434633727	-0.1581599440135185	0.4885165914115727	0.08031520644464381	-0.3097568890907167	-0.1722928022603482	0.8848355128570036
0.6200000000000001	-0.01939239329076931	0.06267859791567314	-0.01615282789421247	-0.03038079999999999	0.92557793	0.71152728	0.4838807152221346	-0.06303200463788776	-0.2338409642710388	-0.3268861107950119	-0.06053671142056875	-0.1234520469066131	0	-0.2505730603895863	0.06606823455706147	-0.3734658608687609	-0.3099723894313165	0.1356915929248303	0.005387588102008766	0	-0.09618627090572457	-0.04184626442603078	-0.05742524489519764	-0.1956102506196109	-0.1331013459422212	-0.1578763767047555	0.4870148451969087	0.07203074703011364	-0.304891183058454	-0.1726190376333346	0.8910205214738964
0.6299999999999999	-0.02321518135634235	0.05337883657669682	-0.01513164599850159	-0.02860256	0.92663334	0.7245826	0.4809549655172767	-0.053420191783954	-0.2344207444971271	-0.3446636179457337	-0.03815142631056954	-0.1260186605603539	0	-0.2311205352739185	0.04494944534984391	-0.3755638956807762	-0.358536915014997	0.09697190556123568	-0.01864809710383711	0	-0.08895079294341947	-0.03201816967305817	-0.05734894049656385	-0.1932340042161753	-0.1351758825138523	-0.1585567886012565	0.4857403918144684	0.05605537977307151	-0.3009268299781693	-0.1698407775005153	0.9009133332100658
0.6400000000000001	-0.02703515396770975	0.04436176362172286	-0.01284200586704877	-0.02637092999999999	0.9277139599999999	0.7370706299999999	0.4756320484963055	-0.04360125215557272	-0.2366379711598867	-0.3584980514194769	-0.01159619095239458	-0.1262637009476096	0	-0.2054484258707442	0.01952862565984498	-0.3847311035355899	-0.4164493795664631	0.05279179698234773	-0.03626466168464597	0	-0.08320658572960796	-0.02480471392618887	-0.0562615069974564	-0.1920938015597984	-0.1354308543481505	-0.1575363483437564	0.4852297512359016	0.04590693559548187	-0.2991942409315828	-0.1665906700478804	0.9068863764762257
0.6499999999999999	-0.03227238808012658	0.03283185431853557	-0.01163087548262791	-0.02422062999999999	0.92867928	0.74922592	0.469976868607776	-0.03127843194088677	-0.2420573268722756	-0.3680483932535566	0.01002622644952118	-0.1247598779656685	0	-0.1751238044978335	-0.009524486352007788	-0.3959309373707064	-0.4765981730602861	0.0003071231450124893	-0.0586598213439542	0	-0.07689521492580499	-0.01412491944219405	-0.05432395730455708	-0.1888177853925493	-0.1362686486919563	-0.1571289185086379	0.4859905777814248	0.03471333939257897	-0.2960982099235834	-0.16092242340284	0.914891755474434
0.6600000000000001	-0.03850686222222396	0.01871528124795691	-0.01087053234656173	-0.02192223999999998	0.92936343	0.76098984	0.4637285982632168	-0.01626459519216806	-0.2520315569963202	-0.3735257429408639	0.02660532019905481	-0.1180865871360587	0	-0.1421486053460599	-0.04188617958242512	-0.4043538300183194	-0.5365035124966104	-0.05254639635913446	-0.08845261907716666	0	-0.06963174572202226	-0.0006691634240048307	-0.05001557609222648	-0.1873506748878252	-0.1386113596410123	-0.1552090748319342	0.490937246321562	0.02472634270865486	-0.2930885620670493	-0.1529661324879758	0.9209587786121615
0.6699999999999999	-0.05239521265747354	0.003098285366420381	-0.005344344001413284	-0.02014143999999998	0.9292889600000001	0.77226376	0.4630720862073609	-0.001852299260118585	-0.27113197397817	-0.3727601361130523	0.04065060288547424	-0.1043316026206625	0	-0.09586963623988749	-0.07704780434991788	-0.4024935394191548	-0.6019985278693076	-0.1035288490777161	-0.1329551908489287	0	-0.05453088650773325	0.01449523589796642	-0.05162772485405473	-0.1850547481875005	-0.1400217266992273	-0.1530353904688205	0.4985470827476541	0.01353172985146268	-0.2925740826367926	-0.1408003917314364	0.9274419142489703
0.6799999999999997	-0.06158916975070163	-0.009143330287680239	-0.002876827145401337	-0.01829018999999998	0.92971031	0.78318948	0.457314878734083	0.01089728764153454	-0.284519597578349	-0.3701752293143555	0.05633982480791529	-0.09529058451422898	0	-0.05526055369012063	-0.1058667474558928	-0.397124865101184	-0.6637866785862671	-0.1493706617264171	-0.1651222716647012	0	-0.04577236896482386	0.02605841394755953	-0.04932706551893037	-0.1833976509142481	-0.1431906140333902	-0.1490230567166022	0.5077413163278032	0.005133029387144441	-0.289543340556386	-0.13143069636186	0.9320181418913593
0.6899999999999999	-0.06824149339575747	-0.02098049382544635	-0.001433857546867011	-0.01659124000000001	0.93039481	0.7939256299999999	0.4473801091081627	0.02467336219201303	-0.2932245623111548	-0.3642478555551338	0.07444258610751806	-0.09026355577934224	0	-0.01767321360500546	-0.1318455511766823	-0.390528753603762	-0.7210424357795341	-0.1928403013956237	-0.1896585851933269	0	-0.04047588181378144	0.03688116189286697	-0.04385386814444665	-0.1783373888414753	-0.1469300624154666	-0.1473690518177184	0.5155648384756719	-0.0004715396182685876	-0.2847997885476741	-0.1230646159267286	0.9349735356644964
0.6999999999999997	-0.07782211761950072	-0.03029847799178443	-0.002362294290718049	-0.01487669999999999	0.93079245	0.80415209	0.4412026317615252	0.03736135101384259	-0.2954927655035092	-0.3566419958617423	0.08014165212555596	-0.08472485811789333	0	0.0262811130731921	-0.1519654870567201	-0.378217985062094	-0.7785755730893656	-0.2450029031683703	-0.2335388493483149	0	-0.03268104502483392	0.04564801460468512	-0.03961407697545603	-0.1755755215391225	-0.1509303223289855	-0.1428782583912803	0.5294691846032623	-0.008429931735019276	-0.2820599108231	-0.1114444656179614	0.9374640520901857
0.71	-0.08643106781915769	-0.03653591785554297	-0.003165007356522118	-0.01339165	0.93126214	0.81415117	0.4355437043020259	0.04651744443744663	-0.2965197179335143	-0.3519973804596734	0.09240456059754164	-0.08396490860031922	0	0.07055586265436821	-0.1669276180772826	-0.3648583045323051	-0.8327736415403055	-0.2784257138234335	-0.2841969713717228	0	-0.02651257863859159	0.05041572301744224	-0.0320423730264602	-0.1715221683606921	-0.1550725740273992	-0.1392350336760578	0.5416637463308057	-0.01323560036087558	-0.278121404498241	-0.1016500684604558	0.9396304874027842
0.7199999999999998	-0.09641294769112375	-0.03992959450256428	-0.003860654351613229	-0.01206023000000001	0.93176051	0.82417934	0.4311747997836251	0.05340139511150879	-0.2927582717706117	-0.3466578917119875	0.1024413520486239	-0.08533943759127254	0	0.1157520640501225	-0.1768884599551681	-0.351201610677196	-0.8829998753825892	-0.2838204462562023	-0.3243376518816173	0	-0.01838459671814896	0.05221183977987328	-0.02514909426567783	-0.1681437397635945	-0.1596055370520265	-0.134385637745655	0.5537871174744237	-0.01851784929041315	-0.2744534489911166	-0.09155965072090845	0.9384751543125889
0.73	-0.1038343664198499	-0.04536853146545036	-0.004726156003603549	-0.01092751	0.93235786	0.83392453	0.4251974162326814	0.0623343436523893	-0.2860022568723133	-0.3429882167064839	0.1097936386145797	-0.09124820107921319	0	0.1591948692820797	-0.188208486587355	-0.3379656673591224	-0.9318284256488651	-0.2543970619454073	-0.3400854369308457	0	-0.01431389060363061	0.05688167361883707	-0.01685849024498309	-0.1638938492468872	-0.1665947834398614	-0.1292938248323951	0.5689530015479897	-0.0225044195394111	-0.2696606902166714	-0.08112902764397584	0.9373082016928984
0.7399999999999998	-0.1084909040034473	-0.04986579873024166	-0.005429004553760106	-0.009778229999999999	0.93328665	0.8435215	0.4149904272542615	0.07140386699976517	-0.2763774948970603	-0.3365282599148062	0.1186072377014845	-0.09806725936448865	0	0.1998272755393056	-0.1983930178906905	-0.3267184363156411	-0.9763783621658678	-0.2176498474403797	-0.3511237443834145	0	-0.01325267858213927	0.05997515574799686	-0.008708915983699413	-0.1581874882761747	-0.1726845628785081	-0.1252813292881551	0.5839146147293631	-0.02506146983604853	-0.2646703472554641	-0.07150107066899403	0.9336339944163933
0.75	-0.1116362850200663	-0.0523602038361	-0.005866950815519938	-0.008928839999999993	0.93444783	0.8530335099999999	0.4021208147580805	0.07783487314247534	-0.2670950213096547	-0.3282880740928785	0.1234649873012861	-0.1063258598062884	0	0.2391469002855856	-0.2044802049917992	-0.3148884195890995	-1.014734281898109	-0.175833542463624	-0.3545232071650585	0	-0.01458506851816535	0.06127336375968848	-0.0004679524430569637	-0.1526480336654292	-0.1800592406225035	-0.1198142028669416	0.6002040888918866	-0.02762248604434527	-0.2590767130868806	-0.06447764549841725	0.9279368255712522
0.7599999999999998	-0.1150485167172168	-0.0554551683490275	-0.006404958968159824	-0.007888229999999996	0.93570529	0.8628099	0.3882327590101294	0.08523716688215928	-0.2589838414993881	-0.3176167640034435	0.1303451139589572	-0.1114183879554757	0	0.2776818063251461	-0.210352097177561	-0.3027079299277162	-1.044581156912866	-0.1599640145904167	-0.3579968994979215	0	-0.01402173854387587	0.06218124529026654	0.007978376485751875	-0.146315553976988	-0.1854128019599484	-0.1154456420038705	0.6121656587635997	-0.03147313389092225	-0.2538502525596855	-0.05924090061860475	0.9254808603815672
0.77	-0.1131369951484734	-0.05448350953266934	-0.006187391665571603	-0.007207909999999984	0.93734005	0.87247555	0.3687442553281951	0.08748922420813626	-0.2515539434577217	-0.3075772498387281	0.1386766157564152	-0.1131143437627933	0	0.3086010453171822	-0.2097187332490413	-0.2923620017452634	-1.066281686350921	-0.1422474791208499	-0.361303719155672	0	-0.02011423685643127	0.05922312810536462	0.01447008011839158	-0.1367075166192921	-0.1908302418244174	-0.1133518947676956	0.6224458164821191	-0.03462704088958241	-0.2483196300130868	-0.05647308942295131	0.9201552808608221
0.7799999999999998	-0.1149597379627839	-0.05747392624878267	-0.006632695039784822	-0.006341239999999998	0.93864772	0.88225292	0.3519326788353739	0.09368430040775329	-0.2500579207012736	-0.2944724924485514	0.1433213016697857	-0.1145561607814645	0	0.343490995798501	-0.213353975351864	-0.2817368182644976	-1.084710452290984	-0.1117813724575933	-0.3443868291467196	0	-0.02181628141937736	0.06026611679507003	0.02448342795789522	-0.1337487178833173	-0.1993359955490652	-0.1056170025336383	0.643062327332282	-0.03678659227454521	-0.2408469338801676	-0.0545476922831007	0.912325380232669
0.79	-0.1143899971959546	-0.05505822256349601	-0.006322442000304852	-0.005620449999999999	0.9402495	0.89199437	0.3317898780949374	0.0941403271905643	-0.2478883846367261	-0.2799818668378041	0.1477610473571957	-0.1139839161889547	0	0.3751315926348887	-0.2108349285524912	-0.2753406490681902	-1.095677828341021	-0.09883575069795497	-0.3441480920160576	0	-0.0255421406678977	0.05494134867789414	0.03032630561563895	-0.1238512726470496	-0.2046792056877823	-0.10334657596635	0.6525947331157707	-0.04216183915341312	-0.2360954266607251	-0.05320155857734687	0.9074528707324491
0.7999999999999998	-0.1132894833012677	-0.05745814851124416	-0.006533703342878759	-0.004670039999999986	0.94167516	0.9018157	0.310451295735292	0.09991739249647261	-0.2474667010466724	-0.264467113786979	0.1511281389936041	-0.1098396332763575	0	0.4032865868370649	-0.2129148138601479	-0.2674657706070815	-1.100962179170577	-0.07448025781769188	-0.3267473307650066	0	-0.02978515842707648	0.05476243951412826	0.04021036208214874	-0.1187916699596683	-0.2129431594034637	-0.09513347224389247	0.6704800817175123	-0.04397856424005294	-0.229420409700485	-0.05343684763553871	0.8977219440439886
0.8100000000000001	-0.1130058616039608	-0.05366425119263383	-0.006087321056662843	-0.004025410000000007	0.94295468	0.9114749599999999	0.2911669563059328	0.09857839456936554	-0.2459952942394616	-0.2508568088635256	0.1572159990936723	-0.1094388011348774	0	0.4299874981956527	-0.2060604184171061	-0.2620952319284038	-1.098473561488581	-0.06411257026638863	-0.3294893163237183	0	-0.03267927002498464	0.04827254299539608	0.04751353438482171	-0.1071780866267447	-0.2183519015941384	-0.0953738747677268	0.6770617471247155	-0.04882118078804226	-0.2252438436072466	-0.05231430893292249	0.8952287766376986
0.8199999999999998	-0.1105639872330206	-0.05136717515452709	-0.007164217477706476	-0.003170189999999989	0.94434146	0.92144331	0.2687898889041836	0.09894901401429607	-0.2482169641614309	-0.2364248559862426	0.1654991582379098	-0.1023802475479128	0	0.4524864716096659	-0.2016732396033053	-0.2594793893432483	-1.092122244985121	-0.03454116091654048	-0.3248238384775016	0	-0.03790882205388382	0.04254916052662061	0.05360585572099094	-0.1020877174498421	-0.2237678334941336	-0.09124733783936517	0.6957581052003642	-0.05514961166168469	-0.2209205391316798	-0.05606193383347861	0.8839952340370077
0.8300000000000001	-0.1105137335490902	-0.04803934221207991	-0.01144654198835232	-0.00199996999999999	0.94538793	0.93121763	0.2502666575419562	0.09926548461918346	-0.2421780115031291	-0.2232985818279815	0.1709908667489731	-0.09794691559643807	0	0.4779925590112051	-0.1957641909285648	-0.2569139454091722	-1.082484213097033	-0.02298156777323097	-0.3273052802382781	0	-0.04024702603921246	0.03559598468390367	0.0643012063246088	-0.09282773644410576	-0.2285811923897401	-0.09046812564643555	0.7040786677976694	-0.06168142819652299	-0.2169561267102005	-0.05697184867263523	0.8796828376947329
0.8399999999999999	-0.1057463388657241	-0.04388752481237994	-0.02144788510114017	-0.0005564799999999981	0.94662845	0.9413039499999999	0.228158184618383	0.09862547884019537	-0.236212129671956	-0.2143862356771903	0.180467988879339	-0.08685718166839333	0	0.490712126075191	-0.1920970565988534	-0.264155677409786	-1.064230283420394	0.002695555960884272	-0.3261754942304759	0	-0.04741283028324503	0.02798945146795381	0.0815832055995102	-0.08812197412982505	-0.2378037849522402	-0.08446539537689678	0.7258759935451067	-0.06594662996315924	-0.2094720763378325	-0.06466159796558969	0.8674449577678195
0.8500000000000001	-0.1063865543637848	-0.0404295126650492	-0.02723337609729862	0.0007330400000000181	0.9471557900000001	0.9510426499999999	0.2115284749242781	0.09824703002277334	-0.2307718736417744	-0.2038162621966529	0.1870274219334645	-0.08302469589254553	0	0.5121980784518214	-0.1869522410032702	-0.2650501509719844	-1.044880171258173	0.02271309407183927	-0.3307377758194769	0	-0.04781574023919963	0.02089958231088531	0.09214788619455805	-0.07885161434915877	-0.2423702656288887	-0.08335575989344053	0.7351054579924707	-0.07383181668789597	-0.2073178935856488	-0.06633261877748282	0.8609696808250339
0.8599999999999999	-0.1066937274301906	-0.03613006218546207	-0.03538031227473724	0.002206690000000011	0.94760916	0.96107997	0.1944660551735042	0.09702429633112326	-0.224386293008973	-0.1937694173000133	0.1949132057353384	-0.07662266081915507	0	0.5291073919864908	-0.1832175636532371	-0.2722186119562043	-1.01857803621774	0.04066570888468317	-0.3280363606137608	0	-0.04844714538469974	0.01290039539179728	0.1030097734974073	-0.07020639398197798	-0.2469466695495323	-0.08155726285097563	0.7476339507732714	-0.08310367535732385	-0.2050479338939354	-0.06917194937709277	0.8517663156822383
0.8700000000000001	-0.1026566217943224	-0.03039129716070542	-0.04742246507580697	0.00370434	0.94816648	0.97055681	0.1767697807076251	0.09294086589369323	-0.2182779977213578	-0.1903786223470335	0.2056581720353331	-0.06264198987257862	0	0.5394174854178075	-0.1799636456232463	-0.2841857935850614	-0.9885205898467243	0.05503068894071109	-0.3149084598086368	0	-0.05556740630909908	0.003181364867518389	0.1231612267076106	-0.06488141345823213	-0.2562991224623624	-0.07747328211123247	0.7676925283817249	-0.08333281247896826	-0.1971918280197283	-0.07782081468988344	0.8375319852144281
0.8799999999999999	-0.1040535433372421	-0.0290564460001126	-0.05280272772805567	0.004959350000000001	0.94804036	0.9804843499999999	0.1606838805273237	0.09414541046201072	-0.2148232254557181	-0.1799727668884501	0.2139190977792953	-0.05923041520405754	0	0.5559189664699001	-0.1772571017675231	-0.2863136225636716	-0.9546573877664211	0.06611564590259313	-0.3129873795661581	0	-0.05354162324119443	-0.00148442713796363	0.1323005229079605	-0.05652600117362062	-0.2607123162813288	-0.07774237610264033	0.7765995697787875	-0.09213761440831128	-0.1957462351557532	-0.07973066600755363	0.8305895096362893
0.8900000000000001	-0.1034533361197577	-0.02565958628156904	-0.06187880651444005	0.006449869999999996	0.94807519	0.9904916300000001	0.1441569914955794	0.09247462526956662	-0.20863662405135	-0.1730328230849242	0.2236416873789848	-0.04981884222987583	0	0.5650171760488617	-0.1750317560076162	-0.296453497174634	-0.9140531900441649	0.07589140975047148	-0.3057296484813571	0	-0.05446350370863687	-0.008652232751049467	0.1439701520792912	-0.04859012659674747	-0.2649964726727076	-0.07649085983722974	0.7902108112459174	-0.09989494250083711	-0.193134972140022	-0.08399039983217629	0.8176874474550565
0.8999999999999999	-0.09796603444153325	-0.02066037257721209	-0.0717603288727192	0.007483790000000018	0.94840525	1.00032247	0.1243582443689959	0.0873202409063594	-0.2065581271531132	-0.1690065191937742	0.2321674579357579	-0.03552692811405463	0	0.5668961226469339	-0.1704670288632673	-0.3085191855355394	-0.869677575442055	0.08822289063797169	-0.2921236311337442	0	-0.06225956484605469	-0.01699491966555175	0.1596587873965707	-0.04230917478741165	-0.2725651498717147	-0.07660024607917047	0.8061921318210382	-0.1008236459839244	-0.1855392535077163	-0.0927298360394395	0.8020798763983469
0.9100000000000001	-0.09909418357752786	-0.02131094514751858	-0.0770109355853579	0.008573710000000012	0.94770386	1.01046352	0.1087166064051495	0.08965288008390097	-0.2034736010064772	-0.1606211989471005	0.2427311227491811	-0.03274627740375891	0	0.5772807671191179	-0.1701387095671539	-0.3144515387191171	-0.8248305899950152	0.08984675439880516	-0.2938203463338194	0	-0.06057906480192813	-0.01891769479726709	0.1657094894368639	-0.03334663715612331	-0.2766575193619746	-0.07745828624229932	0.8165951190055287	-0.1114816980287625	-0.1837945644424916	-0.0950141557766396	0.7926240116801384
0.9199999999999999	-0.0930354979747285	-0.01795020221646345	-0.08648317175375417	0.009611599999999998	0.94772081	1.02052032	0.08820098535959575	0.08585384947728711	-0.1988714437055228	-0.1570069297677674	0.252008716395998	-0.02273527458863824	0	0.5745639507790162	-0.1661683249780402	-0.3274519875537458	-0.7724922496236221	0.08791785001982268	-0.2957256287285737	0	-0.06797067607939231	-0.02589861195031278	0.1799510274163531	-0.02786713827037527	-0.2825307627816434	-0.07904547365423141	0.8325728316360198	-0.1133293630906512	-0.1769680947910805	-0.1031452642799042	0.7751068420294343
0.9299999999999997	-0.09420046995612857	-0.02118417046240418	-0.09077656513976812	0.01046295999999999	0.94661366	1.03091406	0.07219818938069392	0.09031822525110123	-0.1964082165498861	-0.1488788359717197	0.2626180299469413	-0.01930178556602913	0	0.5826148465678531	-0.1671173193099453	-0.3327904676756571	-0.7237470904908747	0.09093202578403524	-0.2998099126320079	0	-0.06607791397856011	-0.02450560184244304	0.1842240243470276	-0.0193679132988604	-0.2860241410322054	-0.08122953382521533	0.8426887013375161	-0.1241288323579943	-0.1751215781558396	-0.1056673034462796	0.7654427679090433
0.9399999999999999	-0.09314455740900413	-0.02273616754098889	-0.09612165870281868	0.01141633	0.9456435	1.04134694	0.05376317219484993	0.09264496783376494	-0.1919236483638239	-0.1402646290581493	0.2695874909333098	-0.01168861189587421	0	0.5846787303478618	-0.1663351063724327	-0.3418788037525073	-0.6700100884609609	0.0885735360113436	-0.3017324516206755	0	-0.06612137861105423	-0.02563394655734893	0.1919539640347994	-0.01375451938515051	-0.2904664211122222	-0.08283404764423072	0.8560287017091923	-0.1316406058892668	-0.172344590368045	-0.1087486527446112	0.7523320158364849
0.9499999999999997	-0.09007072548092818	-0.02343286393751322	-0.1014515788732839	0.01201655000000001	0.94463006	1.05179399	0.03403464175846927	0.09301620564884945	-0.1869535138718937	-0.1338034503614623	0.280507011276988	-0.006699903784577182	0	0.5817672352706037	-0.1631103725164632	-0.3497712468581421	-0.6122294172119714	0.08790731922671491	-0.2928920004686958	0	-0.06933110944224065	-0.02688055617863336	0.1991773234779762	-0.008092826276918479	-0.2947986890752284	-0.08559933369752237	0.8711722818711812	-0.1374510422395392	-0.1681484017125595	-0.1123384962155956	0.7374469917169464
0.96	-0.08229828950994894	-0.02640748960806796	-0.1070225298364344	0.01253172	0.94387243	1.06218818	0.01252334859736336	0.09382984934819655	-0.1883880699718109	-0.1336161194604568	0.289795732444984	0.003821734024056743	0	0.5729332763943756	-0.1623680469846099	-0.3613616403503604	-0.5553241997996566	0.08972012046413039	-0.2746956240713392	0	-0.07880623980286421	-0.02631041505693799	0.2096378627200185	-0.005303090255201489	-0.2997737937412696	-0.09098493020432169	0.8877235932951486	-0.1382478300725693	-0.1611700166831926	-0.1191429555198099	0.7179059180198102
0.9699999999999998	-0.08586379751073582	-0.03320356991199624	-0.1081240092836877	0.01269587	0.94174636	1.0724313	0.001331060169668983	0.1009170718879873	-0.1859969106025816	-0.1301602272170362	0.2982058763350758	0.005579613589636313	0	0.5788857467665106	-0.1631000557007218	-0.3668236559239254	-0.4992992873666725	0.07940963136667226	-0.2615318461035783	0	-0.07525454469147236	-0.01940874649844128	0.2105112200671958	0.002378982556103934	-0.303650321679061	-0.09411727139114542	0.8975744665147219	-0.1476548283642486	-0.1582555391873087	-0.1207364055221639	0.7098940343540127
0.98	-0.08524634572797925	-0.03541664304124725	-0.1132596139744149	0.01300498999999999	0.94001526	1.08292157	-0.01279988868695901	0.101464371536696	-0.1841378722771553	-0.1300298994675325	0.3094209041339957	0.008685972408951472	0	0.5751787314888581	-0.1609965093134616	-0.3806514965909521	-0.440473983851421	0.07438180641258077	-0.2226106358686984	0	-0.07576783206184988	-0.01862092197831771	0.2180744701648937	0.005582347124310787	-0.3066646142058005	-0.1000970826950787	0.9111730119332739	-0.1523571049069472	-0.1521807804012706	-0.1236434363962612	0.6906902130717004
0.9899999999999998	-0.08548189310918791	-0.04000398370030475	-0.1165316461990866	0.01304195	0.93804262	1.09346573	-0.02652559303522493	0.1046645664124483	-0.1796722969385462	-0.1291152750319222	0.319073362041017	0.01374270978929981	0	0.5733623933417136	-0.1591172412257412	-0.3887122198052081	-0.3847543853551468	0.07426171100488273	-0.1767566101040237	0	-0.07525378774217577	-0.01431852811798608	0.2234687261227768	0.009285051089644917	-0.3095656041462908	-0.1059631950484897	0.9235005475040001	-0.1561532066765433	-0.1474609275203398	-0.128715985586968	0.6680974945329041
1	-0.08826192727192744	-0.04514412466402933	-0.120730747318217	0.01289513	0.9355902699999999	1.10402702	-0.0351974874438969	0.1080744966317481	-0.1762621260383425	-0.1335860889762811	0.3357547881097865	0.01786682838944988	0	0.5737965865791809	-0.1587292198009707	-0.4019364476006778	-0.3307306035634487	0.06763967717927838	-0.1285339810817737	0	-0.07181695362152228	-0.008508928653090119	0.2285299730848465	0.01225720752851695	-0.3137726305982996	-0.1105118972777785	0.9356974842755897	-0.163198546375741	-0.141598685783611	-0.1324243335980372	0.655444616499637
1.01	-0.09049437646825256	-0.05207539523634874	-0.1205076466567525	0.01223034000000001	0.93307543	1.1146573	-0.04480881247830474	0.1130336931452561	-0.1783875667084043	-0.1366337036781656	0.3455268646005542	0.0209589338028957	0	0.5752918998592881	-0.1575743548080808	-0.4082084989289601	-0.2815635079424392	0.05690279314998375	-0.08643982806568093	0	-0.07004674400290907	4.380985862016006e-05	0.2283081567467496	0.01663899484572547	-0.3168955470071625	-0.1127129223981577	0.9474099413833034	-0.1692556490620001	-0.1362732450165414	-0.1334724936983163	0.6410986676883057
1.02	-0.09170547024137546	-0.05658496505209446	-0.1236527596492359	0.01186932000000002	0.93062579	1.1254246	-0.05442844266195818	0.1150995395480086	-0.1766910747359405	-0.1428787650603621	0.3536654790667999	0.02704511873594785	0	0.5724077183121591	-0.1564347830882285	-0.4192700546907643	-0.2344440943845249	0.06077572204432461	-0.02787625342692674	0	-0.06831933875873394	0.005233814646531331	0.2325194159712602	0.01850200187533797	-0.3209801766603216	-0.1162648044343124	0.9588131929936741	-0.1738300448068064	-0.1309614509788931	-0.1376523451993386	0.6230727776702778
1.03	-0.0960756269815836	-0.06303918385457345	-0.1237479431626746	0.01118370000000002	0.92796515	1.13594863	-0.05895800299267579	0.1193537785525472	-0.1758686296902415	-0.1524651681893149	0.3591237880846324	0.02684219558700378	0	0.5724664542265423	-0.1544727139627996	-0.4162404472489044	-0.18611321131542	0.04126953957333103	0.001224929141316161	0	-0.06397174279063784	0.01316716443010855	0.2320951030426884	0.02276900813788786	-0.3240555087615241	-0.119038628289239	0.966741074311639	-0.1812873357910828	-0.1266718587595591	-0.1375085689898166	0.6110695305577576
1.04	-0.09772293318150543	-0.06859695535585023	-0.1249423190803679	0.01072438000000001	0.92573519	1.14687226	-0.06652173410311558	0.1221392091960654	-0.1812614111939725	-0.161092300138661	0.370692380669164	0.03307298366657754	0	0.5690399875361785	-0.1536973959484971	-0.4199001911564312	-0.1431678076415215	0.02962646523750352	0.03974012866829234	0	-0.0624195120546952	0.01992643977798253	0.2332974668221056	0.02451198363885295	-0.3252085736218235	-0.1217839914091191	0.9760674876101609	-0.1851205937005917	-0.1215048924923071	-0.1383515916419296	0.5901467317026293
1.05	-0.09873457368662081	-0.07248454952597418	-0.1272585340637657	0.01020651	0.92354894	1.15776283	-0.07358018017779827	0.1223983939061121	-0.1834926451711769	-0.1727532065034561	0.3752580862450917	0.03828285152310688	0	0.5663942870799105	-0.1526011628483669	-0.4178672403703544	-0.1095745100835309	0.01697015710865738	0.05971477793087347	0	-0.06131712614535299	0.02442664716134009	0.2356211339600943	0.02664745681052108	-0.3259175499259285	-0.1255483226012753	0.9833268566864649	-0.189779459890536	-0.1167008328854882	-0.1397130167008589	0.5751531889443211
1.06	-0.1007089457996352	-0.07759683620238722	-0.1296401309540468	0.009838790000000014	0.92147163	1.16889529	-0.08086288064100995	0.1246074395125359	-0.1828198760714703	-0.1812876274356009	0.3787906535950791	0.04023840428724054	0	0.5656053478179937	-0.1530930706335392	-0.411348287784768	-0.0839853874210975	0.01320032830389033	0.06725387546425061	0	-0.05893110258198065	0.03075718743991649	0.2363797254369775	0.02959757253346723	-0.3255288624835155	-0.1268458380663197	0.9871193175247085	-0.1980272319605904	-0.1128951363428622	-0.1395674450711354	0.5673361283544092
1.07	-0.1001196376188156	-0.0804641716470863	-0.1306215689846097	0.009413169999999998	0.91982588	1.1801072	-0.08955744233880929	0.1236950044179394	-0.1848637594254487	-0.1917531728055366	0.384886426843443	0.04698400166429955	0	0.5627874566683823	-0.1513499509683779	-0.405306885731394	-0.06506855394381626	-0.007017055940537481	0.07163706916777038	0	-0.05969146486992287	0.03323242769679471	0.2372818283569351	0.03062929372658762	-0.3254290153386015	-0.1298794248588742	0.9936245231989745	-0.2006460546954437	-0.1103385185388134	-0.1407851028217219	0.5484456671511915
1.08	-0.09670707539145876	-0.0800551280995053	-0.1336535304776199	0.008886549999999993	0.91863996	1.19215177	-0.1010344889134153	0.1172381300522537	-0.1942110875279962	-0.2038344598720988	0.3855207020083651	0.06241203663497598	0	0.5540333216472245	-0.1466982718697604	-0.4040733470554106	-0.05023521740100956	-0.01418511200837098	0.05322950932718586	0	-0.0609084052901868	0.03232683673632698	0.2417812684935535	0.02711681686161978	-0.3226490856238198	-0.1345210602857781	0.9984414059143408	-0.1999894386179644	-0.1058215931701498	-0.1437469070146686	0.5225344525274158
1.09	-0.09725341927600881	-0.08316309263287457	-0.1364607165157687	0.008672570000000018	0.91729787	1.20420448	-0.1089233710237772	0.1161543097337638	-0.1962802825194515	-0.2154233687872553	0.3819255321415694	0.06480173603628593	0	0.55147252692121	-0.1478638071075654	-0.4056555957091583	-0.04663493686109824	-0.01195357992893036	0.04791058736487246	0	-0.05844529734053797	0.03544204786560824	0.2418413638448911	0.02802698808964352	-0.3195455781489037	-0.1366061192729366	0.9993777781996285	-0.2091525063772594	-0.1036663077189447	-0.1443670951035991	0.5158105560506774
1.1	-0.09579304562241205	-0.08396413630259067	-0.1403271286774352	0.008399820000000002	0.91640088	1.2164558	-0.1177090422246562	0.1114357552032635	-0.1990036338958713	-0.2286536821967607	0.372546804693114	0.0707473607034958	0	0.5472416741069176	-0.1481403782640217	-0.4073669311833116	-0.0511736746566216	-0.004892413933141373	0.03668932908958884	0	-0.05791184303971951	0.03590919867893977	0.2437350427671794	0.0267503207570471	-0.3146344720885393	-0.1396390943275882	0.9984993866247567	-0.2159131450018121	-0.1015481745679281	-0.145173403358633	0.5064859451536738
1.11	-0.09446602605719114	-0.08269900682683876	-0.1432197685942459	0.007802809999999993	0.91571337	1.22919004	-0.1262787622663896	0.103828110561646	-0.2028095883981608	-0.2416332275720043	0.3622820795249065	0.07779020999238388	0	0.5430304803322538	-0.1469328004879972	-0.412356844793523	-0.06171278443279846	-0.00353637670561295	0.02647451126227634	0	-0.05572388275598907	0.03425022360594514	0.2456845950893446	0.02312760470773309	-0.3097341120203794	-0.1423423787809333	0.995859005059384	-0.2221948764497248	-0.09951179717693089	-0.1463262706476611	0.4958761177777988
1.12	-0.08879156081905233	-0.07765170619848921	-0.1466281860490611	0.006599980000000005	0.91556223	1.24241471	-0.1374856142449614	0.08867748276013754	-0.214396402569149	-0.257937060383751	0.358531772402356	0.1041843769424068	0	0.5313102762315892	-0.140807276008138	-0.4117774548230554	-0.07295452519405177	-0.005366651830433544	0.005236130349382877	0	-0.0567667995381293	0.02897927079639232	0.2509731247607285	0.01703339230731931	-0.3036889850853158	-0.1550788643685563	0.9912114883964998	-0.2215109365446738	-0.0951089168575803	-0.1538406347711424	0.4721438709778485
1.13	-0.08784105927289704	-0.07581521127454273	-0.1491607499593468	0.005621370000000014	0.91512284	1.25568	-0.1439314645874927	0.07946298747816913	-0.2169368422182294	-0.2734192017829697	0.3465270356513191	0.1061300075097429	0	0.5270638842273676	-0.1398918808351301	-0.4176596996038083	-0.09309718386468716	-0.007560224569439616	-0.00139889937236475	0	-0.05327553575395605	0.02777051143246418	0.2510299647239452	0.01140606106686762	-0.2990527676840088	-0.154675225737639	0.9895837077677587	-0.2296202162149837	-0.09360047084751659	-0.1551296970830206	0.469397022582775
1.14	-0.0861960485571945	-0.0721588029354332	-0.1529288107386103	0.004589830000000017	0.91481675	1.26909667	-0.1476281953379948	0.06655452552363499	-0.219339042016708	-0.2955485711846112	0.3256063997827329	0.1114597367253176	0	0.5216207518945787	-0.1380964218872941	-0.421781205795134	-0.1162351387239504	-0.007996456176940359	-0.006919253797908101	0	-0.05015792497148622	0.02464374796886396	0.2524983116199115	0.004553654251975534	-0.295155712230753	-0.1542439773942186	0.9858403693958455	-0.2380370190597707	-0.09158265922190457	-0.1566742036898257	0.4651570080116401
1.15	-0.08877113980855381	-0.05912862881366458	-0.1609146529339238	0.003389520000000007	0.91458142	1.28279318	-0.1406237213015021	0.04100775205377079	-0.2250945275481459	-0.3260793424711871	0.3115162846492846	0.1301047472143725	0	0.5138120449740656	-0.1260375101162755	-0.4327211410805398	-0.1197444870862341	-0.04158112779416889	-0.03823417551199924	0	-0.03865956722858169	0.01253361322776019	0.2574750656220957	-0.00233951018974083	-0.287891564792023	-0.15665487835715	0.9730312037603135	-0.2451677896587939	-0.08902628750928031	-0.16396421987513	0.4530802888207962
