inDegrees=no
nColumns=24
nRows=104
DataType=double
version=3
OpenSimVersion=4.5
endheader
time	pelvis_tilt	pelvis_list	pelvis_rotation	pelvis_tz	pelvis_ty	pelvis_tx	hip_flexion_r	hip_adduction_r	hip_rotation_r	knee_angle_r	ankle_angle_r	subtalar_angle_r	mtp_angle_r	hip_flexion_l	hip_adduction_l	hip_rotation_l	knee_angle_l	ankle_angle_l	subtalar_angle_l	mtp_angle_l	lumbar_extension	lumbar_bending	lumbar_rotation
0	0.02516066762549116	-0.05117296347919117	-0.1003629235982863	0	0.8538997	-0	-0.2410107270963479	0.06880444394861367	-0.0315821324952361	-0.3089795967599643	0.3700175540008023	0.197608935880082	0	0.4876016961008627	-0.05869368893449037	-0.1792250664406324	-0.2438625865419932	-0.04313639121421981	0.1582625239949752	0	-0.1088829968457896	0.04859253253312135	0.2272937036667154
0.01000000000000001	0.02432663063782612	-0.04495165120260396	-0.1021970706602393	0.000131970000000009	0.85276112	0.01408909	-0.2493560656895827	0.0605396379886585	-0.02318244557082463	-0.3230251391513764	0.362027756778557	0.2007908147470651	0	0.4840927578909532	-0.05078327295181727	-0.1728382001983039	-0.2685877624980431	-0.04939887499660856	0.156750966411921	0	-0.1031839810932342	0.03816560466728104	0.2265147937648123
0.02000000000000002	0.0218000791239226	-0.03408935958639166	-0.1045221457699359	0.0004368299999999992	0.8519188600000001	0.0285149	-0.2508828697708506	0.0462251572892078	-0.02262662871536622	-0.3451885822669387	0.335480032619351	0.2084465458275689	0	0.4832819404032639	-0.03972867529414198	-0.1838585698549525	-0.2880315482265474	-0.09908039664079966	0.1434465166517786	0	-0.09409425590883232	0.02053059439973955	0.2257132886558799
0.03000000000000003	0.01673541386653975	-0.02133113313628297	-0.1012300375047686	-6.533000000000233e-05	0.85143293	0.04277663	-0.2489699798349527	0.03183085552721346	-0.02129897787185808	-0.3669526146371638	0.3084033284853968	0.2127419927538788	0	0.4862999710761954	-0.02240455092694736	-0.1751729292330918	-0.3002143883228345	-0.1398139866160807	0.106792100255882	0	-0.08206884451107518	0.002428487249540427	0.2197878426128169
0.04000000000000004	0.01145032215698495	-0.007997921193705838	-0.09439912355389789	-0.001317869999999999	0.8513397	0.057177	-0.2444529221703317	0.01715643854318369	-0.02207314466698602	-0.3919551902574659	0.2766302798338058	0.2154977255729768	0	0.4891075684484115	-0.0009665841091725583	-0.156443550575193	-0.3162235071060175	-0.1477601333282664	0.06711189903825326	0	-0.06967438114858875	-0.01543155634697525	0.2108068177559598
0.05000000000000004	0.007602999834057421	0.003194051675125816	-0.08680683985576355	-0.002568819999999999	0.85178265	0.07162925000000001	-0.2400462314481582	0.005735941683539894	-0.01895475668940027	-0.4187972872333669	0.2366794574616736	0.2176788581286734	0	0.4900695070147139	0.01886186276169334	-0.1391960232983477	-0.3389318510897645	-0.1405103218494793	0.0336520093868302	0	-0.0599192640221627	-0.03102664445980876	0.1999522428590776
0.05999999999999983	0.007446217859123713	0.0156095507662718	-0.08239822046935548	-0.003687020000000013	0.8529189700000001	0.08578150000000001	-0.2335328218537432	-0.007324467763008251	-0.009604699590034346	-0.4543193055617029	0.1900009051716339	0.2170461256602772	0	0.4853404105209987	0.03849137229202796	-0.1285027958877649	-0.3626202283408342	-0.1178982067685739	0.01660065275458596	0	-0.05625849647902963	-0.04671453609229395	0.1875023181689505
0.06999999999999984	0.003796243003404211	0.02825401792241362	-0.07397740588692876	-0.005062050000000012	0.8541211400000001	0.10055159	-0.2249471564839635	-0.01875435763562043	-0.0029701795044283	-0.4847304851426029	0.1299434482482263	0.220542796649006	0	0.4820513249792447	0.06032105906179111	-0.1084167169517548	-0.3832165802890707	-0.09053382978785736	-0.004040975477908187	0	-0.04534411909705834	-0.06359814371960833	0.1811331164039815
0.07999999999999985	0.003285860886480749	0.04045928406806557	-0.06938178534551856	-0.006033570000000016	0.85577345	0.11481805	-0.213079099782776	-0.03000781915546551	0.008279768493099591	-0.5227048205734213	0.06206020827743705	0.2227306417410058	0	0.4761333447565901	0.07868462438792061	-0.09158360833195181	-0.4054261585654155	-0.06870102114766116	-0.02608900485695801	0	-0.03983214452085258	-0.07991253402800041	0.1728002598819582
0.08999999999999986	0.003242095170935414	0.05173630734947632	-0.06677219703589271	-0.006838459999999991	0.85747779	0.12873236	-0.1959473620118312	-0.04095369466898047	0.020729893023426	-0.567293363598945	-0.006966679280606691	0.2298835750544696	0	0.4664052566716251	0.09554885118108915	-0.07441726975765202	-0.4214879653480577	-0.04723835530297677	-0.04341888549455863	0	-0.03568387353091464	-0.09519236035098647	0.1666779082361462
0.09999999999999987	0.00390901977058006	0.06255237487324722	-0.06612406803887484	-0.007497379999999998	0.85914232	0.14216766	-0.1750278237808114	-0.05171850501350456	0.03490758947687111	-0.6160343506966484	-0.05967265545657413	0.2406496753718438	0	0.4552916986502248	0.1103900174454532	-0.0646995984957946	-0.4351129950908114	-0.02855939990529978	-0.05381480793530311	0	-0.03358241560463741	-0.1095345717142575	0.1605912155868146
0.1099999999999999	0.0002783222116951352	0.07524150470231916	-0.06828109267883832	-0.00795942999999999	0.86052714	0.15515007	-0.1428329650027959	-0.06668077967466453	0.04638904038984448	-0.6737580804042587	-0.07602109818587018	0.2628255417410218	0	0.4439053172178709	0.1255201255854789	-0.05875150017343588	-0.437207274826941	-0.01431280256537491	-0.06333669025606692	0	-0.02644604372044584	-0.1252677851840938	0.1581448221318134
0.1199999999999999	0.003486039171553823	0.08592259596400059	-0.0696705797907121	-0.008293159999999994	0.86240429	0.16757902	-0.1155551759006659	-0.07838647223526339	0.05577567924126636	-0.7322471654377354	-0.06834202524648308	0.2539648363921386	0	0.4248840003030508	0.1375225047457621	-0.06115981106775741	-0.4373397486332929	0.003575342926492975	-0.06314129837737813	0	-0.03008455081070019	-0.1391620031660349	0.147051771554591
0.1299999999999999	0.0007526274177417786	0.09720196618139758	-0.07587194676367956	-0.008296440000000016	0.86403456	0.17982756	-0.07640251196862549	-0.09181405061081085	0.06219024752401539	-0.7922462863016914	-0.06615724757064366	0.235523719106026	0	0.4056572129312432	0.1478453006833748	-0.06970000834159455	-0.4229720331227284	0.01672733136968959	-0.05839409007841616	0	-0.02513503511495424	-0.1522790256829971	0.1435390379516902
0.1399999999999999	-9.887235092365664e-05	0.1029229713164584	-0.08184255041678902	-0.008464240000000012	0.86584218	0.19155559	-0.03783471031238931	-0.1004978376930059	0.06781580865153972	-0.8456163197664039	-0.06744115173645054	0.2161378050048593	0	0.3857891345199864	0.152745853435884	-0.07973137269136775	-0.4110258362855999	0.028185362756628	-0.05251999877779682	0	-0.02417336637655407	-0.1580035178321109	0.1360626396263617
0.1499999999999999	-0.001387959793433369	0.1065274679423246	-0.08978447411167037	-0.008444859999999998	0.86771622	0.20303787	0.002037398583142518	-0.1070996597332075	0.0736264874280451	-0.8927288542836045	-0.06096846084801746	0.1964177207403278	0	0.3648101671298046	0.1543110114765304	-0.09518997274056973	-0.3957305203400353	0.03847463737702814	-0.04160006723454691	0	-0.02293520676684317	-0.1606864934597468	0.1297930535756479
0.1599999999999999	-0.002695359731465711	0.10733221844176	-0.0956938649958035	-0.008662000000000003	0.86968393	0.21420246	0.04182666943998571	-0.1106768282740981	0.07663523294935594	-0.9341122165513019	-0.04781453596201574	0.1825552244666076	0	0.3430923529980346	0.1538690696753159	-0.1102432019195718	-0.3793833468141712	0.05095144572268952	-0.02572040091824769	0	-0.02269285261583927	-0.1598573784637784	0.1219949886257158
0.1699999999999999	-0.003259158849999446	0.1061867062665024	-0.09956383901655008	-0.008906520000000001	0.87191719	0.22522494	0.07976903724569163	-0.1097135981641491	0.08187999307922532	-0.9678932261902067	-0.03948863440252867	0.1756178379195018	0	0.3197078625279455	0.1526041752866558	-0.1222990035138634	-0.3615548891392606	0.06064111090777068	-0.01320507036346799	0	-0.02508150412146632	-0.1567367435493136	0.1083551075272911
0.1799999999999999	-0.004326589261300998	0.1066254881907761	-0.1045227675748744	-0.009194740000000007	0.8739827	0.23606798	0.1194447705949683	-0.1106156513422231	0.0868241884878124	-0.9979293619165225	-0.024805875617339	0.1703235936910811	0	0.297536773473996	0.1528334546526343	-0.1375604783978965	-0.3435753124801319	0.06941596036915559	0.002544108505700968	0	-0.02582330727627453	-0.1545486492242966	0.09803347118643345
0.1899999999999999	-0.005900289796626953	0.1045442863718243	-0.1083728751464347	-0.009315519999999994	0.87601278	0.24679658	0.158119359697889	-0.107504457611814	0.09013856542122406	-1.020452650908608	-0.01175507473192186	0.1659920186237878	0	0.2760466525529803	0.1510290428638673	-0.1494665391199474	-0.3265929839688699	0.07700288498549222	0.01676250586276965	0	-0.02655539767379539	-0.1502784144516964	0.09099039570287432
0.2	-0.005899154296806912	0.1004331925115522	-0.1105932035822006	-0.00949562000000001	0.87807105	0.25749562	0.1936688194889881	-0.101535385842367	0.09150225644112125	-1.035878245385392	-0.002729987467301765	0.1607616136524831	0	0.2530605713583036	0.148828874351085	-0.1536427018675956	-0.3106738913628998	0.08383477440782958	0.02656661158877238	0	-0.02906528638151713	-0.1443314139414372	0.0829124387585182
0.21	-0.00635726968416639	0.09587299556687794	-0.1121467683858949	-0.009673550000000003	0.87995238	0.26814869	0.228048518949229	-0.09534900295322125	0.09061805030184651	-1.043958573359537	0.00583972611671341	0.1546840862506526	0	0.2306866109916889	0.1467917827713579	-0.1552733504213633	-0.2948057981503376	0.09126166838878744	0.03187705701050762	0	-0.03185066606142114	-0.1376723960653843	0.07600549668768659
0.22	-0.006990384607526182	0.09021418270790721	-0.1133323194327431	-0.009796100000000002	0.88181013	0.27887902	0.2605326339367043	-0.08747271845486723	0.08911064747507669	-1.045261495156472	0.01508278964601018	0.1453348033793428	0	0.2076441837619738	0.1440301660982857	-0.1536486893941275	-0.277549636206084	0.09766404676844177	0.03660387864207583	0	-0.03456697154365067	-0.1300490092520455	0.06855916078605907
0.23	-0.005639496588760976	0.08399100533759828	-0.1113551835243743	-0.01005402	0.88367501	0.28965533	0.2880843852771248	-0.07855260174918031	0.085188072341097	-1.039894533530096	0.02272277488960131	0.1197018420603567	0	0.1830070498928432	0.141501482288915	-0.1468179688187902	-0.2615753761859194	0.1021066328046764	0.04092972204810556	0	-0.0394921821332992	-0.1229057628649961	0.06122683747062052
0.24	-0.006040491809483919	0.07791866832585924	-0.1116383857775655	-0.01042422000000001	0.8851074800000001	0.30042031	0.3170560008848849	-0.0720112021350181	0.07909960329565274	-1.028246798641567	0.02762751573418366	0.1101346071844469	0	0.1601459686555956	0.1380506096124231	-0.1487043239904713	-0.2452373483598687	0.1096388528681361	0.04163966683541248	0	-0.04174661415425646	-0.1144938595084854	0.05321108249000916
0.25	-0.001853070758056517	0.07052527061361423	-0.1097317982513882	-0.01092013999999999	0.88671721	0.31106314	0.3383548733388562	-0.06330108553932623	0.07276063185505875	-1.010981601825908	0.03208905901315472	0.07975920598054809	0	0.1328974071861854	0.1346497015236257	-0.1410183046406613	-0.2297278742318991	0.1155981836059619	0.04291770093534615	0	-0.05082072684490045	-0.1051591825995538	0.04505387049338583
0.26	-0.002377005547066672	0.06623735695800924	-0.1076740944422825	-0.01136890000000002	0.88755565	0.32195806	0.3637148559125854	-0.0588373489050842	0.06482981576595664	-0.9891302700063602	0.03574251013606343	0.06856593597968239	0	0.110937629682631	0.133163342480713	-0.1417370855063723	-0.2139321582526209	0.1216478014477238	0.04390802117327998	0	-0.05186966117323571	-0.0998354190938954	0.03724630309834133
0.27	0.003233895014395983	0.05929156643882395	-0.1017791578972523	-0.01220417000000001	0.88879051	0.33270092	0.3783244792934641	-0.05305741131082588	0.05241587644888013	-0.9590009047255224	0.03487545622001265	0.04048258684516882	0	0.08368428915266289	0.1298934922126453	-0.1344498728434454	-0.2003231138059534	0.1248786577441764	0.04623865025512204	0	-0.06247113994116674	-0.09141456813244134	0.02508208915583159
0.28	0.002559814272067397	0.05689797485695103	-0.0998447258199669	-0.01275351999999999	0.88876032	0.34331719	0.4028204971839186	-0.05070628525678134	0.04468945796287418	-0.9310750593386966	0.03752287233493548	0.03308173125678854	0	0.06387265015155955	0.1302581693350715	-0.1354231483704371	-0.1870694822740425	0.1328823401078188	0.04842134505503212	0	-0.06442369335698082	-0.08760464510049869	0.01747571581204122
0.29	0.003433423999629112	0.05523881706253571	-0.09532215291499013	-0.01336623000000001	0.88879325	0.35433064	0.4207212640242723	-0.04938972406080744	0.03620124863693326	-0.8944997670953734	0.04111983430580706	0.02266558394067196	0	0.04282409526237026	0.131332090669643	-0.1324181670007241	-0.1754367104422566	0.1433871107054956	0.05153293305531919	0	-0.06677883820616103	-0.0852637140382138	0.007074473607736664
0.3	0.01067031565261388	0.05139874199682726	-0.08741599888709384	-0.01424489000000001	0.88903504	0.3650383	0.4286008965877304	-0.04686208500552707	0.02536030685590425	-0.8520450271359564	0.04567377688617503	0.00526562641374158	0	0.01720418010500982	0.1303602489306317	-0.1207553533401224	-0.1699849736362554	0.1541560957030575	0.05560662228659506	0	-0.07838466407415831	-0.08059451165937337	-0.006038767827933974
0.3099999999999998	0.01051064064524866	0.05340388306043321	-0.08397077663778758	-0.01478731999999999	0.88810868	0.37581406	0.4465458717453725	-0.04802047137471584	0.02015133522594581	-0.8103083889346384	0.04844070005830504	0.001273597123909247	0	-0.0008605869475733639	0.1341562285271802	-0.1212573932852013	-0.1614665626093392	0.163935041984294	0.05832005897113308	0	-0.0794810559992504	-0.08229613053651491	-0.01492971990728714
0.3199999999999998	0.01223688727412303	0.05552449838155347	-0.07896215623241994	-0.01517496000000002	0.88719406	0.38663391	0.4591506327964915	-0.04833040345262649	0.01696750281193095	-0.7629413176937222	0.04952661791349006	-0.002198770504051437	0	-0.02042670507227799	0.137722957206617	-0.1149686848836037	-0.1551601752441494	0.1755557418972426	0.06328299869228782	0	-0.08342680945476243	-0.08496326869745237	-0.02490487924462545
0.3299999999999998	0.01999626056912444	0.05636797927169811	-0.07118635957182247	-0.01590633999999999	0.88653327	0.39755968	0.4634977934794721	-0.05096127489343797	0.005446506752364666	-0.7132338604568464	0.04988758586218998	-0.004860938490877982	0	-0.04593341817435408	0.1399395843487785	-0.1071142142083728	-0.1508733926558452	0.1873647621383497	0.07044191063110428	0	-0.09447874792878939	-0.08599875177324251	-0.03730063711781809
0.3399999999999999	0.01916493214526986	0.06182464669079713	-0.06850905306749405	-0.01607013000000002	0.8847464900000001	0.40832295	0.4778871585776772	-0.05293092538007168	0.006649174742670415	-0.6636352192628449	0.05238242459577177	0.0001609828870186498	0	-0.06226555691044262	0.146250762642765	-0.1032358569909924	-0.1449794946607425	0.197473891029209	0.07370331682171791	0	-0.09570678794496432	-0.0923807098006485	-0.04512960905627612
0.3499999999999999	0.02018465215099413	0.0676191269503174	-0.06463203755219168	-0.01638597999999999	0.88292867	0.41916248	0.4886923404821951	-0.05670422634285265	0.00400479427891557	-0.6130803395733447	0.05494399302624384	0.004344218406927644	0	-0.08099387458268914	0.1529099197960922	-0.09745158661686602	-0.1387653889617581	0.2093599019324117	0.07807016412052935	0	-0.09884774302977833	-0.09896110600441974	-0.05352105540862431
0.3599999999999999	0.02610482134370408	0.07121691740315922	-0.05963254440689103	-0.01676743	0.88147783	0.43043937	0.490232850459546	-0.06031442803236401	-0.006740055607618087	-0.5583196253171822	0.05082441402747821	0.0136807422232736	0	-0.1071588422773463	0.157234661724831	-0.0924555936758041	-0.1295701212740272	0.2203183478307983	0.08432076151258032	0	-0.1067526601781101	-0.1033613072433685	-0.06310709899975114
0.3699999999999999	0.02465988120752268	0.08116384691453363	-0.05693701912783557	-0.01686435	0.87891904	0.44149924	0.5018233451808608	-0.06701960079142004	-0.008875048813741923	-0.5080450186274819	0.05326341793295945	0.01755421967459837	0	-0.1208240559571991	0.1674380858682535	-0.09532585028802892	-0.1280996077263276	0.2275868924520459	0.08484990572281097	0	-0.1060721830062951	-0.1149930945349233	-0.06588539543541888
0.3799999999999999	0.02972959551448956	0.08474715866623031	-0.0544120362052563	-0.01677967	0.8770827800000001	0.45291121	0.500404528634671	-0.06731526759522244	-0.0124591463117629	-0.4511101363774697	0.04278937123877014	0.04372045465282543	0	-0.1500816732589629	0.1717853083358897	-0.08574476604997162	-0.1114845146411094	0.2389500587364202	0.09419903430701485	0	-0.1133057301108487	-0.120199543291448	-0.07512146211427731
0.3899999999999999	0.02991850282019059	0.09419321501445699	-0.05347038446483888	-0.01660739999999999	0.87430889	0.46413897	0.5059332693672702	-0.07189238657726055	-0.009148572101725493	-0.3996840263735517	0.04272892804331262	0.05677370458424897	0	-0.1666701069634556	0.1816433138434513	-0.08401337447378493	-0.108863090493006	0.2483259172126512	0.09762230739391325	0	-0.1145878837114158	-0.1317495250810997	-0.07843457089145446
0.3999999999999999	0.0335419067669494	0.09659053948350475	-0.05216147596362374	-0.01612574999999999	0.87208129	0.47578992	0.5039356251956979	-0.07101845449316059	-0.01550075027423642	-0.3471164406701006	0.03025274644538563	0.07957729903925899	0	-0.1894990945628187	0.1835704060470714	-0.08780966142281467	-0.1024228316617993	0.2580917417595053	0.106646702460952	0	-0.1194136295577895	-0.1361639552913083	-0.08237470927369699
0.4099999999999999	0.03245458110496349	0.1037799968383586	-0.05080673872904947	-0.01562377000000001	0.86907249	0.48726791	0.5083104807632493	-0.07362922323164761	-0.01391920411551264	-0.3015149820250806	0.028297011643411	0.09238469386373202	0	-0.2040393522760379	0.1903860701905505	-0.08604495517639885	-0.1021918057448384	0.2681447944432284	0.1121033895443106	0	-0.1187368147848769	-0.1462544917132448	-0.08506787430803894
0.4199999999999999	0.03206933669735889	0.1079696641657424	-0.04875818327161459	-0.01519208999999999	0.86625517	0.49886874	0.5097718843903851	-0.07469089026047493	-0.01378196905096125	-0.2582028574482018	0.02084141310491022	0.1068042531579966	0	-0.2194524111000017	0.1936153043779963	-0.08728014353759117	-0.1023495224226949	0.280469118259065	0.1191413091507264	0	-0.1186325524805542	-0.1523721845516844	-0.08798294783386235
0.4299999999999999	0.03442407874245394	0.1114144071041991	-0.04715414618377389	-0.01474947000000001	0.86378506	0.51053527	0.5084490047534531	-0.07556409855653409	-0.01434170417059039	-0.2214622495379918	0.004234812268233454	0.1225009567833422	0	-0.2341819372042291	0.195634152729184	-0.09328685088889646	-0.1097478415240732	0.291887633646409	0.1306541168235741	0	-0.1222666037452282	-0.1575712619101133	-0.09242790577255047
0.4399999999999997	0.0399987810525843	0.1078422977231415	-0.04321529421981481	-0.01430164	0.86169683	0.5226423100000001	0.5041603525684543	-0.07156558903372204	-0.02488846110688486	-0.1962818976471413	-0.006088450195888319	0.1318143312506214	0	-0.2517134677730845	0.1881614799836768	-0.1127473559989703	-0.120174117160372	0.3072426717919171	0.1645758050616445	0	-0.1294529656989212	-0.1547879925078079	-0.09712999661221669
0.45	0.03898447500681671	0.1098404095188885	-0.04153063796992649	-0.01403963	0.85898871	0.5348238400000001	0.5127092253504042	-0.07145241926702885	-0.02565565251912428	-0.1895152650383385	-0.005454962872590579	0.1321396484058884	0	-0.2646910140482027	0.1890733841491149	-0.1147285144885599	-0.1254803816458842	0.3090145797904254	0.1653052216147513	0	-0.1269917577146961	-0.1573012249173106	-0.09851338594165066
0.4599999999999997	0.03714756391240144	0.1113046449711803	-0.03745027377374891	-0.01386804	0.8565229600000001	0.54710968	0.5193036471945774	-0.07171400258306659	-0.02540184918276022	-0.1864848575375494	-0.005494758822997003	0.1327119010269128	0	-0.27688663327074	0.1884032061652159	-0.1169756279948977	-0.1302513300878647	0.3106426468276965	0.1661371221562059	0	-0.1248647633525342	-0.1594594561352272	-0.09974581738075651
0.47	0.03512041164015711	0.1127691360797257	-0.03413598285122141	-0.01379488000000001	0.85426053	0.55984003	0.5230214962544958	-0.07157252025978048	-0.02531913960030454	-0.1869560006170119	-0.006483533397345267	0.1331221553283598	0	-0.2888776187471332	0.1883102017581673	-0.1187925143499604	-0.1359054823265305	0.311642422386853	0.167375829624769	0	-0.1214137440683851	-0.1608214367324575	-0.1015158371075471
0.4799999999999998	0.04147009491398406	0.112387756550076	-0.02788541523815254	-0.01376820000000001	0.85257286	0.5727090500000001	0.5244172430386327	-0.07456489494177346	-0.0478451253006179	-0.2095112307052059	0.003719191567178946	0.1680944246129147	0	-0.3023899541508819	0.1813172563195156	-0.1484158788355149	-0.1572715351214049	0.329079662415534	0.233785704005328	0	-0.1302252525999119	-0.1600397856164311	-0.117761572620884
0.49	0.04033400860049657	0.1102822159204992	-0.023907611933442	-0.0138134	0.85069054	0.5858036400000001	0.5265089089696745	-0.07181319767297199	-0.04635474885883301	-0.2259908377203161	-0.002734301921212695	0.1681504788289022	0	-0.3131763449680081	0.1767235888236418	-0.1478616181156175	-0.1679826783367595	0.3260287389184536	0.2354818397560914	0	-0.1275983645240522	-0.156241327303279	-0.120266964487788
0.4999999999999998	0.04037181016870847	0.105948774447484	-0.01789971882948937	-0.01361261999999999	0.8491991	0.5994589	0.5262283657929064	-0.06849773060690954	-0.05287388016613487	-0.2496961792226493	-0.008030753642071299	0.1719202842462573	0	-0.3235967540290922	0.1677436876097571	-0.1541288083528672	-0.1824123687437331	0.320265130450144	0.2399776822455227	0	-0.1258414375591784	-0.1512554113697193	-0.1270114555006341
0.51	0.0394817303144021	0.09792199895368738	-0.012889712429923	-0.01345088999999999	0.8479091600000001	0.6134256	0.5256117060615918	-0.06104027329275539	-0.05854315201757783	-0.278020992913847	-0.01316410626419321	0.1778042455583296	0	-0.3330742288905	0.1556852791916946	-0.1554463675281074	-0.1969686107058408	0.3120066734744089	0.2456702846112088	0	-0.122056186152476	-0.140744131915663	-0.1309750086965226
0.5199999999999998	0.03829199777544413	0.09056126290220418	-0.009549449061775144	-0.01329508000000001	0.84678721	0.6277325500000001	0.5243707071502537	-0.05331960357223967	-0.05775160575735731	-0.306579304780891	-0.02488383598436708	0.1822209923440543	0	-0.34219779374017	0.1452144922489493	-0.1501649153413734	-0.2114775748401046	0.3018929700755802	0.2496922159289838	0	-0.1168552805616557	-0.1296818857016067	-0.1323489908758213
0.53	0.03521067471753275	0.08114429975247713	-0.006260337383169019	-0.01291685000000001	0.84597159	0.64192738	0.5308528573741669	-0.04596065857518751	-0.07810324386944117	-0.3390522297644001	-0.05980269452861954	0.1817933507235331	0	-0.346585084255043	0.1310081505791558	-0.1554148364098408	-0.2289142523491677	0.2812410431787687	0.2544313103667862	0	-0.1093493744782625	-0.1189223794126794	-0.1313785640752346
0.5399999999999998	0.02934123365703787	0.06687448866195847	-0.005411049326007378	-0.01230065	0.84581185	0.6561641300000001	0.539545153634597	-0.03122467614899119	-0.08281444637500036	-0.3706461804076003	-0.06856970240020818	0.1738042280710438	0	-0.3451602253789828	0.1128699500200255	-0.1563458753180002	-0.25080083650348	0.2596585072483928	0.2579129423769494	0	-0.09861832857531581	-0.101365630406929	-0.1282895447529722
0.55	0.01384717618330127	0.0514253089418473	-0.007001352781709174	-0.01098637999999999	0.84524621	0.67059722	0.5524392201134607	-0.01115675614211765	-0.07517357432961629	-0.3946973597738807	-0.07510655665339944	0.1415586121513206	0	-0.3291373368206661	0.09299270688486644	-0.1588053988849642	-0.279969493675138	0.2308738296680236	0.2712792418933935	0	-0.07608766993046313	-0.0835452532573893	-0.124428826705677
0.5599999999999998	0.01213555017604542	0.03782299420360109	-0.01114982185640516	-0.009762750000000014	0.84589799	0.6852441500000001	0.5537777913075657	0.004836868655163728	-0.07731693185164737	-0.4280868339420992	-0.0712201325242163	0.1238329840399497	0	-0.3296239447390318	0.07696816392895182	-0.1570625764493745	-0.3048678113544406	0.2013949876947793	0.2675496174460778	0	-0.07040119751017593	-0.06774556176714082	-0.1159093423012709
0.5700000000000001	0.007250377220800157	0.01931951326202118	-0.01867232064254035	-0.007697239999999994	0.84700485	0.70038976	0.5476086955555951	0.03381818637370279	-0.0563746256260025	-0.4403977538038134	-0.06789607634383893	0.07274532741191385	0	-0.3263568267839081	0.05630986396237678	-0.156907671496943	-0.3296980193050132	0.1559578634925406	0.2734857874901968	0	-0.05880361919555894	-0.046755940538139	-0.1055034976637288
0.5799999999999998	0.007967563291780055	0.003090132669325033	-0.02256920890345424	-0.006278190000000017	0.84866935	0.7158142200000001	0.5356984423781479	0.05607831147958055	-0.04715691230595926	-0.4556694606805862	-0.05865322975896818	0.06263943174349396	0	-0.323949508981931	0.03662520359847547	-0.1543285902582235	-0.3629254434919084	0.1060099293808045	0.2707813968471718	0	-0.05351802813503671	-0.02813902915190946	-0.1016517842936435
0.5900000000000001	0.01097827212300023	-0.01394249910110576	-0.02649525762821942	-0.004243589999999992	0.85095135	0.7310412000000001	0.514962909497777	0.08431857164796784	-0.02190033857054851	-0.4599745091867101	-0.05133501865226249	0.01832099796740384	0	-0.3191461466341483	0.01460718428324907	-0.152067494919248	-0.4020259105601411	0.04410289870343821	0.2819197647238892	0	-0.05225936893512943	-0.009889673285108549	-0.09331314916099967
0.5999999999999999	0.01222538823872972	-0.02589126574725489	-0.02976816355875621	-0.003046290000000007	0.8530647100000001	0.7455739100000001	0.4989027230788123	0.102677324228685	-0.008658444726923165	-0.4696904047505865	-0.0304509376576617	0.001071658689729149	0	-0.3042946794365389	-0.001299391519457396	-0.1472136389744746	-0.4502541427874217	-0.02324366212167371	0.2823303314392723	0	-0.0503025466184979	0.004607137772507797	-0.08941431574083486
0.6100000000000001	0.007832167077184395	-0.03931817060632504	-0.0294178055727281	-0.001847650000000006	0.85507435	0.75911826	0.4823818109270915	0.1235634922880053	0.01174035148341788	-0.4635759802157042	-0.02721788015195651	-0.03378270522627314	0	-0.2747852985647079	-0.02157855937220825	-0.1386890486093417	-0.5071770808766978	-0.1030015624214084	0.3006430226866342	0	-0.04387100692863539	0.01936965513745388	-0.08199814994972315
0.6199999999999999	0.005545806806888306	-0.05101813223370427	-0.02955171447555549	-0.001031510000000013	0.85693872	0.77222512	0.466873015557668	0.139469712916209	0.02253435629940594	-0.463780170997284	-0.01101196886335996	-0.04315808478415747	0	-0.2425942917283515	-0.0389951067772776	-0.1285929096805063	-0.5677502202858155	-0.191317778607011	0.3004236972824458	0	-0.04182932879816698	0.03353703878941481	-0.07697184413021259
0.6300000000000001	-0.00613189956563904	-0.0569522220020075	-0.02460958944761193	-0.0008858700000000108	0.8582809100000001	0.78440283	0.4601039113881115	0.1464963877153201	0.03039395806810476	-0.4580522084354855	-0.003692543880159496	-0.06100845384609643	0	-0.1937800404210385	-0.04851081150515399	-0.1038870239760141	-0.6326839211904435	-0.2564753296819133	0.3112207199472434	0	-0.02980275291673291	0.04083877032279025	-0.07392660743943397
0.6399999999999999	-0.01124402259962505	-0.06399736000790938	-0.01871375417840228	-0.00109026000000001	0.85995548	0.7967328100000001	0.4466932262289269	0.1518967250984488	0.02794404393493637	-0.4541599863225271	0.0125769434699019	-0.06306573050768868	0	-0.1505074351598797	-0.05797397903001853	-0.08254989495203666	-0.6998704740694569	-0.2897401149103753	0.3154729626441836	0	-0.0250173789794188	0.04968124134431322	-0.07067252953728362
0.6500000000000001	-0.01222440032146399	-0.06985666168474715	-0.01217506660676156	-0.001157999999999992	0.86200169	0.8087348400000001	0.4285423901841439	0.1551697675737184	0.02005859680707524	-0.44844213532575	0.03140295245637031	-0.06403170881307788	0	-0.1105396965330384	-0.0689626493186607	-0.07169243554949971	-0.7676416070045345	-0.28263603545707	0.2990904955937845	0	-0.0260498579945004	0.0560841138266788	-0.06341346536999998
0.6599999999999999	-0.01244146213551111	-0.07549738671880329	-0.004880908053312823	-0.001260910000000004	0.8642119	0.82036533	0.4088329848911736	0.1582265290226137	0.01166620797693099	-0.4399110275521244	0.04525970904031244	-0.05999674128205382	0	-0.06925619676915239	-0.07946197134747862	-0.06296822576916385	-0.8360093125020326	-0.2522861157111845	0.2689170946087214	0	-0.02851840613542771	0.06185737239495558	-0.05788648584914898
0.6700000000000002	-0.01717310123239607	-0.08080364414481686	0.004673956887147608	-0.001412760000000013	0.86633953	0.83170343	0.3917042044061133	0.1600930583011897	0.001100890685772026	-0.425514285121704	0.05456505848369098	-0.05420874829516584	0	-0.02051863278571101	-0.0902308305068015	-0.05473037886296668	-0.9009340965195122	-0.2197161434399475	0.2302491169875402	0	-0.02602610353978198	0.06665689938170703	-0.05495978912863902
0.6799999999999999	-0.0196933215127469	-0.08409898313824428	0.01175390062417415	-0.00142181999999999	0.8686047100000001	0.8430388400000001	0.3715616921686022	0.1618142318472706	-0.004777671799325061	-0.4104873233224774	0.06711407528929757	-0.04942923744240797	0	0.02576363656354395	-0.09777106808924603	-0.04907583095815939	-0.9563400886707345	-0.1967173586917773	0.1902015030184156	0	-0.02600479062615418	0.06922110552827765	-0.04993853656091175
0.6899999999999997	-0.02403784296660764	-0.087573024039279	0.01981903854687196	-0.001565360000000016	0.8704732900000001	0.85381935	0.354658442431353	0.1637857575156526	-0.008592064270416215	-0.3961089286658187	0.07397605890032827	-0.0480259773649071	0	0.07623496123309868	-0.1037778641032774	-0.04015636752921149	-1.0063219788612	-0.1726960344040827	0.142698820567284	0	-0.02473456722368904	0.07192125153056175	-0.04609270372867516
0.7	-0.02929057853998978	-0.08681745316402051	0.02564542246873561	-0.001716670000000003	0.87235617	0.86472682	0.3374890598283048	0.162197995017732	-0.009935442799412849	-0.3801919295822864	0.08147075892272612	-0.04850546870324778	0	0.1244675089614878	-0.1031068905983053	-0.03275796151043638	-1.046335059396679	-0.148568189879612	0.1026714609695958	0	-0.0224083121114854	0.07000900143236762	-0.04114206526262142
0.7099999999999997	-0.03336959435545491	-0.08624832807703342	0.02997850548474509	-0.001845590000000008	0.87412574	0.87547243	0.3192997460802993	0.1613972852553398	-0.008768440786904532	-0.364439137357967	0.0862324101703142	-0.04932424227433234	0	0.1707627159128889	-0.1012878875079258	-0.02624604521972933	-1.080460012170095	-0.1240178409367405	0.06686979429479946	0	-0.02168707102966079	0.06849824059211698	-0.03463134487151784
0.72	-0.03727803530012594	-0.08418116609734839	0.03279553959720474	-0.001883540000000017	0.87591153	0.88626421	0.3001057607755196	0.1592800024287347	-0.006605613942534515	-0.3476946061175648	0.09198460418531575	-0.0494289391656388	0	0.2159688386327762	-0.09836765356710302	-0.02273541054978697	-1.106594517062521	-0.1056204678848682	0.03591290314027713	0	-0.02077978343462719	0.06576425335376841	-0.02941897787803256
0.7299999999999998	-0.03895750391697101	-0.07984938406047888	0.03465112001464173	-0.002005050000000008	0.87793836	0.89721562	0.2774851546678032	0.1549134279248853	-0.00573322490402624	-0.3293955629958877	0.09814285515944615	-0.04771834388562134	0	0.254583071632169	-0.09277842827474304	-0.01985765966828701	-1.121658493804524	-0.09627185434732659	0.02763571092768641	0	-0.02213645055148266	0.06020466898809506	-0.01974339139136261
0.74	-0.04256479235919581	-0.07645758536086929	0.03572819280629604	-0.002002229999999994	0.87953388	0.9082217300000001	0.2563893631405404	0.1513489508947165	-0.005226578336919636	-0.3100750488252542	0.1045046652805	-0.04475873618953821	0	0.2950548589035253	-0.08779112113923658	-0.01941712425338377	-1.130032654590493	-0.08517412209891874	0.01580428572043851	0	-0.02077466665285912	0.0559407214150593	-0.01314989020836986
0.7499999999999998	-0.04597440468406876	-0.07165613885930373	0.03555720608380866	-0.001875070000000006	0.88093003	0.91917603	0.2367829256411867	0.1468208444232658	-0.006077223889073642	-0.2936634080728093	0.1118804773139764	-0.04330661282710097	0	0.3312691723771073	-0.08300840254584646	-0.02147570746845407	-1.129290873950432	-0.07665998503427482	0.009573263243146198	0	-0.01995259406042243	0.05025295169153907	-0.007653095284267488
0.76	-0.04932533234084802	-0.06650005581115009	0.03478669631906127	-0.001786100000000013	0.88213262	0.93011031	0.2186076054195249	0.1417256104901392	-0.008567529304456305	-0.2797298283783797	0.1194594240303022	-0.04141661462967223	0	0.3656000401428713	-0.0787847059305531	-0.02654871690248461	-1.121744083180245	-0.06568520407582001	0.006175093052346299	0	-0.01899292808733893	0.04446605564408598	-0.002218434779667806
0.7699999999999998	-0.05222093250717979	-0.06094060756908445	0.03331416938208626	-0.001594390000000001	0.88308694	0.9412348500000001	0.1996968442917772	0.1365554075097894	-0.008071596091897219	-0.2662612267368958	0.1265492167419494	-0.03825434226790726	0	0.3978037325558299	-0.07340611168471278	-0.03099344934463338	-1.107189167842902	-0.05862626546922243	0.006448629604832183	0	-0.01787410117644294	0.03809252808056588	0.003665038363812692
0.78	-0.054585701873757	-0.05655979710634786	0.03221659745361043	-0.001379679999999994	0.88376442	0.95241098	0.1816655245544463	0.1324671137123987	-0.01111901304797743	-0.2545451636044145	0.1344585298510682	-0.03650713137644636	0	0.4254477737655032	-0.07190523289868694	-0.04057150596003726	-1.085133617141973	-0.04977071617201549	0.006301830310512791	0	-0.01746503142995929	0.03323996071237924	0.007729848057986114
0.7899999999999998	-0.05754977582877524	-0.05017202493323736	0.02675407744437678	-0.0009670300000000076	0.88435284	0.96350742	0.1649588877282306	0.1268287441370928	-0.004517119623809387	-0.2452992921894171	0.142573832129028	-0.02532197872739876	0	0.4498874622015471	-0.06599416226000805	-0.04789495706875622	-1.052454297549638	-0.04229068721277698	0.008340208721497379	0	-0.01665406314582257	0.02634853374593324	0.01632453939799243
0.8	-0.05936798952254815	-0.04736385167504712	0.02319996010587536	-0.000618179999999996	0.8845165	0.97462632	0.1477860334907673	0.1242047067075004	-0.00777878586848156	-0.2361162030601408	0.152931223284942	-0.02159581282452884	0	0.4736683450445651	-0.06598178106882732	-0.05787811716991859	-1.017978902210109	-0.03618527957240921	0.008142356975760824	0	-0.01649818621953063	0.02347370384746942	0.02365397541524941
0.8099999999999998	-0.05864648024702517	-0.04190840835049036	0.01594539266174559	-0.000219579999999997	0.88475549	0.9859433799999999	0.1288557937904356	0.1193218353620443	0.0002847134664827326	-0.2309447158665274	0.1671686133149309	-0.01050729102764961	0	0.4886512563042678	-0.06281434340514108	-0.069275974840236	-0.9734848764430295	-0.02240558119480481	0.006482968085200547	0	-0.01871033990828636	0.01853121257836397	0.03365024101923209
0.8200000000000001	-0.05948130712812592	-0.04038427274080732	0.01097373422131503	4.197999999999702e-05	0.88437762	0.9972128600000001	0.1109856044204452	0.1177297482873031	-0.0002612197639545621	-0.2231478400094148	0.1786275308055306	-0.007137644927347974	0	0.5056243417263441	-0.06430349427672523	-0.07987916054017549	-0.926352009363642	-0.01602243931056718	0.00656887563444466	0	-0.01924576067157304	0.01854085307902029	0.04097099105640066
0.8299999999999998	-0.05339712641861968	-0.03526894817114267	-0.0007431960948049068	0.0007202699999999951	0.88457586	1.00862567	0.08829425104243334	0.113094655750699	0.01167635741559718	-0.222212518063271	0.1894458644640939	0.004497204195313655	0	0.5085173935603304	-0.06381691410909465	-0.09585403474170393	-0.8686911425759641	-0.005735687040002028	0.01084023893693923	0	-0.02817216579855489	0.01427957044921939	0.05531880073778037
0.8400000000000001	-0.05456101746222668	-0.03772090630250444	-0.005339202420105997	0.0007544200000000056	0.88348013	1.01995125	0.0706061347690768	0.1150780934657589	0.01309096318043356	-0.213976899244397	0.2021978580002526	0.005374160062342698	0	0.5225908935083656	-0.06743966192340105	-0.1024947458592326	-0.8136948896795265	-0.001763617160962576	0.01271241697363925	0	-0.02782551391304446	0.01926494550524388	0.0622778941193262
0.8499999999999999	-0.04789697881762735	-0.03595380972200969	-0.01766909640667387	0.001501719999999984	0.88306447	1.03156506	0.04660343419169852	0.113240956753517	0.02488164629428753	-0.2115863456789511	0.2126330070650014	0.01154257653216842	0	0.5214115164133288	-0.070533428366696	-0.1190769864374076	-0.7490443672243043	0.007042013276176374	0.02054705459991511	0	-0.03650307610392935	0.01859821472115048	0.07583104282590228
0.8600000000000001	-0.0498544879320076	-0.04430116097061043	-0.02280595265349956	0.001621359999999988	0.88128215	1.0427585	0.03439981176187629	0.1212160766294176	0.02203168175261102	-0.2129901628655492	0.2202991071465914	0.01136379914076106	0	0.5345314599133272	-0.07871223444948962	-0.1202944759382542	-0.6908797774705497	0.009776423233269769	0.02375206606080414	0	-0.03652976044286309	0.02974797226750057	0.07823288902067442
0.8699999999999999	-0.04599307342860749	-0.04259603767898575	-0.03385163017688179	0.002054709999999987	0.8801381	1.05473827	0.008439514290744427	0.1178959772849874	0.03414456242022695	-0.2016727285709003	0.2416267494334197	0.02279727217432758	0	0.5340146499449204	-0.08090977833614275	-0.1377943392531614	-0.6240626387120854	0.01096575411556348	0.04704811807970082	0	-0.03980834905089674	0.03026327915835557	0.09323782738273476
0.8800000000000001	-0.04814067665750632	-0.05203960402790772	-0.03829616440931369	0.001920699999999997	0.8778369300000001	1.06601535	-0.004058745198621518	0.1261863154920371	0.03099993935145692	-0.2027947431511421	0.248528829366021	0.0237517679585679	0	0.5458000850282466	-0.08905988143218976	-0.1410991933211083	-0.5660104787054213	0.01343405058001264	0.052085120673131	0	-0.03934881939227698	0.04340360339162817	0.09651338383025893
0.8899999999999999	-0.04424593032746549	-0.05069635821735474	-0.04801704323283176	0.002053449999999984	0.8764514800000001	1.07831205	-0.02953633730759516	0.1219671607470562	0.03744703219388272	-0.1932613406101176	0.2646721575109642	0.0394577886750594	0	0.5399560556277294	-0.08931209721706623	-0.1582285942707177	-0.4948076593237861	0.01337695719498848	0.09418099440933331	0	-0.04313507715582598	0.04393481442075904	0.110694412291779
0.9000000000000001	-0.04078049294558708	-0.05733721264022144	-0.0533755197148102	0.001863840000000005	0.87448704	1.09019145	-0.05110496086943765	0.1258648686043864	0.03519505794557812	-0.1895955597832411	0.2785608593798043	0.05314743487004498	0	0.5388249532926055	-0.09408429479119242	-0.1642704152031121	-0.4325793713015259	0.01057824826105406	0.1251589401687541	0	-0.04818271194599348	0.05329403222976991	0.1192232136127982
0.9099999999999999	-0.03936733511358878	-0.06354182910115375	-0.0603163179860659	0.001684099999999994	0.8722548800000001	1.10217618	-0.07076019218962352	0.1292307008112066	0.03622326125305819	-0.1864539149443067	0.2888949858203881	0.0643257994100328	0	0.5388293438428716	-0.09877879676473804	-0.1711425929332379	-0.3732529108032641	0.001346302304559575	0.1518488995862856	0	-0.05156076372650564	0.06291620466001183	0.1277736652195896
0.9200000000000002	-0.03673353877031586	-0.06818098927785116	-0.06442664309051846	0.001140179999999991	0.86998688	1.11434041	-0.09160671352418848	0.1305603605286837	0.03284575488793728	-0.1836788199660859	0.299893022592994	0.07225034226220446	0	0.5361032934892965	-0.1001188157094575	-0.1758864212275705	-0.3154204243939742	-0.005469994869839231	0.1790950952618948	0	-0.05520192720788153	0.07044283007055421	0.1357042992708507
0.9299999999999999	-0.03882958447933729	-0.07625947971829203	-0.06750444048998545	0.0004695999999999867	0.8671942500000001	1.12624702	-0.1060362416155417	0.1362889053323207	0.0342673695459838	-0.1833966894123632	0.3084751327270873	0.07907554672444082	0	0.5395399844929514	-0.1039739507975414	-0.1726526779820022	-0.2650788564021919	-0.007492274189270497	0.1946093894656596	0	-0.05503049520916412	0.08241880746070956	0.1405400154851093
0.9399999999999997	-0.03161254677266586	-0.07413218183696331	-0.0710271576375856	-0.0002621299999999993	0.86544918	1.13886965	-0.1309717780920772	0.128772381538423	0.02425819810484726	-0.1816576351426285	0.3190840143090407	0.09738164080176311	0	0.527717023608977	-0.09870319311579892	-0.1842802733417596	-0.2129270555995214	-0.02674508372209356	0.2210435892072685	0	-0.06348903690488085	0.08157096804892693	0.1474563022232891
0.95	-0.03115563194770471	-0.07790896091903166	-0.07400533768546746	-0.0008765500000000037	0.8629772800000001	1.15121148	-0.1466650795471119	0.1289531266140291	0.02279810504544664	-0.1849815337197745	0.3293109436741645	0.108740983593345	0	0.5300523429141178	-0.09946696228644102	-0.1838054073004697	-0.1818159789172853	-0.02614666617212077	0.2294931614814263	0	-0.0647566318414925	0.08755568320445956	0.1535331766974465
0.9599999999999997	-0.0263629390374994	-0.07908003744011961	-0.08056002919558848	-0.001161949999999995	0.86072507	1.16354964	-0.1622432739199836	0.1247110618046219	0.01180583396802468	-0.1971050987694724	0.3428932145955735	0.1309559554606774	0	0.5304040113994973	-0.1003887846344194	-0.1921040517039625	-0.1633152954636642	-0.03503877924449236	0.2342886180112963	0	-0.07182436341686163	0.08962604267959186	0.165537608190397
0.97	-0.02720783450019948	-0.07972716925628287	-0.08334584826807195	-0.001402029999999999	0.85828914	1.17658971	-0.1760814682291991	0.1226059331018619	0.009610490068893685	-0.2025342965680462	0.343515852603175	0.1314260588475045	0	0.5396821113663303	-0.1004310589523636	-0.1930705721086173	-0.160462516229503	-0.0349526205423689	0.2333760148414928	0	-0.06909679392870557	0.09067933526960226	0.1658569160025165
0.9799999999999998	-0.02769406151445585	-0.07771070868799637	-0.08392962064651532	-0.001554269999999996	0.85610411	1.18968557	-0.1914812222337421	0.1174614822800924	-0.001621910911933429	-0.2034791392852596	0.3468657153964053	0.1372824680429389	0	0.5495276733744568	-0.09876079456616835	-0.2008430299368299	-0.1707631606227824	-0.03190191206985235	0.2276070962089341	0	-0.06710658625601018	0.08741786834153066	0.1713744642876885
0.99	-0.02501343533128531	-0.07422307865664741	-0.09237538462365651	-0.001383820000000008	0.85424815	1.20271087	-0.1976814373808086	0.106675845445203	-0.01933211851576417	-0.2303624630324878	0.3607532801832377	0.1839347981572308	0	0.5528888205939659	-0.09858732245208826	-0.2079068076433116	-0.1858194020655405	-0.01724581772684294	0.2141480600189486	0	-0.06974015178705505	0.08238699220284082	0.1778573400449716
0.9999999999999998	-0.02664799883317901	-0.07136385359380892	-0.09461221397066531	-0.001409830000000001	0.85229124	1.21643799	-0.2101359697401609	0.1008102114865401	-0.02229977427409408	-0.2359443129124947	0.3569777673646957	0.1867722858636836	0	0.5586608710453345	-0.09617333557250635	-0.2070863795000961	-0.2021752505759186	-0.02584227254752548	0.2086802455889439	0	-0.064844640767156	0.07764322621676256	0.1803311831657836
1.01	-0.02733172080326247	-0.06742377998665849	-0.09648740682795415	-0.001456929999999995	0.8506913700000001	1.23048525	-0.2215011721256406	0.09343347757015284	-0.02467869417287787	-0.2455835042228058	0.3494082988334058	0.1919719440676876	0	0.5594218426277185	-0.09234245637223498	-0.2148510442586656	-0.2224809713443105	-0.02853492148800763	0.1980011939170787	0	-0.05974076117104667	0.0709659771549421	0.180698032350464
1.02	-0.02541803520057094	-0.05979806005879725	-0.1026759961020979	-0.001548300000000002	0.84954379	1.24494168	-0.2303107477050208	0.07847798752739416	-0.03325528697213978	-0.2648100788389774	0.3378518645615095	0.2248370298733541	0	0.5552847298767545	-0.08597760326963023	-0.2163525661985209	-0.2451161383849104	-0.02364367762359679	0.1625974914587356	0	-0.05687752706560018	0.06028389628962717	0.1863652975968659
1.03	-0.0255127886117951	-0.05315990380485681	-0.1047907695702264	-0.001986910000000008	0.8482216300000001	1.25963397	-0.2411115001384299	0.06779169535712709	-0.0285206092645425	-0.2763212989603375	0.3305913074395837	0.2262508369755248	0	0.5543810559859371	-0.07875319942142904	-0.2106772096057067	-0.2736793645755293	-0.03118403929895116	0.1597602053378114	0	-0.05095383315857333	0.0516221007050731	0.1854613877375337
