inDegrees=no
nColumns=32
nRows=126
DataType=double
version=3
OpenSimVersion=4.5
endheader
time	pelvis_tilt	pelvis_list	pelvis_rotation	pelvis_tz	pelvis_ty	pelvis_tx	hip_flexion_r	hip_adduction_r	hip_rotation_r	knee_angle_r	ankle_angle_r	subtalar_angle_r	mtp_angle_r	hip_flexion_l	hip_adduction_l	hip_rotation_l	knee_angle_l	ankle_angle_l	subtalar_angle_l	mtp_angle_l	lumbar_extension	lumbar_bending	lumbar_rotation	arm_flex_r	arm_add_r	arm_rot_r	elbow_flex_r	arm_flex_l	arm_add_l	arm_rot_l	elbow_flex_l
0	-0.02164982092744953	-0.05137553113949588	-0.0257382337138201	0	0.86000341	-0	-0.2421048804621413	0.1106506469390548	-0.2327799951993793	-0.1104180004838834	0.3339903630359132	0.09913552775214581	0	0.4403139060921524	-0.07529709232797747	-0.3243937965056602	-0.1002182348996389	0.008200234362684985	0.08359842331678791	0	-0.156849448360294	0.02901795287767012	0.1537736329774217	0.2522913581566587	-0.1956781296158136	0.1783832901281382	1.141661368880834	-0.2236194588656314	-0.2134849331652277	-0.05935953483665302	0.7669725622629189
0.009999999999999787	-0.02375301084647149	-0.05304242462483892	-0.03136982911897697	-0.001085900000000001	0.85878783	0.01004441	-0.2485213658145408	0.1081427520954705	-0.2221039941885137	-0.1176975165938748	0.3301952365563031	0.09284411042501627	0	0.4418256846338899	-0.07930815181530894	-0.3111357192710786	-0.1218301244755066	-0.01030401078434057	0.02959519836208575	0	-0.1543686624942505	0.02915695892781351	0.1579495430013942	0.2431647695240596	-0.1948587067822473	0.179622868690531	1.133395083754338	-0.220766967087198	-0.2104989706483736	-0.06016385620886643	0.7596917361087908
0.02000000000000002	-0.02515014924042452	-0.05015004905103394	-0.03828144895052718	-0.002137790000000001	0.85805273	0.02050737	-0.2527351885786568	0.0992634389187672	-0.2182999502981564	-0.13087248683453	0.3264478689172786	0.09672165868228838	0	0.4427667186936096	-0.0793371192194372	-0.3268585747354031	-0.1384537270880258	-0.05737528152923372	-0.01458276747607952	0	-0.1521897829840853	0.0241326516848294	0.1618986846645832	0.2316289050045956	-0.1938970682380432	0.1822260752664349	1.123236619641512	-0.2206721606276968	-0.2092107637223617	-0.06144686659156338	0.7568305337411266
0.0299999999999998	-0.02583608649101768	-0.04238339048920604	-0.0420749434076183	-0.003473509999999985	0.85771231	0.0308557	-0.2584148676538964	0.08639779512677223	-0.2149379311121531	-0.1413359840605886	0.3224474046257044	0.09505113563829794	0	0.4402974413541208	-0.07300343560287798	-0.3301585033096681	-0.1473410635433006	-0.08613479320711845	-0.04546001716243823	0	-0.1509750614008994	0.01344140627014517	0.1625310956433312	0.2202457896068711	-0.1923324215788677	0.1835434358232063	1.109212209871216	-0.217952122409796	-0.2086215166558777	-0.06249476209992785	0.752739701013273
0.04000000000000004	-0.02602029571155533	-0.03651006409832224	-0.04091795416349715	-0.005044749999999987	0.85762063	0.04069541	-0.262013645116256	0.07669548154060186	-0.2102295185154032	-0.1559923335707346	0.3157863274356671	0.09491542197725551	0	0.4408144541297868	-0.06843583756644239	-0.3185081303559745	-0.1630231091954562	-0.09790262821573456	-0.04742193496782099	0	-0.1529727638664687	0.004542155150198768	0.1594154242707262	0.2092771635520234	-0.1922491644866257	0.1841298207242499	1.10029333426916	-0.2127845149085769	-0.2101712616938996	-0.06341881131349883	0.7532834105197103
0.04999999999999982	-0.02778960974274913	-0.02509149854001444	-0.03856872926801028	-0.007149409999999995	0.85785093	0.05094008	-0.2616807836007643	0.06051404814569868	-0.2107549938690133	-0.1745846981227653	0.3047681958147183	0.08751728526278398	0	0.4400719036249928	-0.05542710417745315	-0.3032099241451687	-0.176149722296658	-0.1193862477852867	-0.0664164544463719	0	-0.1513342658689232	-0.008920826182027854	0.1511104500816352	0.2000427556340861	-0.1839649563995077	0.1791147766417378	1.072335366097452	-0.2093622151918023	-0.210231399631271	-0.06453862416088928	0.745753028287953
0.06000000000000005	-0.02543694289065036	-0.01512289931854094	-0.03478610029641922	-0.00919935999999999	0.85854719	0.06118033	-0.264929997968421	0.04629723100973475	-0.2057137859047504	-0.1946188789953356	0.2923015405729145	0.08685873413876298	0	0.4422488154509593	-0.0457103595108956	-0.2950110706869878	-0.2065806527215054	-0.1166040962663672	-0.07203258590901354	0	-0.1558400438196543	-0.02145248708448677	0.1451921918280307	0.1872190892795295	-0.1838927287409408	0.1794714931429128	1.060389802291243	-0.203038471574399	-0.2124745976659649	-0.06552108849732696	0.7462994331063543
0.06999999999999984	-0.02268154556680607	-0.00489528533266049	-0.02676474550580289	-0.01189069000000001	0.85929042	0.07194107000000001	-0.2691807583572275	0.03241762911308157	-0.2031497960044741	-0.2151958878085381	0.2765047304467282	0.07859132920901866	0	0.443233109241519	-0.03167359944174659	-0.281063948982892	-0.2374693669521216	-0.09696004517630374	-0.1006004506611855	0	-0.1579720458805061	-0.0323876574465017	0.1308901469485663	0.1798998990431135	-0.1749735805184558	0.1723942566789703	1.022106210399467	-0.1984005355473776	-0.2134189492475267	-0.06599810600598585	0.7392629031310888
0.08000000000000007	-0.0189743653708559	0.005793124116778882	-0.02135702697018152	-0.01466748000000001	0.86026412	0.08274928000000001	-0.2683841677464029	0.0156819339510835	-0.2013380796637217	-0.2468031076664424	0.2553714190529365	0.0751472776283094	0	0.4421632101927416	-0.01807905484143878	-0.2750307330473086	-0.2678569482852713	-0.08025585041477735	-0.1110002110809551	0	-0.1628796385930862	-0.04399577353554345	0.1209184290514471	0.165633166712273	-0.1752782212816732	0.1709240183696936	1.005505039631159	-0.193583851974079	-0.2147765864183805	-0.06639521239311172	0.7394251477166237
0.08999999999999986	-0.01474928647081263	0.0148867586186564	-0.01614377637497872	-0.01767895	0.86136167	0.09375491000000001	-0.2661037545796675	-2.368010369228347e-05	-0.1970826109001921	-0.2824725092762653	0.2325491680754202	0.07287385991574895	0	0.437227219926034	-0.004088021351494471	-0.2619134459384319	-0.2929695559193374	-0.05969356013768988	-0.1191071242593323	0	-0.1665821346897064	-0.05319107979505082	0.1113781879613474	0.1527352153050273	-0.1739231336877908	0.1663001674988017	0.9800523004871351	-0.190095966274673	-0.2145479121580537	-0.06581884812543543	0.7381090284380164
0.1000000000000001	-0.01138740757094968	0.02208760716159612	-0.01078557245269806	-0.02108113	0.86256788	0.10443919	-0.2586755503800401	-0.0145331795304377	-0.192815453492129	-0.3232988219624536	0.2060810263922491	0.07105798026659881	0	0.4312158579561466	0.009389152474610595	-0.2504783455598708	-0.3122503162019995	-0.04369314932574383	-0.126830787568581	0	-0.1707521338071012	-0.05877934986871118	0.1012789231478217	0.1400414995343232	-0.1748018434361851	0.1616464166943621	0.9543911678086925	-0.1837339191379067	-0.214327954944676	-0.06478260426062434	0.7376789473707996
0.1099999999999999	-0.01587722737864032	0.02934877044177765	-0.008376468110272314	-0.02400730000000001	0.86336108	0.11502706	-0.2376837649427659	-0.02980627219863663	-0.185147059698836	-0.3715692216935282	0.177445752486509	0.06511075076914173	0	0.4274305793223079	0.02283731334349391	-0.2397552758116057	-0.3198807717733418	-0.03249913982887406	-0.1452745170889851	0	-0.1634307999572978	-0.06521382153718411	0.09374722319247911	0.1338715740528262	-0.1675526211805535	0.1485573412620475	0.9016385178633354	-0.1787845373089144	-0.2153855975933141	-0.06132692512190538	0.731176888699708
0.1200000000000001	-0.01670210998924414	0.03406295763854688	-0.007635731247513347	-0.02703008000000001	0.86460725	0.12506386	-0.2138722777513142	-0.04398184022305893	-0.1796357631830447	-0.4281482819236071	0.1404533352786054	0.05736448719140891	0	0.4158814574563787	0.03368473762643068	-0.2350824525726991	-0.3197810333624403	-0.0204353156541427	-0.1524231809780326	0	-0.1632889594924492	-0.06789320335735723	0.08992494043690552	0.120057437885619	-0.1703140360935642	0.1400195675524097	0.8741906952948175	-0.1718089739533492	-0.2133553422937342	-0.05946471082083914	0.7314455205279299
0.1299999999999999	-0.02591538436914932	0.03873274319748188	-0.0139840016170469	-0.02877242999999999	0.86528563	0.13418699	-0.1722689900352315	-0.05691904635411002	-0.1592252046752757	-0.4943329199933998	0.09927607021562973	0.03931838503891241	0	0.4105877411900568	0.04095990821565049	-0.2364090769880742	-0.3129113662884435	-0.01716820188780921	-0.1607166244748874	0	-0.1540715165239071	-0.07269291046208749	0.09120287924186204	0.1126273757830029	-0.165361499232883	0.1243151473028423	0.8339422475103964	-0.1641669115934153	-0.2142525691128276	-0.05590591972430745	0.72894609245108
0.1400000000000001	-0.03463668322162369	0.04518781832395026	-0.01974044337064708	-0.03070202	0.86588131	0.14339344	-0.1279696817516177	-0.07238757226530101	-0.1464549874582652	-0.5629945160731206	0.05309122374895769	0.02764206689322339	0	0.4045481478213865	0.0502857876179544	-0.2374554008274472	-0.3062212838206332	-0.008610948558389869	-0.1674762590115215	0	-0.1448115199847404	-0.0791522548177306	0.09338295151003809	0.1002470909517608	-0.1650299941872861	0.1099838838663702	0.8029861108617097	-0.1559924754660028	-0.2159884002830325	-0.05224035444559359	0.7309626854878082
0.1499999999999999	-0.03576869708850944	0.05123907334615263	-0.02446038881388802	-0.03274450000000001	0.86702351	0.15275425	-0.09311856170456312	-0.08792010690507843	-0.1401962414730025	-0.6260720518133369	0.002756929416833101	0.02207092600444089	0	0.3919276688586229	0.05920312541040629	-0.2392054684738278	-0.303585252662954	0.008207645205221877	-0.1719061959485352	0	-0.1442074531530448	-0.08467704482303497	0.09481679167589606	0.08508088259601992	-0.1695729089047753	0.1027221681948869	0.7798703709022317	-0.1480105732406289	-0.2173518555089478	-0.05049781754586952	0.736072586295304
0.1600000000000001	-0.04986277693367445	0.06109947346464514	-0.03760209739819761	-0.03361810000000001	0.86696258	0.1609665	-0.03488890764709069	-0.1034024060820615	-0.1141839000289054	-0.6997809172112797	-0.02660978440221556	-0.006257294918522577	0	0.3926194369144349	0.06701976171077707	-0.2535086804549629	-0.2961812635104347	0.0104322879465061	-0.1709565144805036	0	-0.1288637818133561	-0.09580542767110171	0.1018416481909924	0.07794759278875445	-0.1665175259169231	0.0880635040290869	0.7441728583213444	-0.1425949383956723	-0.2218170590924261	-0.04560345233462442	0.7437843675775382
0.1699999999999999	-0.05121861262950458	0.06933865387962038	-0.0412060203937593	-0.03560337	0.86782467	0.16998745	0.002496872914824993	-0.1194329840374637	-0.1087276082626224	-0.7623467613356536	-0.04995028035784965	-0.02101606296716953	0	0.384231044364679	0.07697631112590013	-0.2591693741876653	-0.3000849637812186	0.03003370797332619	-0.1708738242712026	0	-0.1275242039133386	-0.1034762867419631	0.101056156477947	0.06346870172470001	-0.169794714072765	0.08107974809801285	0.7214134638060424	-0.1354820506146981	-0.2259512142084398	-0.04399984940294564	0.7524004676497482
0.1800000000000002	-0.0642582492743017	0.07940269378853806	-0.05232885435049697	-0.03672059999999999	0.86757836	0.17822637	0.0592005039258698	-0.1335972669374755	-0.08942757483262934	-0.8295194350073893	-0.04794555433830446	-0.05206410027668584	0	0.3859363882980431	0.08449119535749852	-0.2782577735304176	-0.2961716406376038	0.03391992737538807	-0.1603232370353317	0	-0.1126990020011096	-0.1132523965140992	0.1040071036757489	0.05605121105415312	-0.1685245515822908	0.06852715895249327	0.6921390620219281	-0.1349062205923058	-0.231983667609673	-0.03915477124257929	0.7685218877237887
0.1899999999999999	-0.06934534877472506	0.08799215692399354	-0.05663807511216917	-0.03849658	0.8680491299999999	0.18689383	0.1019790459202301	-0.1470414372855571	-0.08165989501777698	-0.886107492933361	-0.03636639587954717	-0.0841736489316602	0	0.3792899997989905	0.09457096571594409	-0.2861463058767975	-0.2938011543442985	0.04599919073268256	-0.1551164701052844	0	-0.1065605174043568	-0.120807979729459	0.1010454820442419	0.04448233118842668	-0.1705466509582761	0.05980844207237929	0.670788867986769	-0.1319994769994034	-0.2382690268989688	-0.03603913861628368	0.7834026665044547
0.2000000000000002	-0.06528127798458851	0.09323078710634317	-0.05709015146730218	-0.04069292999999999	0.86941886	0.19600066	0.1300573250477995	-0.1587470324567836	-0.08313589762597418	-0.9319601276706219	-0.02328547165843815	-0.1150457247639843	0	0.3613489073008024	0.1044274348101652	-0.2876682263522853	-0.2897879943532123	0.05865640678180559	-0.1530374136544894	0	-0.1106590173636144	-0.1246738222379709	0.09553693285122608	0.02929282705049474	-0.1759154451803665	0.0562155372938869	0.6562498157724641	-0.1258806833818046	-0.2424296261966112	-0.03645534117435437	0.794373991012859
0.21	-0.06901835232762138	0.1009212602778996	-0.06283099692852341	-0.0423241	0.8702393899999999	0.20464432	0.1718808974010276	-0.1688235664511973	-0.07212006809430879	-0.9782092256411793	-0.02071356442107605	-0.1473662020441158	0	0.3487630687603677	0.1146343012664714	-0.2984444298571006	-0.2773147625362541	0.06223891166688413	-0.1473288643899608	0	-0.1060094295185067	-0.1303946097512145	0.09009124343655012	0.02038549226358479	-0.1791927062909711	0.0510565618420823	0.6385252434107579	-0.1283944900046312	-0.2489764448835679	-0.03586594575488392	0.8159084104846853
0.2199999999999998	-0.06524200501122007	0.101538618769147	-0.060865119372952	-0.04441481999999999	0.87179723	0.21346293	0.1985752063535879	-0.1727880895265511	-0.07288566549734238	-1.01212412577019	-0.01255817210473085	-0.1646617895799086	0	0.3293567798600462	0.121161569473279	-0.2943860319790002	-0.2691069949834517	0.07195287881647006	-0.1457057471064484	0	-0.1107072748447674	-0.1286808074286965	0.08057665833738889	0.00624572827250376	-0.1865598915110207	0.04804834812259454	0.6292422418612535	-0.1212821926685428	-0.25198808782597	-0.03693634257156388	0.8253332357438775
0.23	-0.06421037061326418	0.1057577054447869	-0.06106129707102752	-0.04627758999999998	0.87315435	0.22281052	0.2282623518022614	-0.1814612213736627	-0.07423763890024045	-1.041825903884779	-0.008945674958187275	-0.1849944226272346	0	0.3083519145762916	0.1315987429454273	-0.2933935063430236	-0.2523265699997848	0.07644581079484068	-0.1449247763197645	0	-0.1091052701110847	-0.1306304983300044	0.07066922650167422	-0.008865877806654394	-0.1901764858179833	0.04393695646335002	0.6208243143262965	-0.1227323788900433	-0.2581871833443214	-0.03932541731953454	0.83913651910473
0.2399999999999998	-0.06227023858135034	0.1055492977148918	-0.06068832024811099	-0.04813897	0.87460072	0.23164567	0.2555748600410697	-0.1837950576725382	-0.07433419767031071	-1.064660209153307	-0.001616782610992294	-0.1929828900831227	0	0.2879013051255124	0.1374435961413513	-0.2887477467030972	-0.2381342440220165	0.08138431817539551	-0.1444545444767044	0	-0.1110298940700767	-0.1270906782643102	0.06041297071819501	-0.02275134645305523	-0.1966179847056236	0.03963664006842704	0.6153552169047587	-0.1198854664056297	-0.261823342443133	-0.04088424068766076	0.8514402236007835
0.25	-0.05993389794101885	0.1051695863480842	-0.05968959340309821	-0.04979983999999998	0.87594505	0.24063179	0.2812439468830453	-0.1861501784361747	-0.07763195592765072	-1.083017139435752	0.008737169024564846	-0.1972010580189445	0	0.2662303084037296	0.1427908730717585	-0.285259740052374	-0.2229508827449199	0.08644953907763903	-0.1434521591267174	0	-0.1115787767324169	-0.1243352596044776	0.04935703229858834	-0.03738334094068725	-0.2026540395937683	0.03412760549934628	0.61234300376329	-0.1178548850785455	-0.2667781032023471	-0.0429195082237866	0.8636387318668314
0.2599999999999998	-0.05781489764497467	0.1047322900157785	-0.0575723169381039	-0.05159646000000001	0.87727051	0.24984878	0.3042210544673728	-0.1882231281544499	-0.08216502820988919	-1.094381215734799	0.02515635361363565	-0.1965329861238539	0	0.2451960838894297	0.1480191585152195	-0.2829660686665088	-0.2090667855782453	0.09087249050885461	-0.1425423593047585	0	-0.1113220466534302	-0.1209941756428519	0.03777098432714172	-0.0544407919136136	-0.2088978436407717	0.02659993847630629	0.611775621832609	-0.1180840396534824	-0.2712480643788335	-0.04466340194247116	0.8768103180886
0.27	-0.05184152042422214	0.1074182857097358	-0.0555342714431565	-0.05351295	0.87867251	0.25889069	0.3240085344464371	-0.1958439720230686	-0.08885913209082907	-1.103683613651879	0.04338297883585735	-0.1779174624489126	0	0.2206055993550793	0.1565105336938906	-0.2809428288923901	-0.1954615494400056	0.09271993251766489	-0.1384592849144959	0	-0.1171366124527127	-0.1208867698260134	0.02347494791816024	-0.07290429008032333	-0.2131747968837945	0.00830224205067997	0.6250811571875462	-0.1235200815861851	-0.2790430072837994	-0.04803913103881477	0.9032025658745775
0.2799999999999998	-0.05102914831000691	0.104228353305508	-0.05434960428823299	-0.05501619000000002	0.87984707	0.26789108	0.3461678987275375	-0.1918740080583046	-0.09237026749573381	-1.103644979567156	0.05217900874037987	-0.1791025703325482	0	0.2015548622977229	0.157655964134976	-0.2783793667796797	-0.1828278878308687	0.0976183812757609	-0.1353697863248208	0	-0.114959885457114	-0.1145100198610954	0.01354124974986768	-0.08818126505891039	-0.2195357132217385	0.002458978500638617	0.6226021782608773	-0.1207438008312705	-0.282169884368334	-0.04943237816239692	0.9096435106201801
0.29	-0.04809006230825286	0.1038596286817189	-0.04982941287365637	-0.05677109000000002	0.88085611	0.27657155	0.3658458034455031	-0.1931981532334772	-0.100119451532904	-1.101657832852903	0.06736986603208087	-0.1743924616248312	0	0.1819288093919719	0.1616528295576327	-0.2763353050530518	-0.1725640491153883	0.1026141598903907	-0.122376076206434	0	-0.1179353845505694	-0.1114813707795277	-0.0003564660464273219	-0.1075693512223312	-0.2243434821768166	-0.01434831495419817	0.6367180221654939	-0.1216228692448262	-0.287970166742084	-0.05295702049584995	0.9277680653225537
0.2999999999999998	-0.04755253324893374	0.101899910317391	-0.04758620571868428	-0.05830959000000002	0.88172839	0.28575043	0.3857266218876349	-0.1903038486021537	-0.1046883758450382	-1.092547710529131	0.07493447661393075	-0.1759325963563929	0	0.1628495971133362	0.1636258424210704	-0.2769982645296975	-0.1595706055087783	0.1082990372542745	-0.1175302096808445	0	-0.1143938071128514	-0.1066293039717706	-0.01071027997550648	-0.1245057072374969	-0.2305856330479526	-0.02125693131938121	0.6368411122091224	-0.119632614273708	-0.2905446427550393	-0.05482469732840908	0.9352202690211265
0.3100000000000001	-0.04381663754901981	0.1001418365899337	-0.04347918958653914	-0.05988514	0.8826572499999999	0.2945083	0.4007804402897924	-0.1884087817940443	-0.1124233050800756	-1.079351266280958	0.08811394125194273	-0.1772137462181073	0	0.1420967156602005	0.1653058853634658	-0.2776149179778268	-0.1493221909660295	0.1134596894438915	-0.1010611271756567	0	-0.1182591096164927	-0.1027846834452324	-0.02251161116859394	-0.1454306826927353	-0.2349447419059265	-0.03981951968170828	0.6556402965321853	-0.1204508248015759	-0.2957975101138171	-0.05964818419513192	0.9544992947955779
0.3199999999999998	-0.04395673201208292	0.09912590204041145	-0.04082591649370633	-0.06149018000000001	0.88307601	0.30358136	0.4189426691458008	-0.1861254441536143	-0.1180355517888682	-1.061959075120134	0.09634680768658641	-0.1804368038598632	0	0.1237271113203262	0.1680013212456976	-0.2770168927778699	-0.1363904311349093	0.1207954880589366	-0.09355659623718117	0	-0.1139792584287798	-0.09881492717464943	-0.03256613080155336	-0.1615940864873995	-0.2402682331402217	-0.0468949286113911	0.6555751060411623	-0.1183619568078579	-0.2979426904577189	-0.06117583266669193	0.9613507877560737
0.3300000000000001	-0.03999045948365391	0.09626439142113552	-0.03572893538844909	-0.06293313	0.88385492	0.31242477	0.4295071373342787	-0.1824508164272924	-0.1276779178530886	-1.038280384620945	0.1047513131159968	-0.1825027406706708	0	0.1039596560273688	0.1676973562739666	-0.2821932621809999	-0.1288591593088322	0.1291551896647178	-0.07539735887551068	0	-0.1179805287134027	-0.09365711673012053	-0.04554642352678258	-0.1824640978593013	-0.2425594830562827	-0.06753636136700902	0.6758001754938855	-0.120474869330016	-0.3026905947939866	-0.06675435280755188	0.9807446479922589
0.3399999999999999	-0.0409317770465927	0.09619658957851938	-0.03454184498629692	-0.06427379	0.88391011	0.32122434	0.4471424052124178	-0.1801067430742222	-0.132563093731289	-1.013456605939738	0.1105634118923816	-0.1847826857401009	0	0.08770642362676287	0.1710440324450485	-0.2826699156139768	-0.1172642281350917	0.1345405620712412	-0.07166908391677264	0	-0.1139104873947965	-0.0914700519748293	-0.05351357422931855	-0.195457159587871	-0.2485225878940829	-0.07195416547319464	0.6735963191003936	-0.1171852401182001	-0.3065545643896782	-0.06880728900982734	0.9850800887893123
0.3500000000000001	-0.03670485588172092	0.09090597450283376	-0.02873746441062966	-0.06557974999999999	0.88452674	0.32990478	0.452861949876701	-0.1720804218703192	-0.1423353009472177	-0.979131270867703	0.1187670383024678	-0.1856226542405558	0	0.06937516643948288	0.1672003168717275	-0.2844300717870327	-0.1136895157960575	0.1445613793963446	-0.0507956091135033	0	-0.118800922299099	-0.08393135464544964	-0.06644406014461776	-0.2141052397620143	-0.2493910797869045	-0.09091270568734736	0.6912984737550557	-0.1176063662500906	-0.3085764291934121	-0.07356673398670799	1.001773322883136
0.3599999999999999	-0.0383558628269134	0.0916733239384262	-0.02839994639367373	-0.06670027000000001	0.8842492	0.33868315	0.4678453192853322	-0.1692004676851716	-0.1460448108239699	-0.9452114773590687	0.1225630707824926	-0.1855755462332482	0	0.05351903012856028	0.1714431194318096	-0.2835936276299363	-0.1013921417837339	0.1509531580423857	-0.04848172314970855	0	-0.1139490202504232	-0.08300900695336642	-0.0729909107710998	-0.2265049378905263	-0.2535362051699315	-0.09508118217950272	0.6896224136540133	-0.1149734548684494	-0.311912264949977	-0.07555733435848508	1.005962571411384
0.3700000000000001	-0.0319288386222861	0.08579257558528573	-0.02356987481870526	-0.06792682	0.88485497	0.34766677	0.4668381829745885	-0.1610343281548914	-0.157358285141079	-0.9015975148432183	0.1305451744188621	-0.1773055737496412	0	0.02983126845511784	0.1679045874191033	-0.2792156378001143	-0.09221917922931057	0.1558995792693678	-0.03860673122520192	0	-0.1204717457142537	-0.07470689562784744	-0.08387282729791203	-0.2440792925560403	-0.254099852619612	-0.1145627158890692	0.7062728475621893	-0.1145290212606619	-0.3119947230304875	-0.07994278547085938	1.020027685226896
0.3799999999999999	-0.03405339947043613	0.08755307461150529	-0.02280455383067037	-0.06879753999999999	0.88431763	0.35653652	0.4785968319662854	-0.1585431509475473	-0.1616406375601429	-0.8603317966682844	0.1342572291601968	-0.1764932126927614	0	0.01536763715377946	0.172379853872917	-0.2775175807909102	-0.08201459234754034	0.1626809745711157	-0.03718954673639573	0	-0.1153185766238046	-0.07573846131213147	-0.09085921501096517	-0.2554951396840238	-0.2558717862744603	-0.1189926170468333	0.7050400569343234	-0.1126844182044129	-0.3148670930619036	-0.08174888202595332	1.023489632715624
0.3900000000000001	-0.0262818479996167	0.0809384528873052	-0.0167768916964866	-0.06999079000000002	0.88480024	0.36536175	0.4715257081689821	-0.1497835841126916	-0.1757273840336019	-0.8088080386343101	0.1402883084637098	-0.169962171084111	0	-0.007731638242199885	0.1671995347896897	-0.2719252252505368	-0.07660040734759335	0.1688686643628054	-0.02933735354130577	0	-0.1240969645657151	-0.06608507733340906	-0.1023447592446333	-0.2711510209308299	-0.2563786827727157	-0.1378066235785686	0.7218253828025298	-0.110859886085496	-0.3144820009977497	-0.08550223404991693	1.034130977247131
0.3999999999999999	-0.02858420342787055	0.08083132507415171	-0.01534175295489466	-0.07086480000000001	0.88402162	0.37410984	0.4793293189026123	-0.1449649253502786	-0.1806270323564929	-0.7603190070928918	0.1423394553544362	-0.1640371800483841	0	-0.02177914709608023	0.1693178831398031	-0.2674461216903626	-0.0664415274973402	0.1758362225912234	-0.02492708262523762	0	-0.1195346569713081	-0.06500890574583303	-0.1083699513780464	-0.280786383163295	-0.2576430956250352	-0.1456645250475102	0.7222641226226988	-0.1083926870840805	-0.3154154411298939	-0.08682830694124834	1.038951164219838
0.4100000000000001	-0.02106377333462374	0.07703446947883964	-0.009987873166752441	-0.07176445999999997	0.88419952	0.38304646	0.4702251127214067	-0.138710456119815	-0.19561723856887	-0.7040372249545808	0.1452234648121009	-0.1512528761044478	0	-0.04245187168532424	0.1658961532730294	-0.2649424543832926	-0.06535303371071215	0.1857958891643905	-0.01797609228381003	0	-0.1271524861327098	-0.05931203884265264	-0.1185560929221499	-0.2920050237937665	-0.253156775302937	-0.1655626545378278	0.730354385185479	-0.1057981507803016	-0.3165655569073563	-0.09079318746003297	1.045213641719041
0.4199999999999999	-0.02459968721862399	0.07797118784666604	-0.008884419291512515	-0.07239742999999998	0.8830255	0.39180094	0.476906114066586	-0.1340251956646587	-0.1992169031820883	-0.6517605296123681	0.1448410181434942	-0.1391618848327116	0	-0.05381959415171086	0.1684421123513362	-0.2615601604055005	-0.05793623104895641	0.1913006881684425	-0.01350929556379047	0	-0.1214574877790266	-0.05947740652035108	-0.1235472101114134	-0.3012358464563544	-0.2537180107075911	-0.1725204839519293	0.7305480024133845	-0.1038433390829684	-0.3167410544760333	-0.0916342808251908	1.050117135176807
0.4300000000000002	-0.02640874658246426	0.07733679398244728	-0.005849255202494043	-0.07306515000000002	0.88205842	0.40052086	0.4778368278199058	-0.1293049097675404	-0.2094811134781664	-0.5942444494053162	0.1393822762840072	-0.1148823902203315	0	-0.06446193107743106	0.1683396519249333	-0.2589275113468458	-0.0559690636422495	0.2008845956510979	-0.01010778655813151	0	-0.1182034964452072	-0.05783436804875641	-0.1294012852780392	-0.3104235362735389	-0.2522587077587429	-0.1814120926241471	0.7325381872222666	-0.1017319734461263	-0.3165518908047802	-0.09352163013641379	1.055294419132465
0.4399999999999999	-0.0270374256968356	0.07617074543032788	-0.002186592430936344	-0.07367509	0.88099489	0.40931654	0.4752443913217499	-0.1236535748393531	-0.2206320787923589	-0.5340007483974283	0.1380757434008494	-0.08751431610866049	0	-0.07634784197326773	0.1673876074556274	-0.2559975843709563	-0.05430943407078538	0.2106102259634103	-0.004404970351129837	0	-0.1165447426799617	-0.05555850460631513	-0.1365166781300889	-0.318315922830506	-0.2495135771167191	-0.192239004401451	0.7344531055798211	-0.09975603244380259	-0.3165908558039298	-0.09520213419479763	1.059597947805876
0.4500000000000002	-0.01878964265835307	0.07635085931004509	0.00143338279093638	-0.07436967	0.88059158	0.41847209	0.4606549589568558	-0.1206971392791855	-0.23742552777197	-0.4713638721650251	0.1416849101101143	-0.05026513094812535	0	-0.09821351673407532	0.1675750806009669	-0.2568980896165167	-0.05268131886242695	0.2225145266954435	0.007656044716170432	0	-0.1245772132024182	-0.05436511862603733	-0.1434576042049178	-0.3243683192364371	-0.2411807455529041	-0.2163525300702054	0.7362416151501743	-0.09581096368095611	-0.314855551374093	-0.09846859101920066	1.06130222132881
0.46	-0.01897963372032379	0.0766120104260337	0.001452822467884629	-0.07459322000000002	0.87928854	0.42747211	0.4557198188400269	-0.1146078467874002	-0.2499909792959451	-0.4080297658689158	0.1376670572777353	-0.01661167066908795	0	-0.1114296762214788	0.1684287883332936	-0.2598801101327222	-0.04894692984078627	0.230687726082548	0.01449028143181879	0	-0.1232071372445184	-0.05409279717177668	-0.1454887866233964	-0.3301862168692617	-0.2363437932964691	-0.2321024740917184	0.7344200420624714	-0.09291342652532507	-0.3130569763154106	-0.09996561489650765	1.063708809932226
0.4699999999999998	-0.02594810885588936	0.07768247670466934	0.002014139128113053	-0.07474247000000001	0.87729632	0.43637092	0.4576930016985337	-0.1081239037612794	-0.260349075564877	-0.3442042331494418	0.1304207781708213	0.0134002788080524	0	-0.1159676314113655	0.1696522372608711	-0.2607717248456058	-0.04810314709778404	0.2388240513749469	0.01709414931297634	0	-0.1138677085021654	-0.0549888701537016	-0.1477631103363716	-0.3359951916808184	-0.2338348840675236	-0.2374239766978638	0.7325933146684214	-0.0923902033445818	-0.3115897684213142	-0.09877733732041752	1.067215936315839
0.48	-0.02755407307766762	0.07758758559076302	0.002136250280241646	-0.07478614	0.87572764	0.44572337	0.4517949234653397	-0.1006222913623791	-0.2765153593273399	-0.2794708206447191	0.1280692676207426	0.05747670575365977	0	-0.1274254140888856	0.1696202146578872	-0.2650453977422995	-0.04611194493648086	0.2487088705503398	0.02501496257106941	0	-0.1100225748488272	-0.05462860417642683	-0.148098137630932	-0.3409754785784745	-0.229834688731187	-0.246000300367355	0.7289914785165476	-0.09113983690208245	-0.3094576415694209	-0.09772627246866436	1.068438107138805
0.4899999999999998	-0.02380133660802995	0.07981078676473269	0.001897946646697821	-0.07458873999999999	0.87441256	0.45479694	0.4415024915443226	-0.0945780559414974	-0.2896682183407674	-0.2178461725466195	0.1297753164925915	0.1081224869029927	0	-0.1445722456417345	0.1716735681683868	-0.2709897628053882	-0.04334071917867881	0.2587728914066812	0.0400293304234795	0	-0.1135207433300543	-0.05709533996745886	-0.1484178137075236	-0.343264513148116	-0.2236420060761062	-0.259257580859133	0.7253360003682456	-0.08615619914679538	-0.3088960398201568	-0.09824176157189325	1.069395099965606
0.5	-0.02937530866769143	0.08129924996823139	0.002386245636569491	-0.07446648	0.87223298	0.46392698	0.4416666849645003	-0.08704217417726703	-0.3003720271590063	-0.1596002118779457	0.1209673157237954	0.14483778701545	0	-0.150371040820429	0.1727943503716438	-0.2748466929646077	-0.04365893406562067	0.2658761116343957	0.0443880779982983	0	-0.1055711073556279	-0.0584170600076358	-0.1484905204589702	-0.3473702595398949	-0.2202072352836945	-0.2645373821389276	0.7220934107468306	-0.08474514826857947	-0.3067395127417218	-0.09530809906780567	1.071364253731535
0.5099999999999998	-0.03448920874200508	0.08362976206086184	0.002882101378386868	-0.07420631999999999	0.86995964	0.47288325	0.442623501513047	-0.08005565713531634	-0.3008598034007733	-0.1066284175190435	0.1139915371691335	0.1771052593443301	0	-0.156738875294462	0.174778524615648	-0.2765884917645912	-0.0431908714922879	0.2750020644435483	0.04977158778944394	0	-0.09954362988809215	-0.06099473084578676	-0.1483488279980422	-0.3493758039443264	-0.2173453791156924	-0.2673008160488171	0.7201230801053874	-0.08206937404397023	-0.3059104090903935	-0.09443787214317476	1.073608308548358
0.52	-0.03886870062827336	0.08871882481217014	0.003445588354371177	-0.07388192999999998	0.86767376	0.482135	0.4449772270604794	-0.07665378737010098	-0.3045723066917256	-0.0627204565596227	0.1117234826788315	0.1976624365048409	0	-0.1632602425430686	0.1792744555932723	-0.2792197646311306	-0.04540844756996371	0.2817288475203367	0.05308150488301797	0	-0.09437733574713519	-0.06693164736722673	-0.1472528561737011	-0.3547231276495575	-0.2122735097307293	-0.2682764591149392	0.7167486432508221	-0.08221740815873542	-0.3043672223015688	-0.09354074376065116	1.074457098466452
0.5299999999999998	-0.03860831105541486	0.08625430953931708	0.003327649918868694	-0.07392747	0.86601999	0.4916879	0.4442657917619914	-0.06755216392712242	-0.3305196772072196	-0.02846885501623311	0.09985807311852045	0.2389391729433425	0	-0.1741781653868824	0.1758142321407799	-0.2898054261781825	-0.04862061941864199	0.2942211683523898	0.07051923150949443	0	-0.09286417438103134	-0.06335097769585667	-0.1461560919698795	-0.3521365591228798	-0.2088363324783448	-0.2776775967655232	0.7106068557929928	-0.07822538951541153	-0.2992023816708129	-0.08870946522054865	1.073247749879368
0.54	-0.04079164169065756	0.09055251686989549	0.003690773581732269	-0.07393111000000002	0.86387094	0.500788	0.4510863061754617	-0.0668944036117855	-0.333348693783615	-0.0109186937557444	0.103173138584322	0.2401422680157163	0	-0.1829000709835397	0.1800896831789156	-0.2914804673560076	-0.0499635343881893	0.2979812149357653	0.07114028353640463	0	-0.09089956981579807	-0.06669032348408027	-0.1463359861974752	-0.3513703567887275	-0.207376573649496	-0.2776372553997256	0.710764458675382	-0.07541598712368305	-0.2961722809989063	-0.08734764641534006	1.074812634775987
0.5499999999999998	-0.04207342138142642	0.09172355453689679	0.003855974321959204	-0.07380943000000001	0.86192002	0.50996966	0.4592136739145406	-0.06564384884825986	-0.3330613598797933	-0.007439362962199962	0.1032155361225115	0.2401780100898691	0	-0.1914590174568665	0.1802450026470445	-0.2918729163320244	-0.05396291919362123	0.2979654638628648	0.07109535684159611	0	-0.09168392497043452	-0.06650310952013463	-0.146259281594844	-0.351169217366279	-0.2072453207009558	-0.2775936289752098	0.7107703077973042	-0.07523421195475247	-0.2959328267124547	-0.08722862874845515	1.07486176282737
0.5600000000000001	-0.04203048972569848	0.09468460642213113	0.003976020451941267	-0.07418448	0.86013196	0.52010972	0.467543800392548	-0.06893434060179213	-0.3398934032401706	-0.01586309109892595	0.1024625190527263	0.2295352727856184	0	-0.206341426200521	0.1839152434882915	-0.2918710418484079	-0.05077182202112787	0.3081576939880639	0.07775898413220352	0	-0.08924094852104283	-0.06835383484233377	-0.1408912052266749	-0.3538579126124066	-0.2048900775897387	-0.2787907263981419	0.706001794613229	-0.07235077234708856	-0.2861078248574495	-0.08279775771122572	1.07611107858166
0.5699999999999998	-0.04023770182053475	0.09736891093019896	0.003913809036341188	-0.07410677999999998	0.85845891	0.52959354	0.4773898430643505	-0.07271147151508367	-0.3162570003234291	-0.03796239196821406	0.1101267657691835	0.1847059284285262	0	-0.2179428599474557	0.1850685633411947	-0.2953488625830835	-0.05624668531238261	0.3147846915300608	0.09218716430577538	0	-0.0918504599243367	-0.07021459598226479	-0.1368514174453228	-0.3508534663606422	-0.2007171334037641	-0.283413788554745	0.7010114692798471	-0.06588909186824167	-0.2817820559769789	-0.07657755487903238	1.068469904943381
0.5800000000000001	-0.04095312798917894	0.09793059218480883	0.004006378406955165	-0.07406277999999999	0.85662233	0.53932451	0.492852135532118	-0.07573406587494325	-0.2994589154002588	-0.07058976113723214	0.1159985705139498	0.1410146638838416	0	-0.2280585851356899	0.1843685349910988	-0.2941885535591907	-0.05987620098992946	0.3182621919968187	0.09627636846690393	0	-0.09173457198186646	-0.0689690206430951	-0.133987738280917	-0.3492852602769902	-0.1989547400676731	-0.2860164593145685	0.699533443485981	-0.06396094653295087	-0.2769996375802201	-0.07171823134131125	1.066499665757191
0.5899999999999999	-0.04184444016693657	0.09815124237760796	0.004102867644759948	-0.07403988	0.85483111	0.54903555	0.5070224625073295	-0.07785310397917705	-0.280263455641327	-0.1039546624658459	0.1205866782634914	0.1004864104987943	0	-0.2376151998576342	0.1833686320229069	-0.291519437242079	-0.06402115201456425	0.3224489054343282	0.09740500622259124	0	-0.09164495543342893	-0.06755747897829353	-0.1307821815791696	-0.3458813589485255	-0.1973058636442634	-0.2876908032333575	0.6976190902660382	-0.0619993201975532	-0.2712584538002718	-0.06824990292883847	1.063804733751514
0.6000000000000001	-0.04117241312402226	0.09692681101201663	0.003986699974361004	-0.07392112000000001	0.85330534	0.55936012	0.5178551727920073	-0.07882348540120315	-0.2722759273471094	-0.1382932173597674	0.127258740032242	0.07901777929325954	0	-0.249877069858715	0.1809363430971898	-0.2908217759075147	-0.06724612829676685	0.3217900616185916	0.09872003833560747	0	-0.09267470196103361	-0.06416253433048423	-0.1286656483714783	-0.3432525298920047	-0.1965598861854832	-0.2877956074624129	0.6962181809725069	-0.06358045009525039	-0.2649018084575404	-0.06462547383886362	1.061550150585044
0.6099999999999999	-0.04172651163924152	0.09686570150575553	0.00403787493236825	-0.07351678	0.8516204000000001	0.5696898499999999	0.5277518966836952	-0.07948272366135067	-0.2559164225464813	-0.1707274518844182	0.1380442361935937	0.05773931741769279	0	-0.2606753615524118	0.1794197484939143	-0.2905579946983499	-0.07040524824483688	0.3211743366856243	0.09942734209069028	0	-0.09227073660448035	-0.06280240448039281	-0.1258956214803394	-0.339354963231811	-0.1953522099728889	-0.2869505635444932	0.6950914562722126	-0.06430340526493337	-0.2603072286780665	-0.06072943818148976	1.058585125910561
0.6200000000000001	-0.04265332691910675	0.09522028403377614	0.004057769161730751	-0.07290666000000001	0.85005112	0.58025393	0.5335918324144517	-0.07754798359948123	-0.2377771679830156	-0.1978066404945626	0.1408630708681987	0.04088053657538925	0	-0.2706407562961839	0.175628176202793	-0.2905070326549881	-0.07492260820048427	0.3185997973172173	0.1014393038962484	0	-0.09079558449522766	-0.0595718525693618	-0.1236561584502448	-0.3365279715864138	-0.1961291186802716	-0.2843048260872449	0.6952333257095268	-0.06616409886062236	-0.2561090773998371	-0.0570145268597684	1.053470122982063
0.6299999999999999	-0.04414718201169552	0.09154795553664495	0.004038546394744299	-0.07224157999999997	0.84869133	0.59111612	0.5367248733037726	-0.07363969782515345	-0.2256663497709767	-0.2206867257493705	0.1351009382503046	0.04056697648156248	0	-0.2798958296105966	0.1699025705336164	-0.2908511075618579	-0.07982586289720854	0.315923386221964	0.1017119190894221	0	-0.08887166198406206	-0.05381610558760197	-0.1205073331522348	-0.3332675110151889	-0.194370782012961	-0.2829442333758359	0.6956616897218255	-0.06997472019879873	-0.251035898843402	-0.05397357495230343	1.051418006386404
0.6400000000000001	-0.04617907893683117	0.09203700869794355	0.004247183511702964	-0.07148073999999999	0.84715207	0.60197016	0.5412669115169114	-0.0727827568703875	-0.2128857518591742	-0.2459468477391505	0.1207651962989719	0.01397223873736129	0	-0.2880438037540221	0.1676894408567429	-0.2954902468188657	-0.08576146518572178	0.3072475290432254	0.1068383670144902	0	-0.0859471601896194	-0.05354441908412319	-0.1180537074018791	-0.3290618644204868	-0.1948357525609909	-0.2786643226723955	0.6950380331400725	-0.07137209991298377	-0.2479845053291541	-0.04789685406712021	1.043631525186718
0.6499999999999999	-0.05025810620098937	0.08939782493626397	0.004490737793189918	-0.07072437999999998	0.84591043	0.61288373	0.5440494651596907	-0.06884370670093361	-0.2115649900047566	-0.2590298105048259	0.0725411612394765	-0.0170679691996635	0	-0.2919187666550732	0.1618379129981604	-0.2967958126150849	-0.0954721570504334	0.3025524790362947	0.1094893329545787	0	-0.0809476004936981	-0.0494250702942859	-0.1143507269763915	-0.3250025158615428	-0.1940249310590443	-0.2754333558966013	0.6940887747398516	-0.07523824418892336	-0.2436847764120573	-0.04222163221372427	1.037736769013222
0.6600000000000001	-0.05611053973930701	0.08121326958254345	0.004556667472643059	-0.06928565999999997	0.84483986	0.62375187	0.5469981189948554	-0.05627392763307821	-0.1871075016538033	-0.2680457304275499	0.03806952237209657	-0.07974545069164726	0	-0.2917920522607199	0.148695299416508	-0.3009183995142833	-0.1084145501254885	0.2947486894064161	0.1144903564581436	0	-0.07408084829408509	-0.04008990364596629	-0.1095408646734085	-0.319808903129002	-0.1950843754110692	-0.2712076444732194	0.6933684190635566	-0.07552169333889594	-0.2408149446129725	-0.03524735987820678	1.024948604924579
0.6699999999999999	-0.05793820833199125	0.07463994890209344	0.004325307698390964	-0.06804033999999998	0.84450093	0.6345328099999999	0.5489149905503758	-0.04817962917093568	-0.1723902501011394	-0.2854329186020739	0.01730883964627028	-0.110852482398809	0	-0.2944770817918195	0.1372529681388559	-0.3020451271816373	-0.12333325368907	0.2839670844566318	0.1176569554911243	0	-0.07258781668290913	-0.03228672173973329	-0.104640048725248	-0.3137618900166157	-0.195162933902432	-0.2678938565884303	0.6925634353388919	-0.07710732095007551	-0.2359474525852861	-0.03106192140371592	1.016064317559508
0.6800000000000002	-0.05771155950205264	0.06719674189391225	0.003879402549214184	-0.06701608999999997	0.84447975	0.64521743	0.554840709039335	-0.04148108726677383	-0.161284905424666	-0.3177572651026241	0.002722189336203855	-0.1232694919245727	0	-0.2961029652476634	0.124243335730769	-0.3029912836081787	-0.1439027141277905	0.2708842065139581	0.1178479882354733	0	-0.07458981038951031	-0.02288005156995335	-0.1004626111891141	-0.3063957486779917	-0.1952271899441734	-0.2667164449086643	0.6935633335946948	-0.0800982751085903	-0.2308032401754924	-0.02720579950647298	1.008712312340627
0.6899999999999999	-0.05532069470091391	0.05926109030666363	0.003279784019920018	-0.06586208999999998	0.84488129	0.65657864	0.5600744249002306	-0.03369842397482604	-0.1507926867113708	-0.357357162848704	0.003093726300722148	-0.1353011707996738	0	-0.3011280292654112	0.1107755425257946	-0.2993249187941345	-0.162901541777067	0.2559323354114034	0.1181329998041923	0	-0.07751229266347549	-0.01341375571693753	-0.09482127821927124	-0.2984710365288826	-0.1966163039535539	-0.2667189302575191	0.6949793947895945	-0.0835667171419974	-0.2267136687970893	-0.0248934106861106	1.003127614781413
0.7000000000000002	-0.05124325396409652	0.0526295197969064	0.002698021572763387	-0.06394913000000002	0.84548484	0.66824847	0.5600975667443816	-0.02468820586823539	-0.1407497323281668	-0.3928887132927497	0.01391377631607186	-0.1533705238793995	0	-0.3048168295888581	0.09626990272015701	-0.2967842592335683	-0.1881597180737969	0.2334250542301507	0.1187144127857959	0	-0.0811438873772273	-0.006987516242947476	-0.09059473375023741	-0.2928929289838579	-0.1932704774087518	-0.2652338528098763	0.6948063145019314	-0.08860329282789255	-0.2243047849111743	-0.02183348163915576	0.9938212872555212
0.71	-0.04717396691069849	0.04460099688811095	0.002104870101064841	-0.06189062000000001	0.8464549	0.68000256	0.5563485663498421	-0.01443717001548305	-0.1367655034383604	-0.4209843624606336	0.02227770702916357	-0.1602526822748528	0	-0.3054928195191662	0.0794866038773437	-0.2936248342019451	-0.2178588158862539	0.2098833275713482	0.1197019726109847	0	-0.08477984750850423	0.0006076402188061802	-0.08540382016938473	-0.2850816241407532	-0.19100927071777	-0.2641172707414642	0.6947999726735615	-0.09384919632295489	-0.2233848613068892	-0.01840615659586593	0.9858374889044481
0.7199999999999998	-0.04350738591477705	0.03703936913562969	0.001612136754841405	-0.05978229000000002	0.8475736699999999	0.69172314	0.5474656633799332	-0.003598883927443875	-0.1339982205538715	-0.4390556879369472	0.03514606445907954	-0.166556429480483	0	-0.3017982899779167	0.06226626411785553	-0.2895789642972156	-0.2542676850512801	0.1832379586982113	0.1204129380668382	0	-0.08830410936018031	0.007772724339989384	-0.08118341699038988	-0.2762075534095241	-0.1882184681253471	-0.2629842557000129	0.6944514222188907	-0.1000281613882467	-0.2235234292793904	-0.01452720055601915	0.9776518365931306
0.73	-0.03909023713755721	0.02833864877198885	0.001108183432288182	-0.05762604999999998	0.84910287	0.70348431	0.5315925197081146	0.009881505144209218	-0.1292861373551718	-0.4464293078368829	0.05114134941354542	-0.1798057709930924	0	-0.2946748078738499	0.04302824328338339	-0.2869787080258792	-0.2967226142043879	0.1509176831781413	0.1202114377103004	0	-0.09171327652153119	0.01610076619673818	-0.07541506227371242	-0.2661591968832193	-0.1871290259268035	-0.2608254305465518	0.6904761760151455	-0.1047679237635539	-0.2249363944347299	-0.006986950058138129	0.9667136452407133
0.7399999999999998	-0.03522627734680109	0.02395046153053835	0.0008439569979616899	-0.05559132	0.8507244900000001	0.71444335	0.5148980024482246	0.01958502422929393	-0.1211558083159511	-0.4494009069921248	0.06404544595055447	-0.1868767436448825	0	-0.2791514702465659	0.02709275191282743	-0.2852607535650706	-0.3500549483827246	0.1136807792014208	0.1152051778699136	0	-0.09697870641119898	0.01904984519410865	-0.0702206611759484	-0.2554406524246388	-0.1837117250075396	-0.2587104592340081	0.690817153137126	-0.109020257566681	-0.2260520696300626	-0.002976120081603313	0.9597694250314542
0.75	-0.03463176216719953	0.01763383304566973	0.0006109063792810393	-0.05355812999999998	0.85234568	0.72524977	0.4988881621459288	0.0325635255485789	-0.109545186981301	-0.4467823638590177	0.077134432894676	-0.1977955705692489	0	-0.2558486281987473	0.008510053343260104	-0.2847124266155643	-0.4088626198837408	0.06319186841979003	0.1024850496825732	0	-0.0980565983698187	0.02418400572914131	-0.06481146083634512	-0.2440941137175153	-0.1821114142904288	-0.2557847107508807	0.6895868113807336	-0.1132311408472708	-0.2277441797789064	0.003121066534388788	0.9514895516440667
0.7599999999999998	-0.03879590303053337	0.01088031168248366	0.0004223182050207308	-0.05178577000000001	0.85364726	0.73558854	0.4873399063123744	0.04589728357565249	-0.09547305694219574	-0.4417687725885751	0.08293951370213855	-0.2209278853970343	0	-0.2232713395072859	-0.009865933665688774	-0.2811920811081967	-0.4716470993091168	0.008639758010220839	0.07406800598691599	0	-0.09445524986293807	0.03029973350137612	-0.05705635611875339	-0.2296449382802395	-0.18146934762666	-0.2518655431977326	0.6828014327140338	-0.1160935415579995	-0.2294859003881393	0.01438438707011253	0.94224010631836
0.77	-0.04460016662316253	0.006844895925401519	0.0003054868273611552	-0.04979496999999999	0.85444992	0.74526103	0.4824471637337349	0.05663645067014166	-0.07916076225063651	-0.44543267387038	0.08740679510009139	-0.2421179362230779	0	-0.1837027295805748	-0.02670164073168217	-0.2766609831424081	-0.5405313184181147	-0.03494001734530732	0.0516247450534228	0	-0.08950081652749173	0.0324180331568034	-0.04910587034351424	-0.2145436938717845	-0.1786134498381914	-0.2462131094102483	0.6768325288452608	-0.1155550174247699	-0.2350270495390555	0.0280894284653641	0.9329887863345038
0.7799999999999998	-0.04775236531102989	0.001923276946945655	9.191397977411663e-05	-0.04811958999999999	0.85546677	0.7549904199999999	0.4741803405222302	0.06574764322981011	-0.07159440476873831	-0.4477712599082819	0.1015681866876644	-0.2489354202213681	0	-0.1465634108020576	-0.04403019369732081	-0.2731363624510378	-0.6095796204679489	-0.06752647826558668	0.03383310003762816	0	-0.08790296532836288	0.0356128110541563	-0.03986455720492429	-0.201564876647905	-0.177886335199835	-0.2424491663793177	0.6752153530115881	-0.1167863856092954	-0.2376604253528107	0.03626437876677423	0.928029393122389
0.79	-0.05553011768072354	-0.003164699896822987	-0.000175913576706414	-0.04658973	0.8560844	0.76406266	0.4718729297299604	0.07373545740895922	-0.06974085026782169	-0.4500833862311249	0.1091805219016466	-0.2520464551268152	0	-0.100506165007933	-0.05980100749336456	-0.2655922938708851	-0.6824050909556534	-0.09796855052331287	0.009833453262842084	0	-0.08190094348796748	0.03932414410184522	-0.02910393076368309	-0.1871580832153883	-0.1770291060912095	-0.2372136854669495	0.6726136823254258	-0.1161893912007947	-0.240687738210303	0.04688289177367179	0.9223642210493589
0.7999999999999998	-0.07070852635581887	0.0009355129927166748	6.62623390475246e-05	-0.04553093000000002	0.85595784	0.77212037	0.482437158110199	0.06996289541858353	-0.07113236009066642	-0.4601418689832167	0.1168570967512753	-0.2481045272584906	0	-0.04363412979535717	-0.06219000509778229	-0.2503885122415402	-0.7535984138262957	-0.1318155152819859	-0.02823442308923693	0	-0.06856357524733614	0.03301458791686554	-0.01855437536646596	-0.1731391576186678	-0.1784698467653311	-0.2257342317342392	0.6716955056211891	-0.1135768430991353	-0.247129071989796	0.0654072270566512	0.916951690621543
0.8100000000000001	-0.07238324949120556	-0.006343681771960601	-0.0004599736515773363	-0.04390723999999999	0.85718973	0.78117065	0.468243615987008	0.0789141603172991	-0.07653635934909878	-0.4525003363307108	0.1319097031968003	-0.2427396806221024	0	-0.005100800486242965	-0.07981402624875444	-0.2460240658176478	-0.8179454088638304	-0.1452569023535093	-0.0573860798813158	0	-0.06961520052431211	0.03857595932516001	-0.006151499691517838	-0.1587035219221302	-0.1780947800469336	-0.2210535342678793	0.6723200706468178	-0.1127438616752749	-0.2488939429952932	0.06979293909574869	0.9166172218323431
0.8199999999999998	-0.08289157736820291	-0.01034995991397963	-0.0008598761497787814	-0.04263238	0.85748928	0.78913425	0.4675801803845424	0.08363243926031051	-0.08173477627493871	-0.4496634947451471	0.1371730358988389	-0.2350606506178149	0	0.046336026362881	-0.09263625584827068	-0.2395204538035217	-0.8821629144335014	-0.1397910233191122	-0.09981011757932803	0	-0.06210558282373163	0.04069067704136343	0.005242638158564787	-0.1437566272768717	-0.1801249346410157	-0.2095174379686906	0.6747526189284617	-0.1126996763963326	-0.2525472862568541	0.07914026807096082	0.918390789813503
0.8300000000000001	-0.08240269021296691	-0.01561877582522836	-0.001289893840220121	-0.04125592	0.85901182	0.79790842	0.4498584831037128	0.08993073405735752	-0.08856676814810313	-0.4388588540672303	0.1472827164882747	-0.2300433145689291	0	0.08094153407828403	-0.1059839510275531	-0.2356933417219079	-0.9346275810380221	-0.1144659180088914	-0.1433375314865	0	-0.06567921654928811	0.04394733890347136	0.01895674008156223	-0.1286776408778346	-0.1803791352143175	-0.2043613918775026	0.6764502591530404	-0.1114652854760755	-0.2538310204275919	0.08172762339206525	0.918646637104954
0.8399999999999999	-0.08444200997532708	-0.02139781686380119	-0.001811038229511173	-0.03971664999999999	0.86028084	0.8064253	0.4346645301215175	0.09797176349993286	-0.09099053602734618	-0.4272841819773153	0.1527282994378663	-0.2245147932242169	0	0.1196634315523105	-0.1202481823015756	-0.2327639430571829	-0.9839604427953985	-0.09885956606466428	-0.1937492112741971	0	-0.06609839820985906	0.04703252478456473	0.03246641665072841	-0.1144328927142522	-0.1819866553629695	-0.1939405498002311	0.679878179877204	-0.1100869118738459	-0.2564627483014673	0.08553935510871175	0.9187064950915134
0.8500000000000001	-0.08539890534086092	-0.02465468411079279	-0.002110396328061961	-0.03844940999999999	0.86165424	0.81493913	0.4192654918765008	0.1031598356847633	-0.0926992222662278	-0.4173546652688447	0.161407574669412	-0.2225885454108888	0	0.1562962193045176	-0.1304676786584809	-0.2308842773834588	-1.025690044178238	-0.07809805954343105	-0.2412654158382414	0	-0.06717078068762901	0.04779936468749279	0.04524948437795547	-0.1002596194487304	-0.1855852375229857	-0.1802947717578626	0.6846741435997545	-0.1093421133849754	-0.2585736779550622	0.08693663690992576	0.9199629005477575
0.8599999999999999	-0.08240015046850768	-0.02662766802427026	-0.002198836703347113	-0.03714091999999999	0.86324219	0.82341814	0.4005718118340565	0.1074732087132875	-0.09115890549682511	-0.4095851504148168	0.1689897483249918	-0.222073091214245	0	0.1866167679516189	-0.139459012302565	-0.2296392211052087	-1.058568135304826	-0.05756937366122854	-0.2663277052809067	0	-0.07332932348081035	0.04634360667688827	0.05894839024275458	-0.08452263990743415	-0.1845580725118776	-0.1751053795805189	0.6886083773586046	-0.1075141831100049	-0.260612422187058	0.08565330852823907	0.9204387902246539
0.8700000000000001	-0.08271592224106523	-0.03173848243469252	-0.00263083064252995	-0.03583622	0.86471002	0.8321609799999999	0.3815056521747648	0.1148160354201646	-0.09297558660116777	-0.3941100028989766	0.172685704149306	-0.2216723943357819	0	0.2195237353761479	-0.1522813178239037	-0.2291350015929599	-1.086327447308546	-0.03970108547839231	-0.2899772775795192	0	-0.07388506493804507	0.04875486787577737	0.07192384892955456	-0.0687835815044658	-0.1870925729800464	-0.1647069925603377	0.691809146098615	-0.1075831318185062	-0.2627634725968331	0.0838244492145077	0.9221244801798441
0.8799999999999999	-0.08093760274419474	-0.03163305523655437	-0.002565472429534212	-0.03490429	0.86626357	0.84047642	0.3627819809180529	0.1166000148139114	-0.09111143323930257	-0.3830818885183053	0.1784369790739234	-0.2215413770066908	0	0.2499674012940141	-0.1559164058141534	-0.2255749308210207	-1.108012912111696	-0.01571146247856629	-0.3059964276425781	0	-0.07776171661968044	0.0457326918713395	0.08355398496510411	-0.05234143518922284	-0.1881126278688476	-0.1556104129443645	0.6959099446564975	-0.106813125888315	-0.2644721490618709	0.08149863619420361	0.9223259203225227
0.8900000000000001	-0.07920111786855964	-0.03612950509321722	-0.002866860660062851	-0.03376107	0.8678644	0.84919524	0.3415134208189315	0.1231752739900952	-0.09281383035875758	-0.3672015586278244	0.1793755321481114	-0.223529797811298	0	0.2784132608992205	-0.1665313948267583	-0.2242616609669502	-1.124170962283413	0.01256467415432623	-0.2934393032589971	0	-0.07994683812538252	0.04733924772557972	0.09260421299946747	-0.03409485212700458	-0.2024906017266237	-0.1016472045496862	0.6970287729636568	-0.1116173863825308	-0.2644149502589599	0.06927347675047762	0.9261984109646885
0.8999999999999999	-0.07901194388151173	-0.03586580738514386	-0.002839119461361604	-0.03315085000000001	0.86929922	0.85745324	0.3230317251513088	0.1237047335813217	-0.09433120198261601	-0.3530513441287812	0.1837425581686382	-0.2190662615408541	0	0.3084449545880569	-0.1679897818268151	-0.2208100992344696	-1.133355136483885	0.03105503922140945	-0.2998070192251739	0	-0.0818213458275681	0.04537880245448689	0.1030208275402248	-0.01713230814454439	-0.2027383161328264	-0.09719527995475581	0.7031057380204023	-0.111953258940048	-0.2656727100907037	0.06682122195624939	0.9266771374997508
0.9100000000000001	-0.0780329280537726	-0.03318731458298389	-0.002594487232580151	-0.03230486999999999	0.87082578	0.86572043	0.305133343128845	0.1212589518642233	-0.09984493061471998	-0.3414043229053833	0.1867309617029842	-0.2179977320519408	0	0.3357302712952508	-0.1676581432635303	-0.2203006465269917	-1.135158415204902	0.03640730692081268	-0.2984472908008105	0	-0.08462930832266366	0.03906865966434563	0.1132196138202261	-0.001391982458006172	-0.2028008607047033	-0.09519980836903641	0.7091665996222716	-0.1118048761084982	-0.267523334707405	0.06537315683338887	0.9262368612662415
0.9199999999999999	-0.07553696958952708	-0.04075110920325409	-0.003083216845283238	-0.03161045000000001	0.87210966	0.8746254999999999	0.2804395028141854	0.1290593120966546	-0.1110226645672491	-0.3209962741810786	0.192768633289615	-0.1915285248452613	0	0.3599306140043225	-0.178859712828588	-0.2172548165988003	-1.135855761682069	0.07191240358391876	-0.2604320977358017	0	-0.0854340113983845	0.04624942661605555	0.1196344690351041	0.01833163243306917	-0.2096166278226082	-0.06660596247108636	0.7146275920838291	-0.1183267716682694	-0.264552288821536	0.04917573587347157	0.9256394753803897
0.9300000000000002	-0.07559039883639676	-0.03795896697069742	-0.002874109624966135	-0.03119279	0.87345689	0.88334755	0.260210383673999	0.1264926825604176	-0.1158978290623271	-0.3039395201181226	0.1980324323436297	-0.1885795777947823	0	0.38353707125989	-0.174695139067173	-0.2151145716969572	-1.123592220528229	0.07776430407029652	-0.2542873634640634	0	-0.08436466230285451	0.04172101349025529	0.1256826038706006	0.03455516945271576	-0.2093494767317237	-0.05871340260292458	0.7227448137003673	-0.1221531107435575	-0.2660763785667512	0.04573591968325814	0.9233604298536561
0.9399999999999999	-0.06813144136265481	-0.03861122634786943	-0.002634052621171215	-0.03085299	0.87516951	0.8920069899999999	0.2331540086115733	0.1264674245045486	-0.1273009377302321	-0.2887880261097064	0.2054061084431674	-0.1646073998844287	0	0.3989786965858529	-0.175337865814465	-0.2142560599458645	-1.109763661832748	0.1014306393837098	-0.2377666429494944	0	-0.09312491784463305	0.04096608057255018	0.1306116159618929	0.05300714443210504	-0.2205135372512939	-0.02099257676955714	0.7334626123797583	-0.1266050653581511	-0.261092507810009	0.02515596859400266	0.9234657850831565
0.9500000000000002	-0.06861072264207131	-0.03713916561554583	-0.002551555597389938	-0.03059704999999999	0.87613419	0.90047718	0.2142810296733411	0.1255749751752167	-0.1294843852906486	-0.2724101159394514	0.2087328400387552	-0.1620660959483028	0	0.4216963391602558	-0.1719588179745487	-0.2126338840929506	-1.090288236251965	0.1042614060017461	-0.2374557924793314	0	-0.09226319084799227	0.03806210280291342	0.1362652140585213	0.06912065223051449	-0.2199828011262525	-0.01630502399896126	0.742031965902349	-0.1301496849047553	-0.2623024510307688	0.0225033315011554	0.9213781250318138
0.96	-0.05999920146573787	-0.03486359519616407	-0.002093871134222912	-0.03041004999999999	0.87794367	0.90924908	0.1853764605397304	0.1230334286383247	-0.1375093200049937	-0.2563594015968702	0.2137309725789471	-0.1457217301336065	0	0.429956683709577	-0.1677281943219871	-0.2138711656275148	-1.061928900471762	0.1136131613064742	-0.2348949991495801	0	-0.1025360567554298	0.03444315614118495	0.1387161319305425	0.08629495770925084	-0.2282319219867529	0.01372381939267378	0.7573107331595447	-0.1338309756000297	-0.2577400231831764	0.002684727414606123	0.9203032160154186
0.9699999999999998	-0.06243230319427927	-0.03378406010869051	-0.002111553383636577	-0.03005842	0.87831837	0.91729357	0.1704905686424877	0.122952844692365	-0.1383810070720768	-0.2427110512882502	0.2175663208693012	-0.1445323177444367	0	0.4526886442670316	-0.1646403986500632	-0.2130389210816646	-1.034950284714434	0.117609891117048	-0.2363323914095317	0	-0.1002927812281171	0.03172956883473247	0.144136305329686	0.102538223930762	-0.2280059744543165	0.01592233664945075	0.7664286363356542	-0.137873815089579	-0.2582875364601855	0.0009981838188786913	0.9183843835824835
0.98	-0.05798178495994823	-0.02932749372313766	-0.001702119776019971	-0.03016791999999999	0.87953067	0.9259342899999999	0.1480667187373364	0.1182762044183843	-0.1419109379276963	-0.2299989524881336	0.2197278638494734	-0.1361472853025567	0	0.4622502757633779	-0.1559029428679023	-0.2146747436639998	-0.9967303289234498	0.1228226986316364	-0.2392298601482561	0	-0.1058389682719192	0.02627933580441479	0.1456814685293556	0.1166616778199831	-0.2315931831762621	0.03274317455741471	0.7850572995473362	-0.1427582828877019	-0.2546515201293067	-0.01508416095120347	0.9167446542551507
0.9899999999999998	-0.05995706339156281	-0.02888179192362105	-0.001733499541045008	-0.02995708	0.87981186	0.93427656	0.1318126213515532	0.1188909015269551	-0.1415738246156139	-0.2155264837121277	0.2238284416232055	-0.1325154668375947	0	0.4787211500235757	-0.1532696345983892	-0.2163756998396244	-0.9580926203729531	0.1258921264585123	-0.238284640963523	0	-0.1034174628629856	0.02470803682279532	0.1489601402150617	0.1312879045180361	-0.2310789290680119	0.03675947457035821	0.7955548359297964	-0.1467992960647219	-0.2552099944230842	-0.01821114834054672	0.9135736199914747
1	-0.0593281106871923	-0.02547889803896921	-0.001513222889733059	-0.02987185000000001	0.88042095	0.94258526	0.1137891302885821	0.1160415269065657	-0.1420960178775655	-0.2025706877301478	0.2257345411811156	-0.1284173491054433	0	0.4887264175122414	-0.1468041775761068	-0.2201988044707427	-0.9128020497226751	0.1254835474986143	-0.2328281524986333	0	-0.1047969189184172	0.01922371925751545	0.1504327982488133	0.1452872115667665	-0.2303264191909073	0.04284581588491133	0.8096351616860034	-0.1499732919776055	-0.2549198206940366	-0.02327097285927599	0.908472088910407
1.01	-0.05224257035113199	-0.02025442645933248	-0.001059031058932122	-0.03030177000000001	0.88135002	0.9509005699999999	0.09050392234939396	0.1096919274580246	-0.1492763647285245	-0.1927319358222296	0.2301777626917309	-0.1191117862082973	0	0.4897774471083437	-0.136925795873127	-0.224605579666852	-0.8627557570573441	0.1268338043701931	-0.2256472227077042	0	-0.1142992244045602	0.01331319316156319	0.1525185375653141	0.1597767873619687	-0.2334507676424216	0.05279631232365556	0.8285491549889927	-0.1492863005388903	-0.2501679570783608	-0.03351040820662202	0.904747973943941
1.02	-0.04813050930436829	-0.01848276768055281	-0.0008902185164876508	-0.0305453	0.88185039	0.95936099	0.06798494973108096	0.1079445701334395	-0.1546728328912345	-0.1785717111617945	0.2358783666939056	-0.1104851216581249	0	0.4914369757997771	-0.1302179353070229	-0.2260592495655394	-0.8088765885350772	0.1280513012014226	-0.2117570861782189	0	-0.1193558631738058	0.01071355560944662	0.1541896356952931	0.1724868741465237	-0.2359869673631501	0.06215657942461272	0.8447666322254764	-0.1507347086189488	-0.247692788030916	-0.03936894286401955	0.8995550972167456
1.03	-0.04473545286144734	-0.01719225265810025	-0.0007695754720769136	-0.03079837999999999	0.88212608	0.96778381	0.04749745623721941	0.1065663752529253	-0.1592118865913525	-0.1668174532439626	0.2412624339432144	-0.1026695508812624	0	0.4912322088850112	-0.1249166404720229	-0.2307898381412322	-0.7505992800077083	0.1299999833024228	-0.1904283069839159	0	-0.1236908711292048	0.008434370281840024	0.1549942979303094	0.1852226582863203	-0.2361342626800429	0.06873444507550149	0.860493757637816	-0.1536840080514038	-0.2457154916058952	-0.0434431188676238	0.8955449248802732
1.04	-0.04795036909917908	-0.01844304132425739	-0.0008849754953177623	-0.03095989999999998	0.88147352	0.97597639	0.03390076435833287	0.1085281724560567	-0.1602312676085296	-0.1542407862342142	0.2455660751903624	-0.09800816111975273	0	0.4987574889957662	-0.1220876607220748	-0.2352280605052711	-0.6922752343554979	0.1257554125492756	-0.1772340330526678	0	-0.1207825773348608	0.009412051543462613	0.1532981812036348	0.1987400090682075	-0.233299194698065	0.07214051218303497	0.8744883392075967	-0.1578167812157157	-0.2466615829316554	-0.04462740051239149	0.8893568142897008
1.05	-0.03893406537391115	-0.01504541987700994	-0.0005860502078641183	-0.03158184	0.88200621	0.9847411	0.007858245298804179	0.1043113747782307	-0.1708312439970405	-0.1439888117433901	0.253414514880363	-0.08512328240313738	0	0.4853386438987298	-0.1131615873821838	-0.243130410623339	-0.6227821351457931	0.1240340089687993	-0.1505865975351636	0	-0.1311154223547077	0.005182903392250656	0.1548270435516896	0.2085151927686426	-0.2351496254086865	0.07780945695977609	0.8935326682886042	-0.1573510765822024	-0.2425262039907703	-0.04865611208524469	0.8832092152345282
1.06	-0.04318850450694662	-0.01884946738235475	-0.0008145352801946111	-0.03183982999999999	0.8808836	0.9931664	-0.004708025657254703	0.1088532234486128	-0.1724720899860288	-0.1317054787303659	0.2558473118714254	-0.08003813699668604	0	0.4896558233158197	-0.1130725644202248	-0.2514818999313908	-0.5583629140204875	0.1128150437070869	-0.1346169767746837	0	-0.1260299877471993	0.009301979212592935	0.1523372570226935	0.2204303182072296	-0.2305399291580282	0.08124845843029471	0.9071924691788479	-0.1623521705970691	-0.2428080856605417	-0.04885687853083208	0.8783552734195558
1.07	-0.03232356936478881	-0.0174352196875505	-0.0005637331258935393	-0.03249432999999999	0.881254	1.00240853	-0.0345078078490678	0.1065569082379966	-0.1842030639899086	-0.1196316079168613	0.2624055891685203	-0.06379345286969057	0	0.4704959155646852	-0.1064838014570854	-0.2651786606120063	-0.4848825205992112	0.1068318066708978	-0.1062408275396641	0	-0.1371787776830121	0.007371805281112541	0.1531234720001809	0.2272899618553321	-0.2323438117629659	0.08780187550902152	0.9267584564038586	-0.163202060421657	-0.2388300418685385	-0.05189267019783059	0.8719235789189885
1.08	-0.03395355439935422	-0.02024238670559417	-0.0006875150125210584	-0.03295491	0.88006414	1.01144626	-0.05091132007958739	0.1095496609583056	-0.1889744653448301	-0.1073299538336131	0.2666447331694242	-0.05432435471602776	0	0.4678734595779281	-0.104797388411986	-0.2787893744661033	-0.4180482896568491	0.09250569038492286	-0.0858898580632167	0	-0.1335606778550367	0.01040004054511455	0.1504779293216772	0.2355528317215481	-0.2271196487871981	0.092149363266704	0.9409454069420637	-0.1689372477738942	-0.2384944627008685	-0.05172158412337093	0.8665615806599395
1.09	-0.02580555170438967	-0.02166944003518801	-0.0005592690438184252	-0.03369285999999999	0.8796269	1.02062887	-0.0790635666099222	0.1109004321784149	-0.2018662688297856	-0.09172880209789229	0.27330968254694	-0.03560512113347201	0	0.4519588882473853	-0.09990465490905862	-0.2913036173316932	-0.3492898017982368	0.0808698326364865	-0.06275594800449492	0	-0.1418196229993637	0.01179108174705513	0.1495055629366927	0.2424151954652898	-0.2271407571482376	0.09716535157234141	0.9601355628199316	-0.1710032104155749	-0.2361962614874627	-0.05321978627245592	0.8615650796535325
1.1	-0.02928123831874735	-0.0259530792731558	-0.0007600669414372215	-0.03428248	0.8778438	1.02951299	-0.0927908035318043	0.1153548929112814	-0.2066405852336237	-0.08050215005708833	0.2757783378510834	-0.02548570980985759	0	0.4518097592875803	-0.09878521765652319	-0.3044131588438825	-0.2871786056465649	0.0642183810268237	-0.03450515285420966	0	-0.1367660230228787	0.01668966786256325	0.1460435143934016	0.2495920568937326	-0.2224983764657431	0.1011490991003401	0.9749044693116704	-0.1770048070937645	-0.2357935864528254	-0.0528332839822664	0.8576014391911813
1.11	-0.03119688791856311	-0.02956688875638867	-0.0009225564360228071	-0.03485331	0.87616743	1.03850352	-0.1069401268657314	0.1191252875517919	-0.2139114471285192	-0.07161819866789784	0.2817955845476098	-0.0156571677289977	0	0.4488867518440433	-0.09681454807213925	-0.3154700385195548	-0.2285102098490615	0.05047830057604202	0.00375201283282855	0	-0.1333400893560686	0.02007399532346681	0.1437482250873197	0.2545810718339121	-0.2189488113541704	0.1057085431330433	0.9908178265911856	-0.1814162634374606	-0.2348423591466753	-0.0531405580982592	0.8538216604388815
1.12	-0.02819335876814122	-0.03283151660176677	-0.000925706323098366	-0.03585974	0.87478269	1.04786124	-0.1270923735026127	0.121835637097949	-0.2252878552259283	-0.06160707088720272	0.2865808808177722	0.001276847450575236	0	0.4418659907440367	-0.09268160281836307	-0.3290018830391493	-0.1735500288940054	0.03714122258366529	0.03941984958044417	0	-0.1352145330046706	0.02384240831714465	0.1412052397009924	0.2581748346162648	-0.2175861914428351	0.110962703257198	1.009367744386742	-0.1858985834649132	-0.2330686688179349	-0.054139434638318	0.8502083340864104
1.13	-0.02711938167699756	-0.03521956274234517	-0.00095516605883712	-0.03700127	0.87302443	1.05685673	-0.1426520612767609	0.1232508931724647	-0.2352400032697437	-0.05691490137166946	0.2986716005162768	0.01650197218774405	0	0.438929939058736	-0.08775604665352266	-0.3358804244142607	-0.1268891402086605	0.02747650094612194	0.07443696789265589	0	-0.1362585592926163	0.02702955860206755	0.1384020082699002	0.261930233736908	-0.2169817610590563	0.1177229243989937	1.027443515914792	-0.1890537113213852	-0.2313715546355927	-0.05448304179694833	0.847165252702725
1.14	-0.03007543023019517	-0.04259130664062116	-0.001280947029046018	-0.03800735	0.8708338	1.06560402	-0.1520447206414375	0.1299783602437869	-0.2362025335026627	-0.05476948191766006	0.3045093435898941	0.01960223055772472	0	0.4434490879768667	-0.08869538355507769	-0.3311899433302459	-0.08988959088730149	0.02216938107474344	0.09045257615906369	0	-0.1325281929058356	0.03540088113360731	0.1351864398359647	0.2667716543852939	-0.2129270608355092	0.1197232673731883	1.036688286376097	-0.1941928505826421	-0.2288766139747826	-0.0540641774372354	0.8442958886518797
1.15	-0.02443329105975184	-0.04120772145296453	-0.003824006647096821	-0.0389216	0.8695069600000001	1.07507779	-0.1713260238960299	0.1267453802307005	-0.2480614211166249	-0.05276476305396481	0.3152493055073246	0.04058668072521873	0	0.4365655757295127	-0.0831788034040418	-0.3473737273345857	-0.05676069402733998	0.01307577759421073	0.1364896321589341	0	-0.1389087722976655	0.03278505949240284	0.1351364391199547	0.2666194241499411	-0.2155476250598901	0.1309766573345341	1.062063383152083	-0.1960086656546099	-0.2267781821003624	-0.06030010271892949	0.8415178952053701
1.16	-0.02690847388300029	-0.04613670030258164	-0.008502440496774115	-0.03967385000000001	0.86756782	1.08403273	-0.1781142828795941	0.1294693330475806	-0.2454987332319705	-0.05697294753193229	0.3211377903637522	0.04181788066000437	0	0.4401518475587158	-0.08500215882197701	-0.3430219680580918	-0.0308998249966345	0.009442836358940989	0.1492814727836463	0	-0.1363959997824207	0.03805474048052974	0.1349259808610311	0.2705582910598235	-0.20998431598706	0.1338365597809714	1.069446445283272	-0.2005447442664849	-0.2246890011691096	-0.05984178344614598	0.8379740226596856
1.17	-0.02657244873303972	-0.04564498712873283	-0.01556218325885252	-0.04024605000000001	0.86588748	1.09316107	-0.187214671153061	0.1253443971097418	-0.2416624667238971	-0.0636653249331761	0.3346747797649158	0.04800885987373525	0	0.4407980508273447	-0.0842402651821491	-0.350608077256602	-0.0128966361271214	-0.0003427695751222964	0.1720494230774746	0	-0.1377476803190703	0.03626084395144016	0.1385308491734142	0.2711594278327709	-0.2097684203293846	0.1422950520838703	1.086101628755941	-0.200020474935388	-0.2233987923504457	-0.06247995210856006	0.8328239845153818
1.18	-0.02661489751150791	-0.04931004485305131	-0.02084878412923022	-0.04111441999999998	0.86425363	1.10258747	-0.1951276765062124	0.1255821301524852	-0.2398452374116364	-0.07156578154353851	0.3390832472322678	0.05020228897214388	0	0.4415815127224701	-0.08697727567982795	-0.3504680796849106	-0.000990421117964596	0.003168472120333907	0.1764835714939734	0	-0.1377322807554811	0.0398931978834166	0.1393928728760278	0.2718918999337992	-0.2067266915758696	0.1464005078783288	1.093385729671345	-0.2035539683570766	-0.2213329974349062	-0.06291858197298597	0.8283087158132442
1.19	-0.02754711822282282	-0.0505425057789991	-0.02341423472945748	-0.04208845999999999	0.86257525	1.11213063	-0.2039368983073532	0.1241074384610892	-0.2400159346267387	-0.07640096106905217	0.3394793395830983	0.05024564068183539	0	0.4459734897954505	-0.08772938168774361	-0.3497344760869282	-7.52270068865344e-05	0.002903089222514563	0.1767024916327095	0	-0.135808319847072	0.03983298000996552	0.1404136009383215	0.2720513542614589	-0.2050998912985697	0.1474161791981808	1.094577407497884	-0.2039778248820491	-0.2209091744202554	-0.06291069395743157	0.8278595452073337
1.2	-0.02176294969539693	-0.05027614971425952	-0.03395424524910857	-0.04253439000000001	0.8616033	1.12162034	-0.216880974228873	0.1179503189839129	-0.230630422210816	-0.08781556831513512	0.3565491455672665	0.05910364373743771	0	0.4408093991326742	-0.09120388751857092	-0.3590756115867567	-0.00470929608241723	0.006462906747179349	0.1745340278984543	0	-0.1446665658525062	0.03792783759061723	0.1474776486472385	0.265955445924611	-0.2071703839423239	0.1626936121511636	1.116461877011274	-0.2020657522838399	-0.2166702012870852	-0.06810183320935655	0.8165574080254469
1.21	-0.02088669888338201	-0.05034051581552322	-0.03677354579052963	-0.04341339999999999	0.86025319	1.13165287	-0.2279145668490006	0.1145412794061303	-0.2304164076690085	-0.09258748855644315	0.3548252213822846	0.06209044471046445	0	0.4436502567208466	-0.09280939600072702	-0.3627101751055662	-0.01754652608872265	0.004270828882677609	0.167357527229568	0	-0.1451096119235384	0.03637274242030619	0.1459556063477688	0.2629201494075213	-0.2025936140261361	0.1669545568852213	1.120234276162431	-0.2041414145928385	-0.2174073065391458	-0.06938253818664454	0.8123838428513243
1.22	-0.01944982527658517	-0.05038831421299887	-0.04063163904274894	-0.04430935	0.85905328	1.14161447	-0.2402671255542783	0.1107533824293479	-0.2260617001823422	-0.09607806485542404	0.3558524827355674	0.06548429573496445	0	0.4450815214788604	-0.09597327912685867	-0.3620905348754879	-0.03596641214261647	0.004873028037540696	0.1568047941113818	0	-0.1467347946296876	0.03488214938316112	0.1459946870622477	0.2585489729940332	-0.199622624514402	0.1711324633913252	1.123861480500449	-0.20476747082778	-0.2173831939428649	-0.07097176204874783	0.8080059299905223
1.23	-0.01652819508004826	-0.05184099657499005	-0.04408242297936023	-0.04562472000000001	0.85797469	1.15175406	-0.2541271628336154	0.1077801444099384	-0.2227862774270387	-0.09985557223623524	0.3542330819561642	0.07131611219404074	0	0.4449054584235058	-0.09886598119686292	-0.3510345809224509	-0.05754676501516407	0.01134830829645206	0.1281861453394316	0	-0.150309795995246	0.03565094998897088	0.1472110183626027	0.2513166713564338	-0.2013491096209955	0.1775098963035795	1.130793179019523	-0.2027146054858722	-0.2140944714295954	-0.07451232754456558	0.7999446556012886
1.24	-0.01499868203677714	-0.04978747862010213	-0.04743720593277449	-0.04668558	0.85696675	1.16223882	-0.2637266763523104	0.1006947347436416	-0.2199267675051501	-0.1094494724269899	0.3525801027872818	0.07367085806095394	0	0.4446207404191669	-0.09977129150838694	-0.3479754398916533	-0.082492413056721	0.009053009914658123	0.1197288702291531	0	-0.1511841132735119	0.03122494126450457	0.1475528301010316	0.2448856248966179	-0.1990597598448911	0.180483461048625	1.130143880933064	-0.2024957314238283	-0.2152828757165892	-0.07607698624651292	0.797099444114764
1.25	-0.01386225612303656	-0.04888766332211777	-0.05048256305139606	-0.04787994000000001	0.85599196	1.17279314	-0.2738979832959036	0.09513041460157591	-0.2173533746435287	-0.1169482874121652	0.349327514523648	0.07671231977909342	0	0.4463571786148858	-0.1014555968938816	-0.3471914170477065	-0.1110939293276677	-0.001114684720982238	0.1045056618635029	0	-0.1521227776997061	0.02837164244582506	0.1480169644618168	0.2371338675459985	-0.1981334970302298	0.1833475463511477	1.128466217921637	-0.2025902366395007	-0.2153476687961415	-0.07721683529918333	0.7940176476630779
