inDegrees=no
nColumns=24
nRows=106
DataType=double
version=3
OpenSimVersion=4.5
endheader
time	pelvis_tilt	pelvis_list	pelvis_rotation	pelvis_tz	pelvis_ty	pelvis_tx	hip_flexion_r	hip_adduction_r	hip_rotation_r	knee_angle_r	ankle_angle_r	subtalar_angle_r	mtp_angle_r	hip_flexion_l	hip_adduction_l	hip_rotation_l	knee_angle_l	ankle_angle_l	subtalar_angle_l	mtp_angle_l	lumbar_extension	lumbar_bending	lumbar_rotation
0	-0.06520708583491808	0.05379723385110102	0.09025668294940313	0	0.81816066	-0	0.5867632172160914	-0.03401187341477823	-0.1813555711835188	-0.2210069657418434	0.1119273343429376	0.04745435637853897	0	-0.3405078903856324	0.1328688164241097	-0.07150685940252413	-0.02930222564851672	0.280746548815645	0.121921766653074	0	-0.01883185007987605	-0.04421373950277754	-0.1457283444078727
0.01000000000000001	-0.06404535903027773	0.04779467240590043	0.09312138234701042	-0.000349350000000026	0.81682426	0.01488294	0.5820444705248404	-0.02798569482127182	-0.1937535482428554	-0.243008296742361	0.05716736028091072	0.01485177891341376	0	-0.3407375322564965	0.1208634843412651	-0.0839385616335299	-0.06575711740058872	0.2784765229759529	0.1493997268689835	0	-0.01609120982095182	-0.03407315663720473	-0.1463195240774375
0.01999999999999991	-0.07254724392487114	0.03629725317482493	0.08500281144671699	0.0003408399999999534	0.81576288	0.0295182	0.5928244900175323	-0.009888491871737876	-0.1694906592165775	-0.2579349684321096	-0.003317002083139578	-0.03401554349312932	0	-0.3313415124348781	0.1078192485118293	-0.09870637921434844	-0.09616932672574743	0.2649368681079557	0.1657921662071297	0	-0.001876883444363402	-0.01887088908098589	-0.1317261935196591
0.02999999999999992	-0.07935539420926876	0.0252990359314646	0.07715454968594627	0.001345609999999997	0.8154819600000001	0.04393294	0.599342704677911	0.008224587814402688	-0.1410953769841659	-0.2749985364349983	-0.06280225490567592	-0.0771672216972015	0	-0.3193776118504819	0.09450786176604191	-0.1082087096586997	-0.1342705352013481	0.2466707284569359	0.1668879533756359	0	0.009547424341702122	-0.004524586665948195	-0.1205014712894091
0.03999999999999992	-0.08217718460322	0.01230057453857263	0.07016953799463245	0.00232829999999995	0.81593468	0.05888821	0.6001775593636575	0.0259980697122706	-0.1280451201178766	-0.3027711010727945	-0.0894349841043699	-0.1291352841845988	0	-0.3104915058523299	0.07773128854950118	-0.1204981839617629	-0.1742058756303504	0.2178469057594383	0.1711700638920655	0	0.01762956257134724	0.01245625918811425	-0.1123185127192591
0.04999999999999993	-0.07942161544160006	0.001163561702947873	0.06022840729035248	0.002812099999999984	0.81738084	0.07367659	0.5955619537772179	0.03822057957165913	-0.1387728240643716	-0.3319961761870561	-0.09287582654818352	-0.1370026182854827	0	-0.3057698048422541	0.06498709105004528	-0.127021360767738	-0.2160087124248672	0.1835725519293868	0.1681480529957749	0	0.01773169190879109	0.02943016177334641	-0.09685902394840197
0.05999999999999994	-0.07638274556219823	-0.01101558373894174	0.04971352181420094	0.003573439999999983	0.81931095	0.08872845	0.5870792410166903	0.05397752655226287	-0.1354205045456862	-0.3544690344140046	-0.09363712415807186	-0.1388827916754862	0	-0.2981180040686928	0.05018703811060702	-0.1376117436049495	-0.261526363500799	0.1368095387935199	0.1668819023191193	0	0.01797017422138237	0.04726407726736096	-0.08680502372542795
0.06999999999999995	-0.07171192266743588	-0.02507031970770988	0.04040571376710563	0.004882749999999991	0.82177543	0.10446748	0.5736550217018211	0.07462250319892696	-0.1210645743708957	-0.3741142012930589	-0.08103949871106676	-0.1434084293787099	0	-0.2921373192274688	0.03090580152759211	-0.1515962801067532	-0.3047900708988982	0.07632651108274863	0.1813126036207957	0	0.01858159203082156	0.06588732542050572	-0.08198159637443261
0.07999999999999996	-0.05869553022543936	-0.03690311268044687	0.03405101435415928	0.006620009999999954	0.8248922	0.11935994	0.5502494082099268	0.09415275480750311	-0.1091431982101256	-0.391832068274312	-0.06623480197408772	-0.152617885371529	0	-0.2861603025447338	0.00909661155549852	-0.1649465999121648	-0.3622204920915914	0.01632187724728437	0.2186271972639773	0	0.006411991827707244	0.07980621240969328	-0.07525981017529269
0.08999999999999997	-0.05067669311066627	-0.0438375015033783	0.02866065206734931	0.007570189999999977	0.82756131	0.13366807	0.5328852978259703	0.1054400565162151	-0.1061550067332838	-0.4113608796371894	-0.04578140121823586	-0.1582922706886145	0	-0.2705830056201634	-0.004902358993752162	-0.1646359595796437	-0.4260406048656061	-0.04003368083117302	0.2186999577715649	0	-0.001319368034476948	0.08936013565939813	-0.06829018216091476
0.09999999999999998	-0.04291374149794947	-0.05012757289314543	0.02418156576533185	0.008544849999999993	0.8303792800000001	0.14788549	0.5133832366009394	0.1160328850833074	-0.1015625258867684	-0.4268697521501658	-0.02481786445850387	-0.1635626801771712	0	-0.2526329292141837	-0.01894937461758589	-0.1660899696430024	-0.4922533950962337	-0.08355613800326936	0.2169748546166732	0	-0.008749266076143344	0.09766447419957559	-0.06322225023874413
0.11	-0.0366757621174044	-0.05723037544883598	0.02140776087150212	0.009646889999999964	0.83293894	0.16160837	0.4913181244627698	0.1276378011111656	-0.09891821261818978	-0.4335052337376568	-0.001076978976888003	-0.1654097890026272	0	-0.2263824667406504	-0.03571247825562435	-0.1703911632404074	-0.5663346582550819	-0.1266739437298834	0.2111861446485285	0	-0.01541192121835739	0.1057918908078735	-0.05989580557528541
0.12	-0.03302621006005187	-0.06323764748363085	0.0181236851899463	0.01029354999999998	0.8354116700000001	0.17447404	0.4684897049680782	0.1358810033856396	-0.1028391926957661	-0.4311853852055385	0.01455744100330383	-0.1627914746821851	0	-0.1919401754101099	-0.04915518601779274	-0.1672367195530023	-0.6433541886201833	-0.1747715488836936	0.1979998370981182	0	-0.02159653678710257	0.1136858825441536	-0.05213476726183568
0.13	-0.04061971936682276	-0.07143974466192794	0.02333996420220597	0.01028208999999997	0.83733015	0.18727055	0.4486082170176455	0.1412805143553675	-0.1221895532183392	-0.4091268861199047	0.02465861049464224	-0.1499125311322241	0	-0.1395539973092488	-0.06537109682127275	-0.1535824656681874	-0.7222592627533966	-0.2255315899323705	0.1654555016191979	0	-0.01246619377674953	0.1230597612934142	-0.05116441359054466
0.14	-0.04152412311900502	-0.07515065314741537	0.02344233831253772	0.01068387999999998	0.83899879	0.19916565	0.427383875533255	0.1458213160027314	-0.1300978166864458	-0.3978461074047391	0.04133557375651438	-0.1438916326833037	0	-0.09421071492303382	-0.07739414451962391	-0.1488905605700358	-0.7970534498020521	-0.2571007813348019	0.134937488863987	0	-0.01501039687929595	0.1277712535236292	-0.04626748204716743
0.15	-0.04501454903395321	-0.07680819877772946	0.02467966862074902	0.01039572999999999	0.84070119	0.21133409	0.4055971687180527	0.1469723140441306	-0.1397247917391904	-0.3811351058591299	0.0557618897439122	-0.1336862951354222	0	-0.04688118239820239	-0.08295493927113351	-0.1388785887481144	-0.8664021612388648	-0.2675927403431044	0.08588753677531155	0	-0.01293843047952136	0.1306539860984131	-0.03967824976499213
0.16	-0.04784130707353313	-0.07430367971821326	0.02612656689191962	0.01005112999999996	0.84241467	0.22312229	0.3869711680061446	0.1436061270118735	-0.1470142558768524	-0.3715565774812292	0.06932742609938723	-0.1244824451401605	0	-0.0006155229983728126	-0.08171708090525151	-0.1256644318514947	-0.9322770939490168	-0.2400609040821139	0.03872114087379573	0	-0.01251542776961904	0.1289458203167144	-0.03274120024096485
0.17	-0.04985149562948056	-0.0709975669567053	0.02786584083243692	0.00970586999999995	0.84427998	0.23487951	0.3687944712433018	0.1398698237131092	-0.1498310956401223	-0.3648519997049152	0.08277891984901016	-0.1174374449075022	0	0.045328853051157	-0.08007257792788149	-0.1155909286213272	-0.9930590134829823	-0.2082240484619979	0.006143140960664186	0	-0.01295091412152918	0.1257931493602305	-0.02566019770556233
0.18	-0.05193408989217701	-0.06718120292751199	0.02958738852750978	0.009425459999999997	0.84607968	0.24659947	0.352752351949155	0.1368458147638909	-0.1448645415166196	-0.3619669886027929	0.09942394393463665	-0.1172545394633481	0	0.09115065637264851	-0.07834557393490141	-0.106871082862253	-1.047074354164286	-0.1789533101239835	-0.01893839387859697	0	-0.01322821604734332	0.1218987394770549	-0.01921848082629852
0.1900000000000001	-0.05351745529065728	-0.06332917246386231	0.0319503654952004	0.009198119999999976	0.84770679	0.25809566	0.3382394013083467	0.1346554015944297	-0.1358018469444751	-0.3620981783704141	0.1098881907796089	-0.1239833059322984	0	0.1379017405321438	-0.07623348730254537	-0.09787900448617712	-1.096501390048375	-0.154419686147735	-0.04605985698121848	0	-0.01424366920103879	0.1175242958072071	-0.01342001551483273
0.2000000000000001	-0.05538780041691967	-0.05879126426275948	0.03374247069903397	0.008995339999999963	0.8491601	0.26969053	0.3228486816516108	0.1328479585178179	-0.1232714294145753	-0.3600890611024709	0.1225606425059043	-0.1366391815685559	0	0.1836159038136113	-0.07273185277195676	-0.09030587215972144	-1.13851566266073	-0.1284776209095683	-0.07297646258648595	0	-0.01432887809498333	0.1123035948665435	-0.008205710507746041
0.2099999999999999	-0.05694286068800809	-0.05371830607408662	0.03400748745006885	0.00896596999999999	0.85061844	0.28122987	0.3070412360125616	0.1312598720867881	-0.1089895299980021	-0.357428965868664	0.1318177920639952	-0.1517985847110103	0	0.2275606575353945	-0.06796917143104415	-0.08454305659449106	-1.17214536499439	-0.1086917818890667	-0.09028569807343059	0	-0.01500614263924422	0.1062755250342596	-0.001656785208382153
0.2199999999999999	-0.06210553971419589	-0.04819380354646262	0.03213092521182584	0.008982569999999968	0.85161583	0.29244881	0.2950843307078074	0.1299424984400474	-0.09175997856525482	-0.3534288871203215	0.1339648549200282	-0.1745841123902684	0	0.2743059808866278	-0.06169997581048393	-0.08004403132263588	-1.199335449905344	-0.08426947466344462	-0.1048521048331019	0	-0.01214851610215146	0.09979781405529901	0.00558559657831215
0.2299999999999999	-0.06041663438597623	-0.04098936879455066	0.03230745680647786	0.008754009999999979	0.85326734	0.30412576	0.2710729017388399	0.1252204319580263	-0.08170744180085861	-0.341386249671913	0.1423368898949686	-0.1770787607084288	0	0.3105645868023681	-0.05361389732551951	-0.07639752469028793	-1.21617143098803	-0.06372446140062264	-0.1133222995686354	0	-0.01601160308484032	0.09158630224765227	0.01080027875105019
0.2399999999999999	-0.05953505856461416	-0.03381679053693811	0.03172281504266838	0.008838559999999995	0.85466144	0.31576912	0.2483077450190124	0.1201958655336482	-0.07666619823187899	-0.3295972748863309	0.150506277133921	-0.1817177437584685	0	0.3454636463315859	-0.04677644396805974	-0.07551924865621268	-1.225241211073339	-0.03884215589547663	-0.1241057714971206	0	-0.01878317965382201	0.08299313562728049	0.01612913530199887
0.2499999999999999	-0.05989688985701987	-0.02681271988152336	0.03077081236576939	0.009082170000000001	0.8557910400000001	0.32735537	0.2256768018497352	0.1152630577002987	-0.07294253094236623	-0.3155617349768619	0.1595548886443311	-0.1849781418469061	0	0.3791982003672575	-0.04067474585048415	-0.07643185444401003	-1.225591564453127	-0.01609326145548753	-0.1323272667626217	0	-0.02048113002340878	0.07389968102333298	0.01964489600395434
0.2599999999999999	-0.05988432531531032	-0.0198002749206882	0.02947473552257398	0.00919565	0.8566937	0.33898946	0.2028356210311519	0.1096605403294214	-0.07063407923573048	-0.3025227436872955	0.1689548474995384	-0.1868592173975999	0	0.4113707730360543	-0.03429285222572755	-0.07812886635005802	-1.219541920955025	0.004467342135410808	-0.1379778141982505	0	-0.02181351105825567	0.06549826988815347	0.02306914909322775
0.2699999999999999	-0.05972211927493967	-0.01314522208665161	0.02819127082368958	0.009419469999999985	0.85751981	0.35059387	0.1812355066681486	0.1037968201242833	-0.07163029554494339	-0.2914576579970791	0.1760740816467388	-0.1865510187807023	0	0.4409881423156282	-0.02843624319009375	-0.08098361571187884	-1.206038160877491	0.02300555767286548	-0.1447317727496241	0	-0.02338353263339561	0.05717025246601418	0.02739259197340427
0.2799999999999999	-0.05958147518891702	-0.007884919688542139	0.02638418637385199	0.009502669999999991	0.85815528	0.36227786	0.1601560400780442	0.09912825129996132	-0.07272280009819253	-0.2815798227566881	0.1866154004861499	-0.1842628113225934	0	0.4680014258969538	-0.02387898116802141	-0.08466912713688329	-1.184413307868603	0.03540520169617062	-0.1481156338585516	0	-0.02490486353666218	0.05082389985348058	0.03199392233735899
0.2899999999999999	-0.05542029700192854	0.001389294133815967	0.0226193036475489	0.009326319999999999	0.85906947	0.3737844	0.1382869505805552	0.08845516690880872	-0.07565841283318631	-0.2788375617850204	0.2065253203736964	-0.1687611550479423	0	0.4869430538706547	-0.01244973078404717	-0.08850861098489989	-1.153911372213797	0.06530489910073847	-0.1651195691968874	0	-0.03168973012375937	0.04187583711034365	0.03532923658954341
0.2999999999999999	-0.05286071744107067	0.009485234458781737	0.01861983997568987	0.009665489999999999	0.8596409	0.38552337	0.1148975232721439	0.08030697582095726	-0.0757854965392093	-0.2700073115589199	0.2177991697826658	-0.1534555105929302	0	0.5033313735336346	-0.004838231059177836	-0.09449863438481955	-1.113887156303158	0.06754956356106988	-0.1575384394227332	0	-0.03551959197160973	0.03168480218661637	0.04167202192361888
0.3099999999999999	-0.05025377455734584	0.01352185202660729	0.01472936759284615	0.009748459999999959	0.85996382	0.39742123	0.0920341252848472	0.07603998666263402	-0.07672515562854428	-0.2621523143178537	0.2284108152680226	-0.1440024661522602	0	0.5178488704080784	-0.0004177222162504172	-0.09904218719468331	-1.068403831141224	0.07712262853481307	-0.1635636242257636	0	-0.03910456108705915	0.02726887326217911	0.04873368481464591
0.32	-0.04826711608564115	0.0193670180527613	0.008721985937319418	0.00986977	0.85996777	0.40905748	0.07024408349451017	0.06958942672364914	-0.07562213511748604	-0.2547329062285906	0.2299857605915153	-0.1389233850668278	0	0.5299328705889628	0.006623977947858148	-0.1046146561044937	-1.015663006150615	0.09737023786762812	-0.177588630375065	0	-0.04242110205421035	0.02104644234266267	0.05708274061012165
0.33	-0.04438658989725729	0.02224925570271433	0.002527128569282481	0.0103819	0.85998893	0.42124913	0.04357361835752589	0.06685063808452835	-0.07310295933828151	-0.2430846634492491	0.2384204322917172	-0.1294565600299828	0	0.5354557695300226	0.00867155337133612	-0.1122452689300016	-0.9551354680060615	0.09539705448552255	-0.1819251525781231	0	-0.04654109661587088	0.01748797238671335	0.06493657354204385
0.34	-0.04521068323999865	0.02075144840931988	-0.002569768458911101	0.01072740999999999	0.85914877	0.43341541	0.02073840324885873	0.06856764116636159	-0.0749409043125	-0.2278032558579608	0.2432209930369846	-0.1246219845629233	0	0.5459388123493084	0.006933948248479416	-0.1175519062178419	-0.8943191738634122	0.1018397955239914	-0.1869518106050767	0	-0.0448251709257849	0.01858700691482588	0.07532290051162671
0.35	-0.03650547322062757	0.02463487293931509	-0.01481599095903366	0.01123584	0.85915414	0.44551401	-0.009018267390567925	0.06314293985953963	-0.06980471395954727	-0.2187461583821945	0.2448522730508757	-0.1136246806540702	0	0.5383362715740225	0.009815408652771565	-0.1283251358561447	-0.8195087589179046	0.1064547452156982	-0.1969988005385771	0	-0.0556135784708618	0.01492681306141795	0.08484047570886245
0.36	-0.03825280929774195	0.01760300874339585	-0.01851059088528419	0.01152559999999997	0.85770082	0.457688	-0.03040907802994771	0.07099754352885954	-0.06863920385448355	-0.205474949290321	0.253230694360082	-0.1097808851446695	0	0.545275581473964	0.005299998928030357	-0.1267009633465665	-0.7496490728465061	0.107241967248164	-0.1960932231916776	0	-0.05340749364098111	0.02247393963295305	0.09430289291668158
0.37	-0.03839746418457035	0.01324279024386424	-0.02545921644274434	0.01173499	0.8562953400000001	0.46998468	-0.05213832825710853	0.07480281351301635	-0.0662159101811983	-0.1946836472912125	0.2569076262700824	-0.1064040154756597	0	0.5458593715940088	0.00338329195705835	-0.1281467687916445	-0.6728411359024739	0.116235886423002	-0.1952471792000965	0	-0.05295755735912786	0.02781182389945767	0.1020530861032252
0.38	-0.03802716193832904	0.006702700676052647	-0.0304780485486104	0.01183033999999999	0.8547332	0.48231291	-0.07488073618093259	0.08107089508991504	-0.06308719439229678	-0.1840959707615392	0.2596463498084221	-0.102360600725589	0	0.5444955884207272	-0.001017582106317057	-0.1302682894522063	-0.5947323204184615	0.1185500268558017	-0.1874512388394629	0	-0.05311368194764066	0.03562052506038426	0.10818716095109
0.39	-0.03002691860506557	0.004822071997081325	-0.03756893680379707	0.01224987999999999	0.85375139	0.4949759500000001	-0.1070289292180729	0.08141736284318937	-0.06469055332694613	-0.1702910925188163	0.2557120575810421	-0.09792088819943479	0	0.5302636858804394	-0.003479997160252851	-0.1462436635160325	-0.5107536919594253	0.1175487798095528	-0.1668433591660499	0	-0.06155805366422631	0.0373751872860207	0.1141099474614387
0.4	-0.03199894871124954	-0.008384783233772107	-0.03922452750680834	0.01191794999999995	0.8512926000000001	0.50711739	-0.125360015886685	0.09436018736363556	-0.06355671780621346	-0.1644186372898378	0.2609294553115633	-0.09545113316332973	0	0.5296544394351227	-0.01123938875555332	-0.1396837204766996	-0.434556835278155	0.1213966689887141	-0.1501572952338592	0	-0.06037170572415718	0.05314314729420452	0.1177913489851206
0.41	-0.01966726325446027	-0.01216058923575468	-0.04354376612999637	0.01204902999999996	0.85019522	0.51977366	-0.1620425376685923	0.09592714291887852	-0.06746650857795522	-0.1522312916260867	0.2618482509095529	-0.08665065162201709	0	0.5072769545506165	-0.01298207453186258	-0.1570001638243891	-0.3488580691259489	0.1199954931834059	-0.09529887413004426	0	-0.07444623052952913	0.0564468866203582	0.1211248952187727
0.42	-0.02489927070841095	-0.02078937615229115	-0.04697904119464331	0.01154298999999998	0.84729573	0.53242186	-0.1788205333284734	0.1023911192038235	-0.06904379037371762	-0.1428432753608192	0.2612677205409521	-0.07780183999385454	0	0.5050695830640112	-0.01646900832869456	-0.1627732808464635	-0.2704652534915191	0.1138029728439456	-0.05821234754714258	0	-0.06813104077078989	0.06790436142179815	0.1254356328001264
0.43	-0.02638081168803395	-0.02882077412859917	-0.04895703918300971	0.01090611999999996	0.84459704	0.5452222800000001	-0.1982461393584231	0.1076060054055511	-0.07707283516391829	-0.1362194368647683	0.2650118685711053	-0.06480284205143291	0	0.4965151459978728	-0.01828067108783896	-0.1727760717129206	-0.1922234268142782	0.1068843981536494	-0.01157991313912586	0	-0.06594423065903653	0.07793236287116861	0.1284467982204451
0.4400000000000001	-0.02760623620236636	-0.03622439999960905	-0.05306425710729583	0.01018112999999998	0.84168686	0.55783056	-0.2141887560356503	0.1102360225076937	-0.08814141011637525	-0.1366827291041895	0.270216338647857	-0.04277347652527223	0	0.4872774210816921	-0.01993354326803815	-0.1862158735018845	-0.1188861177540083	0.09814482842869844	0.04098486048983455	0	-0.06486496564989426	0.08786138303346705	0.1329521047577454
0.4500000000000001	-0.03014208810799522	-0.04374551562665202	-0.05968453557045835	0.009460899999999994	0.8385966500000001	0.5703529000000001	-0.2257999562960132	0.1116435061074515	-0.0970125645769572	-0.1426322249116803	0.2780939239401025	-0.0176514299760784	0	0.4765689253562799	-0.02186981817245181	-0.1903098921537546	-0.04753484712391658	0.08611840055118494	0.08374843680945777	0	-0.06340642157020478	0.09837852382675027	0.1400440147283082
0.4599999999999999	-0.03280369913478044	-0.04884229796717791	-0.06557160469351295	0.009057839999999984	0.83544814	0.5831320800000001	-0.2364462395857052	0.1105649493529197	-0.1074652646726642	-0.1508084004342253	0.2883483658028901	0.01047201530547292	0	0.4682034702726195	-0.02224716830510972	-0.1909354846547139	0.01042974028939696	0.07436267446238626	0.1156756575497274	0	-0.06084014528860839	0.1048975120170535	0.1447352285015431
0.4699999999999999	-0.03714007845480422	-0.05501457777464247	-0.06841185674015131	0.008909609999999957	0.8322432200000001	0.59545835	-0.2445176272852897	0.1126029610702284	-0.1106820860784697	-0.159106387197656	0.2905489060708031	0.02467596517605945	0	0.4725249756627933	-0.0253207926016391	-0.1809757868401531	0.03880864155958107	0.07095210946683746	0.1311468358377827	0	-0.0577906042668285	0.1113859576435785	0.1447534432812157
0.4799999999999999	-0.0389200053242945	-0.05682879467490722	-0.07183483106098369	0.009265649999999959	0.82955117	0.60821649	-0.256409337386632	0.1105914933673816	-0.1113390349902374	-0.1653239496957569	0.2905690330332042	0.02535453452846913	0	0.4809273208981885	-0.02638066578106123	-0.1795135674461248	0.04219984055628265	0.07065862676806101	0.1318226100453953	0	-0.05629309640971994	0.1112988311563848	0.1445519101124879
0.4899999999999999	-0.04502171714598073	-0.05765384513602458	-0.07695170437653581	0.009003869999999969	0.82655573	0.62107556	-0.2561174185028653	0.1033282552451918	-0.1330153764337886	-0.1858801002536017	0.3020354430477497	0.08385991221051313	0	0.4922680363142627	-0.02629990293885322	-0.1749169829814721	0.03887818437815971	0.06156294844011353	0.1318784661665127	0	-0.05038830965447994	0.1124218051441164	0.1464223995431366
0.4999999999999999	-0.0454931500472223	-0.05380522049058113	-0.07985083171445864	0.009171869999999971	0.8240242	0.63470611	-0.2674634648526067	0.09538089465651124	-0.1311055848063789	-0.1966894096872676	0.3004441146676343	0.08575712018854892	0	0.4989300903650824	-0.02214035450395352	-0.1741727768573498	0.02175606354592628	0.06057950829009106	0.1229769190659353	0	-0.04820777644484845	0.1060933664164924	0.1458721604109017
0.5099999999999999	-0.04428281874454722	-0.05038238134175268	-0.08413880321799597	0.009478399999999998	0.82163135	0.6487831900000001	-0.2803143993587318	0.08758332572915264	-0.127162894578237	-0.2085571092940901	0.2938363342478993	0.08860200774196431	0	0.5036522830344085	-0.01958358887051709	-0.1713396847626181	-0.006380434005903158	0.06314920943127865	0.1109506039366915	0	-0.0472308809304551	0.09966239134064291	0.1458699715934868
0.5199999999999999	-0.0419835682775021	-0.04421459301524719	-0.08838349192496137	0.009403399999999951	0.81937634	0.6633453	-0.2940343324267601	0.07656146765571797	-0.1221340297569772	-0.2206323828287146	0.2855597188666264	0.08942204650222363	0	0.5064062860576847	-0.01402167867908253	-0.166604775624362	-0.04349255741308165	0.06853012374329363	0.09369478355337245	0	-0.04642756713681886	0.09105641993768095	0.146349914448505
0.5299999999999999	-0.0379418705049624	-0.03805660431372325	-0.09042068119615866	0.009025659999999991	0.81722577	0.67845078	-0.3102808521165299	0.06577263145777677	-0.1176178435352517	-0.2327420557556983	0.2764612590074501	0.08935187588871306	0	0.5063217018170795	-0.006506684666274196	-0.1517362211297769	-0.08641490842915388	0.07776547378996121	0.05853928681141637	0	-0.04608954381006444	0.08267384038153165	0.1448813373436104
0.5399999999999999	-0.03573293261221389	-0.02974482791858784	-0.09228325562765803	0.008800149999999951	0.81510877	0.69395995	-0.3249705752890338	0.05341088376852018	-0.1152304685634396	-0.2444118873852223	0.2657039642252179	0.0877184730308528	0	0.5088766601620754	0.003103390886922141	-0.1529534624448038	-0.1316307955680743	0.07340310326068114	0.03861178604778155	0	-0.04266341100118663	0.07112774194946564	0.1444552295184358
0.5499999999999999	-0.03708521017930412	-0.01703993615708534	-0.09049653035274112	0.008409829999999952	0.8135457700000001	0.70870829	-0.3315632392375844	0.03859992095046064	-0.1121865495962462	-0.2606518299762388	0.2525366882685702	0.08513571612872858	0	0.5204429560678443	0.01660048502844485	-0.1467722211211016	-0.1642972634284627	0.01184823185527998	0.004535211183236784	0	-0.03623618210004362	0.05476607538402601	0.1377750175856772
0.5599999999999999	-0.0456869412061155	0.004869758790081425	-0.07947872385227321	0.006296949999999968	0.81211934	0.72365948	-0.327764821067005	0.01419414478538175	-0.1316351547024141	-0.2795830728918245	0.2285479213527423	0.09501691810924674	0	0.5440512234043792	0.04621479265144483	-0.1079080632560084	-0.2071171801980707	-0.02415974198734716	-0.0312174356505893	0	-0.01998705733183232	0.03028687775517178	0.1213065005671671
0.57	-0.04861738840651982	0.0208894670320419	-0.07496330663658833	0.005089179999999971	0.81161783	0.73864757	-0.3294382226825308	-0.004565832984963025	-0.1343092858740655	-0.2983245768756357	0.1852793101030437	0.09448325471798387	0	0.5598020570202118	0.06541523515085813	-0.09456407288712917	-0.264248319137416	-0.03033541605980144	-0.07107437990384932	0	-0.01127667544609415	0.01093228829982111	0.1168919042016137
0.58	-0.04799204185794897	0.03570947422255853	-0.06334889852473148	0.003709309999999966	0.81187391	0.75400828	-0.3356489103287081	-0.0195991954301555	-0.1430361311015719	-0.3165772738262237	0.1389219901996896	0.09202176556121629	0	0.5728934432684561	0.08538655031096917	-0.08864159530005805	-0.3262364755109418	-0.03226923406422708	-0.09718449940503213	0	-0.006327079290669693	-0.00776992640266551	0.1035777296414121
0.59	-0.04466244396596339	0.05075976086001734	-0.05839450396181161	0.002474969999999965	0.8128675200000001	0.76948393	-0.3401777395410021	-0.0380261820070452	-0.1466292107620553	-0.341705238786911	0.1040553276465802	0.09021686228773192	0	0.5764124375419167	0.102950083411522	-0.08694540963287797	-0.3723336214516291	-0.03396754449523853	-0.1007145014700851	0	-0.004652905017884069	-0.02571811837665194	0.09846457606378939
0.6	-0.04004542858123234	0.06443615195402487	-0.05386769366452432	0.0004814499999999944	0.81409591	0.78493905	-0.3391725637586069	-0.05818690850063014	-0.1553326882998055	-0.3758053452276288	0.03374210624987788	0.09235245536351966	0	0.5731974476846282	0.1213380341288946	-0.08649960437083126	-0.4071732905679943	-0.02879331922909464	-0.09751019756567479	0	-0.004592550834218404	-0.04036711935251538	0.0966326325787368
0.61	-0.03477656004132688	0.07682579845256798	-0.05111816565883059	-0.001704740000000038	0.81588089	0.80119958	-0.3418235857237644	-0.07883120377075425	-0.165624395909183	-0.4024752380711513	-0.03948072177783183	0.1137029789168415	0	0.5615836484544761	0.1410129497959832	-0.08154883971747259	-0.4318416113764629	-0.00156057777309032	-0.1011221618631978	0	-0.002602712822258583	-0.05288031187896139	0.1002713037299408
0.62	-0.02603919047289658	0.08316471306534684	-0.04632876206554896	-0.003595310000000018	0.81782261	0.81631614	-0.338721464738406	-0.0926362739996949	-0.1714601074195509	-0.4453553638130312	-0.08616136933563856	0.127556986083613	0	0.5425724472934677	0.1546415525767815	-0.07982751991280039	-0.4499714139348314	0.01622723170714014	-0.1065167984773907	0	-0.008545969775805195	-0.05945955808528848	0.09631289646281894
0.63	-0.02002012300619064	0.08525734553197724	-0.04092606325265252	-0.00507531	0.81965332	0.83053491	-0.3243393759178526	-0.1028426116212378	-0.1786356884744544	-0.5005212576513078	-0.1261411208891884	0.1306710679848682	0	0.5227786830818986	0.1635822484596787	-0.07818371611432873	-0.4598014580460456	0.03372305022150583	-0.1125031959557893	0	-0.01394395375697054	-0.06219250039501387	0.08951069107680074
0.64	-0.0148915349344965	0.08812132935762236	-0.03754104308832437	-0.006283950000000038	0.82169989	0.84482343	-0.3044266053840387	-0.1151067863295958	-0.1833439933843894	-0.5624454703970283	-0.1688243942608615	0.1219456422336425	0	0.4996253684525531	0.1727382167431754	-0.07501739354150158	-0.4637744613271689	0.05520132489475667	-0.1169868977604108	0	-0.01698652236292163	-0.06613285711794581	0.08566046699616614
0.65	-0.01325592918718415	0.09120587560065679	-0.03797395750279545	-0.006936790000000026	0.82377993	0.85854655	-0.2731399613199554	-0.1281476198141877	-0.1824508190452862	-0.6308225518032682	-0.2171128998630634	0.1074998646033545	0	0.4753015780818891	0.178259888717771	-0.07897065784691663	-0.456364040810889	0.07815463927805634	-0.1182423612624577	0	-0.01729586417047926	-0.06997774153826686	0.08140015913275246
0.66	-0.01646814322887067	0.0909809666861604	-0.04083458049582341	-0.006920520000000041	0.82571266	0.87143478	-0.2289253678275749	-0.1355723928710386	-0.1716139259045231	-0.7049243576619453	-0.2624402062034372	0.0829553387769993	0	0.457196031585866	0.1770432043373084	-0.08666330613175866	-0.4503769926737453	0.09509366006192402	-0.1082548697776906	0	-0.0134375161057754	-0.07123934458502347	0.07993727564094376
0.67	-0.01737890419833884	0.09292987143204129	-0.03741860887518644	-0.007341140000000024	0.82783143	0.8839452800000001	-0.1875177692197526	-0.1431546138250411	-0.1682943831455913	-0.7761871720384861	-0.297366406998787	0.05202362050627848	0	0.4357092538430324	0.1807870968512591	-0.08915779981374733	-0.4415777599155125	0.1156844918828023	-0.1007507645250196	0	-0.01378116410511023	-0.07518288740650492	0.06953480873910307
0.68	-0.02030738488270186	0.0969585161727725	-0.03914219529013135	-0.007357450000000043	0.83004875	0.8959287	-0.1389983019287063	-0.1519370223074164	-0.1570865040407548	-0.8502473184587146	-0.3039347040565846	0.005689374902833283	0	0.4154704266579475	0.1837651558191285	-0.09799215994117044	-0.4288981535610143	0.1308476928617091	-0.0890248655895387	0	-0.01198393801140662	-0.08114579921088995	0.06264048417703291
0.6900000000000001	-0.02303719454113369	0.1000391343339481	-0.03989324724067258	-0.007330400000000015	0.83260903	0.90773291	-0.08929679574098107	-0.1559730256913515	-0.1423194249087427	-0.9234278044497051	-0.283963667974621	-0.04813023251337988	0	0.3944966535421525	0.1865301514496326	-0.1006273597985269	-0.414850618876261	0.1409903081631959	-0.07766400505963925	0	-0.01070997524101908	-0.086122661074422	0.05417891346239934
0.7000000000000001	-0.03075929612946578	0.09712897907873139	-0.04058204579046329	-0.007197460000000044	0.83487228	0.91933774	-0.03184369032946677	-0.1504711298679773	-0.1243205220442738	-0.9939248156488936	-0.2607016181111458	-0.1019181512080951	0	0.3806198495828232	0.1818008378369584	-0.10634605780359	-0.405319982333035	0.148731248661243	-0.0577162398016583	0	-0.004017661544292973	-0.08389573456981153	0.04755363890943988
0.7099999999999999	-0.0262653558080609	0.09709074488213941	-0.03810373229976539	-0.007567660000000032	0.83805419	0.93143404	0.009600982213260523	-0.1509283478380027	-0.1173696633006718	-1.055704830688078	-0.2279245096406834	-0.1400194083783819	0	0.3514631346520392	0.1841119766525104	-0.1024994493470338	-0.3923564503536787	0.159569647148486	-0.05262888794996658	0	-0.01059593158796942	-0.08484524953343252	0.03495076037045212
0.7199999999999999	-0.0236289916476736	0.09473383669002566	-0.03556918979426418	-0.007769480000000051	0.8409999	0.94316093	0.05457208919351678	-0.1470668890729731	-0.1093958187368556	-1.111952453765867	-0.1987795861543258	-0.1788792657521981	0	0.3229908130628457	0.1840017463693435	-0.09479042673221544	-0.3760918157170694	0.1676652401213348	-0.04608292517247502	0	-0.01541393096499106	-0.08337376907332725	0.02321305916950339
0.7299999999999999	-0.02163513512965	0.09142757483546769	-0.03287453631025004	-0.007782100000000014	0.84391835	0.95504482	0.09886676083543977	-0.1414944318568687	-0.1026003248399431	-1.15961639189898	-0.1793664998946994	-0.2175352449329035	0	0.2930192822695889	0.1829696713979837	-0.08657260747918491	-0.3561147957737654	0.1747438211869331	-0.04283946375909869	0	-0.01890545759574966	-0.08110872859211052	0.01216801631681814
0.7399999999999999	-0.02081710420683993	0.08481943235976377	-0.03036034334168553	-0.007759760000000004	0.84666218	0.96645292	0.1445099625201796	-0.1312226885452061	-0.09680116192037524	-1.199053302247395	-0.1635746917076163	-0.2528435674165532	0	0.2650440473810572	0.1778553526385523	-0.08035428576285936	-0.3358000448463565	0.1727787174575337	-0.04315402514831734	0	-0.02202657579188431	-0.07501665875788649	0.00254137584369112
0.7499999999999999	-0.02023879943834038	0.07682329396854079	-0.02643746781759313	-0.007937460000000007	0.84941805	0.9777770400000001	0.1881430692035292	-0.1191163767732959	-0.0925415738307451	-1.228342053081422	-0.1495972778944899	-0.2748302809355195	0	0.2356690730931918	0.1716704260521345	-0.07171088839208226	-0.3115922326516851	0.176950085087595	-0.04045966770503041	0	-0.02482697507719928	-0.06682629946810928	-0.006846714598069637
0.7599999999999999	-0.02058542969306565	0.06845820985637877	-0.02208660583844364	-0.008054690000000031	0.85200902	0.9890273599999999	0.2305572527725847	-0.1076198689048655	-0.0919218191070679	-1.248554894757405	-0.1358462748241834	-0.2944549581727541	0	0.2062822260285568	0.1641767843973951	-0.06837125148293943	-0.2845603738801963	0.1750071065480574	-0.03654525146170502	0	-0.02638846687921887	-0.05852086835182007	-0.01493157205068936
0.7699999999999999	-0.02065525164110221	0.05991900105599354	-0.01778771234853836	-0.008352150000000003	0.85433055	0.99992145	0.273026521376294	-0.09708477094250731	-0.09214183339271212	-1.262932854303481	-0.1192934632897239	-0.3048120999211181	0	0.1777270688441357	0.1565185388210378	-0.06595381600728847	-0.2584424918526324	0.1761725192637488	-0.03077410945421212	0	-0.0293283013911403	-0.04922116051071568	-0.02515138134512964
0.7799999999999999	-0.02192923177317404	0.05091477501756492	-0.01334995865220093	-0.00846714000000004	0.85658598	1.01147568	0.3116083156862093	-0.08558461498687446	-0.09372906635773769	-1.266682607982126	-0.09566449076320684	-0.314040244026903	0	0.1481020517063125	0.1475969738411376	-0.06282390100265793	-0.2292073748119866	0.1775931169184402	-0.02046116240956841	0	-0.02823413441177865	-0.0399967723534811	-0.03184185494122538
0.7899999999999999	-0.02240597193088436	0.04319575056629836	-0.007539390846497305	-0.008919040000000045	0.85848419	1.02225157	0.349265828828296	-0.07799560243315368	-0.0984882383651233	-1.263432380450839	-0.07650048707338376	-0.3171633845360419	0	0.1224415819039198	0.1405385783810032	-0.06454650973298272	-0.2067501681741711	0.1765384277159624	-0.01142865417950177	0	-0.0304011898398604	-0.0320010043598648	-0.03948247932438859
0.7999999999999999	-0.02292170621569903	0.03604373547404782	-0.002911274781522213	-0.00926606000000002	0.86017611	1.03348716	0.3842131599758338	-0.07056602692833304	-0.1018058558513571	-1.252467641593301	-0.05847449861878601	-0.3159393971743901	0	0.09620169054060008	0.1338969317669955	-0.0642852280098397	-0.1844275653425268	0.1788254982665965	-0.004237773044776537	0	-0.03082692992416155	-0.02470123928895758	-0.04571076320555159
0.8099999999999999	-0.02296217132834036	0.02921548778561476	0.002798142320988311	-0.009552910000000026	0.86159008	1.04456067	0.4165319736081223	-0.06376681966890392	-0.1065996054492186	-1.234025394730097	-0.03443829295575718	-0.3134961604964069	0	0.0716197762710087	0.1274889702535969	-0.06103159307225351	-0.1656702851530739	0.1805372692003981	0.003557974456974679	0	-0.03228521552058881	-0.018012125653415	-0.0514459084953538
0.82	-0.02141589185034333	0.02307040373674321	0.009022607291710569	-0.01021464	0.86284435	1.0556812	0.4437699133527708	-0.0586872395938384	-0.1124831560853179	-1.206543046232849	-0.0148211195871086	-0.3112678059634025	0	0.04627011260741604	0.1223850239859102	-0.05756902808603666	-0.1482046538534507	0.1784118198036901	0.006050560668623849	0	-0.03556534438168736	-0.0109255158987246	-0.05803909778800922
0.83	-0.02127474088469757	0.02003703154210737	0.01484645978755085	-0.01067063000000001	0.863487	1.06686461	0.4709444847301354	-0.05578822588966018	-0.1156472633117255	-1.173810854159752	-0.004343896917279426	-0.310085686781578	0	0.02192131254123558	0.1201168216662205	-0.05333777751120775	-0.1300102653861121	0.1860788930808709	0.007382137281218496	0	-0.03682930292480247	-0.008009541084875485	-0.06606751460874502
0.84	-0.01679028997281899	0.01237539008831666	0.02561491195951308	-0.01135509000000001	0.8643817300000001	1.07801585	0.4875446939965584	-0.04938585536398747	-0.1252796904239875	-1.130153272549769	0.01176042556234262	-0.3088763519825955	0	-0.006805806872929693	0.112112145512102	-0.04078204066438221	-0.1130184044100745	0.1762939618910964	0.007096713291197277	0	-0.04328455553054719	-0.0002108616045138445	-0.07466154202550387
0.85	-0.01331665641385036	0.009863872935285116	0.03364872627525537	-0.01187441	0.86486944	1.08953164	0.5039977542046798	-0.04707959666355686	-0.1302723956883375	-1.082432430574389	0.02550687122890632	-0.3052211862482296	0	-0.0370262874164337	0.1094207340100595	-0.03332862867436831	-0.0908632296173106	0.1764672476040124	0.004682835145627744	0	-0.04736991857105794	0.002029696096087616	-0.08376558990534638
0.86	-0.009877031437972724	0.009166422672790817	0.04220391863320909	-0.01255578000000002	0.86485123	1.10104922	0.5178054028085245	-0.04795064057681063	-0.1370867948171747	-1.029707639574553	0.03950564787207711	-0.3097788832063516	0	-0.06730061049469713	0.1081423747552862	-0.02759261805032296	-0.06880933628103993	0.1752220171419029	0.007039359153982867	0	-0.05207768242892486	0.002642251336600337	-0.09333253069327721
0.87	-0.01003353315048481	0.01272204214357908	0.04992789344334257	-0.01329234000000001	0.8640154	1.11240284	0.5344432277600524	-0.05332125814437054	-0.1424105455819296	-0.973890840725175	0.03999325900569684	-0.3112244785137875	0	-0.09270736754331393	0.1117458103268864	-0.02786347883853262	-0.04835797389522147	0.181029630771176	0.009335649929989486	0	-0.05304754583722898	-0.001121030214543714	-0.1039631339449692
0.88	-0.008805240656885817	0.01348441261325786	0.05954176009031963	-0.01388239000000002	0.86324384	1.12393989	0.5445871712570999	-0.05367475800373411	-0.1459085824653311	-0.9097339401429834	0.05485462239469793	-0.3162735584365757	0	-0.1197226900182718	0.1114673994188655	-0.02049304835327187	-0.02865417739233544	0.178478195547808	0.01312844953664082	0	-0.05512705066310879	-0.002491716863148751	-0.1135989166272511
0.89	-0.009905905032595209	0.02230231291694977	0.06465784745041611	-0.01445770000000002	0.86162666	1.13484166	0.5595029297521015	-0.06268195477085664	-0.1466196301261924	-0.8477867827753173	0.05654727586453781	-0.3156568671148016	0	-0.1359806971161123	0.1206544172842881	-0.02368038713375398	-0.02579894230538377	0.1823143145755597	0.01161457851966312	0	-0.05714998692447051	-0.01250308515021478	-0.1157461109065768
0.9	0.008965330647865947	0.01739079249011101	0.07918241070580496	-0.01517580000000002	0.86187982	1.14693366	0.5408145895445037	-0.05851745117167758	-0.1598859475837713	-0.7699466237286694	0.06001075330888762	-0.3157538620426519	0	-0.188047705111332	0.1104922829185788	-0.008570148694597697	0.006752952718125698	0.1762254058816769	0.01356335643923929	0	-0.07885483378349702	-0.005702044247873511	-0.1338362752923034
0.91	0.00625670766871073	0.02597542462702295	0.08265741995784238	-0.01525919000000003	0.85952653	1.15846052	0.552189205188771	-0.0636194924124858	-0.1557784773302902	-0.7025389217509321	0.07020324942226466	-0.3090530840226525	0	-0.2086046398456097	0.1180743696567618	-0.005380528943316151	0.01945856343128095	0.1808364992684015	0.01467414523626523	0	-0.07770194991384101	-0.01639064007822029	-0.1376250615143397
0.92	0.008569305605581891	0.02788601129750065	0.08806448673825407	-0.01562060000000004	0.8575822200000001	1.17033964	0.5561356923807007	-0.06646938871178856	-0.1674511796773679	-0.6344583202973931	0.08928407770125471	-0.2749221014857365	0	-0.236137526620277	0.1175508946250074	-0.001026020424184599	0.03644320956525669	0.1807753047087009	0.01427317852989981	0	-0.08094527972939172	-0.01790696380639582	-0.1423067368886795
0.93	0.005319778517615544	0.04023611989421143	0.09212136014926699	-0.01545436	0.85480867	1.1813891	0.5672449158769036	-0.0746714858643842	-0.1614619619214309	-0.5686690172800684	0.09586791517071208	-0.2635876141025651	0	-0.2525082952522987	0.127708305955228	0.0005166137933988923	0.04303796808344258	0.1874793653439576	0.01534918605652615	0	-0.08164947959093277	-0.03389296622723496	-0.1452912801037859
0.9400000000000001	0.007949787599890845	0.04151387943048623	0.09583204405330266	-0.01597892000000001	0.85245187	1.1934269	0.5646940498054048	-0.07634925691169234	-0.1771920207086443	-0.4953960291877881	0.1169337709851776	-0.1909769988817689	0	-0.2799262449398723	0.125702137421056	0.0107484731900608	0.05748515175097602	0.1981414660290615	0.01795150844863106	0	-0.08519086486790019	-0.03298935150307926	-0.1530638234531318
0.9500000000000001	0.008487130217519956	0.05131130013927369	0.1010104752487207	-0.01640737000000003	0.84975171	1.20459964	0.5671354512696796	-0.08589823110577022	-0.186878688639801	-0.4307998779275555	0.1284398874147389	-0.1331815316040456	0	-0.3004055521414103	0.1319050998908982	0.01889708612399247	0.06319550498781951	0.2016194824151463	0.02367591786913841	0	-0.08987074115684701	-0.04285086878762878	-0.1609265727486037
0.9599999999999999	0.004541842009262452	0.0580002586411164	0.1040015679162203	-0.01646986	0.84668752	1.21613004	0.5714172280791561	-0.0903729181102722	-0.1961222185210739	-0.3657206142943832	0.1390136575099983	-0.08109811821198885	0	-0.3143177194384448	0.1355095613670326	0.02083573973764368	0.06619158151315596	0.2029176630251686	0.03440623911137969	0	-0.08827255398183718	-0.05018062454920473	-0.1648368604155835
0.9699999999999999	-0.0008528977314451757	0.06784995864295176	0.1053630379496761	-0.01598598000000001	0.8434011	1.22731433	0.5766122119423573	-0.09417930388341983	-0.1914476569342323	-0.3041325105982935	0.1475673058618476	-0.0552889364089495	0	-0.3251991837504478	0.1419186388439549	0.02954622581953819	0.06631556394363111	0.2102841522079125	0.04301154257683691	0	-0.08684980974669876	-0.06290941881988008	-0.1638292434411636
0.9799999999999999	-0.003104703744516681	0.07131195891022085	0.1102882137982	-0.01594470000000003	0.84075944	1.23927197	0.5738017230831695	-0.09844227634100251	-0.2184746050473376	-0.2451229380131432	0.152039684144815	0.02102961876493685	0	-0.3362802800440244	0.1406823970020261	0.02219244629894024	0.06093247914015833	0.2267938291516395	0.07364197530529437	0	-0.08646823452098762	-0.06637125425846958	-0.1682739428965896
0.9899999999999999	-0.01007004456077017	0.07959773037780499	0.1104945338134222	-0.01504029000000001	0.83747584	1.25080727	0.5756270275102805	-0.09982714658230681	-0.2140469928888875	-0.189189027396424	0.1514309359909997	0.04019462584454691	0	-0.3417001488832134	0.1456766123252448	0.02412447726074476	0.05370672475618193	0.2328768011080717	0.08038594237029911	0	-0.08308297330893423	-0.07785568671740416	-0.1659221626931414
0.9999999999999999	-0.01700333503190871	0.0813735911239496	0.1149797985677984	-0.01454042	0.83452478	1.26305323	0.572461858251023	-0.09651879557267057	-0.2256577707795715	-0.1339828853929318	0.1362632627804175	0.05531299751801749	0	-0.3444446145547922	0.1429382090548229	0.01506166016648676	0.04181580773245178	0.2480066931763359	0.1011682387299833	0	-0.07695294448334151	-0.08111707039327042	-0.1707712828615224
1.01	-0.0203375845025194	0.08565354716212421	0.1154592271129296	-0.01451373	0.83200005	1.27521356	0.5768475486480378	-0.09740442520248327	-0.223785055006929	-0.1144108390828899	0.1350446932698298	0.05988451416768963	0	-0.3520777867311152	0.144507859223898	0.01654956941084104	0.03139580096976026	0.2502479467397102	0.1070545009096085	0	-0.07562120433339595	-0.08530776126161223	-0.1636744882379819
1.02	-0.02205687888802103	0.08735150045554593	0.1152959240955306	-0.01452676000000003	0.8297512500000001	1.28810296	0.583409023911921	-0.09538486999294851	-0.2248747719202968	-0.1119219685026853	0.1348175206907914	0.05939262156688183	0	-0.3626719002096028	0.1438981685922866	0.01698259816463145	0.02297123594765794	0.2498597357721829	0.1078873943688746	0	-0.07383601595007629	-0.08512991378163035	-0.1638105923291781
1.03	-0.02658506180444041	0.086525229751232	0.120009059847263	-0.01450223	0.82761496	1.30056906	0.5943591536654877	-0.09476042626770291	-0.2289531527711349	-0.1267726283109827	0.1370149975568013	0.0416315725219405	0	-0.354254910440053	0.1382845558142885	-0.0004166090452534953	-0.0157008552400373	0.2689439904815605	0.1493997647426283	0	-0.07109461664746035	-0.08341894744461389	-0.1625123638971342
1.04	-0.02745098729089212	0.08364790212311998	0.121411512637515	-0.01468850000000005	0.82574081	1.31413731	0.5962457704620236	-0.09105984724073309	-0.2249985976202051	-0.141826846219006	0.1320191143969493	0.03983933021591598	0	-0.3629784393674476	0.1320389935225966	0.002470516174191852	-0.02956918004079457	0.2652824335260067	0.1501874635990457	0	-0.06892022909119097	-0.07751433853842468	-0.1619705641299644
1.05	-0.02544102597809211	0.08041551016612566	0.121943446407873	-0.01465019000000001	0.82413881	1.32815295	0.5973724195895612	-0.08702507326672307	-0.2274902615998775	-0.1709357333686989	0.1274216612819279	0.02489631055066278	0	-0.3718425992465192	0.1252557015715506	0.001594240636505235	-0.04958487264059851	0.2614953873972346	0.1491466120650094	0	-0.06937568951465971	-0.070996347803789	-0.1612780094542585
