inDegrees=no
nColumns=32
nRows=115
DataType=double
version=3
OpenSimVersion=4.5
endheader
time	pelvis_tilt	pelvis_list	pelvis_rotation	pelvis_tz	pelvis_ty	pelvis_tx	hip_flexion_r	hip_adduction_r	hip_rotation_r	knee_angle_r	ankle_angle_r	subtalar_angle_r	mtp_angle_r	hip_flexion_l	hip_adduction_l	hip_rotation_l	knee_angle_l	ankle_angle_l	subtalar_angle_l	mtp_angle_l	lumbar_extension	lumbar_bending	lumbar_rotation	arm_flex_r	arm_add_r	arm_rot_r	elbow_flex_r	arm_flex_l	arm_add_l	arm_rot_l	elbow_flex_l
0	-0.05760543553534051	0.09071500118159165	0.005224248533139771	0	0.89887584	-0	0.4895246932384588	-0.113145213924872	-0.1238168776180135	-0.1076953057003281	-0.01023875641426701	0.05130017420094397	0	-0.2315416879348137	0.1058778535095219	-0.2069370126519141	-0.1054380418826595	0.3022663104888145	0.3186162521068722	0	-0.1401104636017219	-0.05473454339309487	-0.1018625045264879	-0.1395974799186342	-0.05325386382610112	-0.4161905692295409	0.433349837125975	-0.07686333666155025	-0.100898373477579	-0.2855023453562573	0.9949779652964382
0.01000000000000001	-0.05621240190476419	0.08923243617304168	0.005014559654612311	0.00153433	0.89833588	0.01284455	0.4937717851197106	-0.1099789625614784	-0.1192672199954921	-0.1428331411065175	-0.02001984787968709	0.04130816510594106	0	-0.2411211378465595	0.09981008878139536	-0.2055441419958516	-0.1178821806317833	0.2930299889918853	0.3249210667558729	0	-0.1391666771577717	-0.05186656530820852	-0.1034271017928456	-0.137119913137863	-0.05272200248729095	-0.4164702612092327	0.43276636500492	-0.08359134146881501	-0.1009225637410116	-0.2871208649189212	0.9825171047222839
0.02000000000000002	-0.05902677168520033	0.08664903293215143	0.005114114401859324	0.003304059999999998	0.89788561	0.02566232	0.4971239049727295	-0.1042015392885405	-0.1145233969371473	-0.1605240640438441	-0.05364646394763125	0.02125063696396682	0	-0.2420982511780434	0.09193215320156894	-0.2002111820012986	-0.137756913808945	0.2834399688425907	0.3268813755422183	0	-0.1326773272761613	-0.04835079378521169	-0.1030064409657335	-0.1343424748805885	-0.05217465396936321	-0.4168173337190929	0.429747476851727	-0.08811804312475077	-0.09930904384852304	-0.2927390085716574	0.9604500903497626
0.03000000000000003	-0.05916954705808447	0.08215415605828608	0.00486119724768799	0.00539653000000001	0.89821079	0.0384373	0.4943956537589676	-0.0968030130165799	-0.1123180570137914	-0.1730723155225737	-0.06126687916338561	0.01788741262811498	0	-0.2431644893987147	0.08133981472293061	-0.1968366582293364	-0.161636049962204	0.2675616811618676	0.3241812407100414	0	-0.1307597441499048	-0.04263811664246919	-0.1045893441179508	-0.1303644923496421	-0.05092633078381917	-0.4170357930909065	0.4316972368680733	-0.09767909848791098	-0.1001399900439427	-0.2951935907624432	0.9462902541996191
0.04000000000000004	-0.06385644953706102	0.0733644573148185	0.004686933517393636	0.007878529999999995	0.89866429	0.05106985	0.489915130373447	-0.08465634713796849	-0.1109321950764061	-0.1757589486621901	-0.08374617887700447	0.01883061403769979	0	-0.2331168812695932	0.06522589834294328	-0.1916767041714202	-0.1962451235598018	0.254413304852091	0.3192523888399744	0	-0.1225685762490851	-0.03323378678468324	-0.1010685205649011	-0.1285798787032451	-0.05055482401349694	-0.4180907388567844	0.4306814042797985	-0.1000144807994379	-0.09798332054664079	-0.3012411934470507	0.9197605863441894
0.05000000000000004	-0.06772625814409741	0.06666733297443771	0.004518668493960269	0.01039065	0.89971207	0.0637395	0.4841794670699228	-0.07540312334896417	-0.1118142768009153	-0.1821418858193065	-0.1083984355005048	0.02257722472742757	0	-0.2203699202157997	0.05102471569188579	-0.1863716804404734	-0.2359976920623377	0.2307396286838438	0.312492535962651	0	-0.1158176744673634	-0.02624119407707341	-0.0989485488840504	-0.1260453635743106	-0.04928603649340741	-0.4195338283950134	0.4314529783883225	-0.1047623929896872	-0.09704726451501365	-0.3068057380384583	0.894866104549517
0.06000000000000005	-0.07167736146333339	0.06006624260608795	0.00431016168853848	0.01273193	0.90118441	0.07646185	0.475909363686622	-0.06668753636779777	-0.1119053191088188	-0.1860474792487301	-0.1184447674448773	0.02190920397048401	0	-0.2035345981694392	0.03660230784574903	-0.1816741977936312	-0.2814392452120862	0.2006594953014804	0.3051848542527897	0	-0.1083243265515371	-0.01884288876379614	-0.09500284813748178	-0.1241348800983854	-0.04857057280047275	-0.4215464623268664	0.4323938660149179	-0.1078230123143612	-0.09502938778862055	-0.3127388926772285	0.8657814382065186
0.06999999999999984	-0.07424949966236365	0.05540162885581875	0.004118991219395281	0.01485825999999998	0.90314247	0.08906938	0.4664335849361813	-0.05939962923836152	-0.1047232419384394	-0.1894864424965381	-0.1171788385995696	0.005126720894563108	0	-0.1843759114506494	0.02396551790846087	-0.1763682382171394	-0.3313385066288403	0.1595416203022916	0.2979208745402007	0	-0.1027292448068721	-0.01351825713136776	-0.09079404790735421	-0.1217259490885806	-0.04757580616173653	-0.423832012870255	0.4346390104407937	-0.1099176283754377	-0.09221207905538054	-0.3194107827055807	0.8355274848659552
0.07999999999999985	-0.07814215418629468	0.05439065371540134	0.004256752760794603	0.01696262000000001	0.90497047	0.10154587	0.4642592783631892	-0.05522836318646271	-0.08604693821949497	-0.2048159648010466	-0.1164139662063073	-0.03763481949848765	0	-0.1579762502041412	0.01424050928242806	-0.1692717221481476	-0.3897639337449102	0.1183466408455399	0.2962230089936156	0	-0.09581964669398479	-0.01280963111484364	-0.08594892122683466	-0.1202128320538398	-0.04503869136488124	-0.425756716241728	0.4393964742944403	-0.1098436829638209	-0.0894735789191851	-0.3299887339115961	0.8007661770187473
0.08999999999999986	-0.08174542518345937	0.05228104274157432	0.004281307060627245	0.0191037	0.90678128	0.11380732	0.4651575300396194	-0.04938772059735907	-0.06496736795683312	-0.2290044904093519	-0.1045907028567734	-0.06765665591677469	0	-0.1268883703439274	0.002685447886521347	-0.1619913160947706	-0.4523172308718243	0.06181670290725853	0.2990826330600372	0	-0.0899238756115289	-0.01121044613510043	-0.08085109652696634	-0.1182855726476773	-0.0435130645081938	-0.4259803033908839	0.4448989940730222	-0.1126952898603236	-0.0873375907008547	-0.3384249537188445	0.7744629085614976
0.09999999999999987	-0.08684056659842397	0.0503578684478182	0.00438225439451597	0.02089495999999999	0.90835918	0.12575581	0.4650311812917444	-0.04338209377939367	-0.04508268361040824	-0.2476528397132659	-0.08904010999335733	-0.08143905903112092	0	-0.088242272693848	-0.007624831247827766	-0.1516781229587023	-0.5204172253768139	0.0005555897881227289	0.2897099922728151	0	-0.08336707783004096	-0.009055292281720957	-0.07447550982399477	-0.1169020520694836	-0.04306296765604937	-0.4241899575596246	0.4520719642898976	-0.1155295368394212	-0.08498427181513794	-0.3467661415700522	0.7495993428310631
0.1099999999999999	-0.0910417613291646	0.04483090618015627	0.004091408266063904	0.02278337	0.9098715000000001	0.13742721	0.4614806880140755	-0.03425598214527917	-0.03447926892327088	-0.2608294699365726	-0.07569411633556264	-0.08571012789657069	0	-0.04803974626737609	-0.02214911640586438	-0.1417722366120403	-0.588936624071854	-0.06384111449543696	0.2746894377518055	0	-0.07863677828087229	-0.003393019724177266	-0.06696151239418931	-0.1163101915469776	-0.04420494025082069	-0.4190361543910583	0.4629304068364022	-0.1180129174864637	-0.08197343434218565	-0.3557708297754408	0.7265777799653582
0.1199999999999999	-0.09540692635788749	0.03676819604917407	0.003517819003900321	0.02458679	0.91125934	0.14876779	0.4542788350415405	-0.02338488212197325	-0.03208025574694059	-0.2658380962688922	-0.06531726406035716	-0.08741276691866	0	-0.00691769085556294	-0.0380991072737142	-0.1302619422133156	-0.6539186939841742	-0.1225949022719234	0.2578244402212393	0	-0.07462969587530736	0.004904583066817978	-0.05787500559692814	-0.1151139645197434	-0.04634529039601766	-0.4120253640080026	0.4747914134546093	-0.119344091277067	-0.07885636286645469	-0.3646909733591982	0.7039639092577581
0.1299999999999999	-0.0966619506565555	0.03125458741574131	0.00303007451704817	0.02621472999999999	0.91295163	0.16005715	0.4395667882352389	-0.01568914059009791	-0.03410205475176171	-0.2625268241016869	-0.05231649670313987	-0.08511124434368759	0	0.02832692711038896	-0.04991413668343594	-0.1185715924931052	-0.7102462114283361	-0.1691967674126244	0.2476898188767925	0	-0.07434388930911411	0.0101053921409307	-0.04915107716366769	-0.1125475859618528	-0.04844155736403363	-0.4058979847667473	0.4854720861882837	-0.1232238524372977	-0.07677625136412689	-0.370804095005794	0.6885683299062531
0.1399999999999999	-0.1018197668194682	0.02225607931840592	0.00227378403377011	0.02792991	0.91384898	0.17056573	0.4292681424184861	-0.004186801751169594	-0.03694198975889163	-0.2572306676905378	-0.04652752336481106	-0.07952624431891379	0	0.07149016183757029	-0.06676593900125831	-0.1119323760755478	-0.771716979431341	-0.169267453596396	0.2372823594606265	0	-0.07145266658018384	0.01855581700842811	-0.03691111226642997	-0.114070005077908	-0.05270948969828463	-0.3895848357365192	0.5053579289097331	-0.1201137631512393	-0.07154171450035109	-0.3850216769450361	0.6662355940420374
0.1499999999999999	-0.1000422950025099	0.01709026794065726	0.001715394494139694	0.02975724999999999	0.91548504	0.18142598	0.4081278812981459	0.003401091871967739	-0.03850580599040902	-0.2467387299752521	-0.03182345760011303	-0.0736967037691821	0	0.1024724360135361	-0.07822676361313162	-0.1068861064819213	-0.8235343639792223	-0.1476636736928977	0.21913006379699	0	-0.0760292122215627	0.02198891647354818	-0.03021905775109779	-0.1070979751414135	-0.05376813975096696	-0.3831026352471237	0.5147879482687792	-0.1258515185809379	-0.07088749720339571	-0.3901105118029933	0.6552795872412805
0.1599999999999999	-0.1057235593747275	0.005535314094314955	0.0005874033764054791	0.03168524	0.91602273	0.1917631	0.3962785652443346	0.01734693390065601	-0.04600066588496635	-0.2371599661524353	-0.02390070109243079	-0.06872906736701023	0	0.1457031863593699	-0.100081341570555	-0.110065074314245	-0.8802612953103141	-0.1183510532124219	0.2047125542173989	0	-0.07253224121073543	0.03197067175919562	-0.01605056092813994	-0.1105292304916459	-0.06072597911344522	-0.3606676813827383	0.5385738297347749	-0.1227660160971182	-0.06721392400500784	-0.4049616767095762	0.6345307376732497
0.1699999999999999	-0.1037356326297466	-0.002451523991810095	-0.0002552231514558034	0.03365389999999999	0.9175039699999999	0.20232496	0.3753120994730519	0.02695938537056309	-0.0574277775424752	-0.22628250405494	-0.01292231463280722	-0.06144916519018826	0	0.1772762581523272	-0.1168596700647245	-0.1127853937046882	-0.9257384428793606	-0.08887585705745216	0.1741341719196249	0	-0.07739847066724082	0.03711867502412462	-0.005489386525026439	-0.105170580472234	-0.06406810154597584	-0.3493235390126778	0.5489337687223309	-0.1254390517255981	-0.0663151150449475	-0.4109131227479731	0.6245341842644734
0.1799999999999999	-0.103834946250547	-0.008789700152109128	-0.0009159571309773378	0.03544944	0.9187623	0.21274264	0.3575161694994107	0.0348966572580354	-0.06383283098827408	-0.2173843189821007	-0.002047708592099898	-0.05202506738422839	0	0.2118491088375632	-0.1312097745050047	-0.1152079801705606	-0.9675480550420337	-0.06361631294618743	0.1412647288994808	0	-0.07944248561904474	0.04055259601572359	0.004720452052463053	-0.100808660063368	-0.06767126275181758	-0.3371616985434178	0.5623287172948478	-0.1273697679308771	-0.06602659815695881	-0.4170165422837899	0.6126241574562303
0.1899999999999999	-0.1055588581114652	-0.01354983390927094	-0.001435593196230994	0.03706059	0.91985199	0.22295176	0.3410917384506083	0.04120868849442732	-0.06957381754601685	-0.2074156114288754	0.006784474411614267	-0.04335365712989093	0	0.2479418404065232	-0.1420281713444869	-0.1160716928282914	-1.00410613938613	-0.04635475531655123	0.1041404717888095	0	-0.07936587875485157	0.04233466340127486	0.01490915364551334	-0.0967482957227994	-0.07122967895162592	-0.3241715527364294	0.5763470264412764	-0.128094454816244	-0.06589336111812497	-0.422917831399209	0.5990981172035962
0.2	-0.1057203699905653	-0.01860903594869412	-0.0019745969767134	0.03859939000000001	0.92115926	0.23322057	0.3229720645614879	0.04745806886839088	-0.07682569601823711	-0.1975776225789061	0.01594967217072841	-0.03032923724518354	0	0.2819034188427797	-0.1506553591443691	-0.1134970661934217	-1.035707356009539	-0.0326954933839807	0.06829151314900234	0	-0.08082254241680495	0.04443093769967368	0.0234593848172202	-0.09086601271933584	-0.07489053393575451	-0.3122465253468641	0.5895714943940511	-0.1308115144552433	-0.06576294749842207	-0.4296178699232044	0.5883379702043006
0.21	-0.1044531514192409	-0.02000106075347514	-0.002096659070171373	0.03994286	0.92261366	0.24378272	0.3012757989627947	0.05031827203505836	-0.07897201780746979	-0.1848929610527626	0.02736017265708141	-0.0206276261540371	0	0.3120713782403009	-0.1535236794883217	-0.1094308195696751	-1.060753311613867	-0.02223782416136039	0.04519456672037685	0	-0.08211748055414296	0.04326667777395317	0.02856401525397375	-0.08296282222523307	-0.07656738327468467	-0.3060033463022658	0.5994884684683851	-0.1373757340748424	-0.06662795536499075	-0.4339681954117177	0.5799300301414552
0.22	-0.1024795187918394	-0.02407448897908034	-0.002475567818553744	0.04111532000000001	0.9241289	0.25415342	0.279661335375346	0.05534873889403861	-0.08967042640247005	-0.1724831414108524	0.03424633169624612	-0.001705581647208186	0	0.3414828058239894	-0.1590182023428038	-0.1060562010263345	-1.081521926512077	-0.01538247315055311	0.0139081256380856	0	-0.08550035520297715	0.04486576012833635	0.03814825312745648	-0.07874172615052519	-0.08170106349510718	-0.2929720300980851	0.6145285972060217	-0.1381587982094312	-0.06527027525903742	-0.4431270454083423	0.5696837122627367
0.23	-0.1014790127751738	-0.02368074838803503	-0.00241114893677079	0.04223184999999999	0.92547039	0.2647419	0.2571502053940269	0.05623967659370537	-0.0943430600986199	-0.1569275260134479	0.04279039784143616	0.006480601767800693	0	0.3688410971906701	-0.1584115480604922	-0.1026732837914666	-1.095436543204184	-0.009252411163704597	0.003638296778079485	0	-0.08524323905715987	0.04198848851424899	0.0418288233508156	-0.07032213409506058	-0.08380599410299711	-0.2892044415979459	0.6221258519026022	-0.1467654351064369	-0.0659777097392812	-0.4475349597808544	0.5638463313449393
0.24	-0.09831053495806018	-0.0246343295238856	-0.002429392990062679	0.04310026	0.92690152	0.27524546	0.2333235820091702	0.05828489407736391	-0.1004841738593579	-0.1424527136093224	0.04852791154303333	0.02255236513022679	0	0.3928846794877824	-0.1594930683840938	-0.1020963107529472	-1.104097946438722	-0.002506776087533734	-0.01166660957719187	0	-0.08920109933809423	0.04098887143098857	0.04760848291412407	-0.06353014743727987	-0.08826640501234947	-0.2814292961372181	0.6347588040353981	-0.1517241664896992	-0.0653087529622598	-0.4570776130905133	0.5592331556058842
0.25	-0.096449544085735	-0.02264093809386161	-0.002190310987839041	0.04378017000000001	0.92811743	0.28594653	0.2111563909735722	0.05711580552373482	-0.1056219945243649	-0.1289509006211011	0.05644708855495266	0.02868391884998698	0	0.4162007343761703	-0.1558197934624751	-0.1009040098438654	-1.107281524209199	0.005818239368292107	-0.01249325248880782	0	-0.08947844315181042	0.03742159646349586	0.05000069646222154	-0.05524131056245278	-0.09091727181773644	-0.2784932102434641	0.6426389275599748	-0.1610544336497426	-0.06496767862543998	-0.461953000115071	0.5544556506600357
0.26	-0.09030998114393665	-0.02327485397633994	-0.002107488206603232	0.04449591999999999	0.9296494	0.29651361	0.1827958008252354	0.05878271032565297	-0.1140837090541288	-0.111722776867682	0.06024245466826905	0.0483777812878365	0	0.4330400202397949	-0.1549318352143744	-0.1007137473133153	-1.104183009597674	0.004683267987282239	-0.01479814948335603	0	-0.09681020953268465	0.03648618550556025	0.05356378805003013	-0.04856153234401327	-0.09496075446111511	-0.2721556595008812	0.657707479333546	-0.1657460598442797	-0.06149700065072815	-0.4784153542014594	0.5521639062921976
0.27	-0.09009246034456872	-0.02120996421393574	-0.001915895480506787	0.04502011	0.93033317	0.30692435	0.1636513257989458	0.05775704036358217	-0.1179262051659015	-0.1001704709975983	0.068508728799191	0.05092845013712987	0	0.4549445565017275	-0.150040182070254	-0.101106185119225	-1.096214476943437	0.008493879900680647	-0.01368386391917372	0	-0.09591508129748383	0.03325959880805684	0.05480817028212316	-0.03923301400388036	-0.09742720140015594	-0.2710908294118505	0.6647697504718173	-0.1751762245892525	-0.06131720468516932	-0.4818496760951875	0.5480462023006474
0.28	-0.08356239336478216	-0.01863669346777737	-0.001560866863394719	0.04557067000000001	0.93151356	0.31744449	0.1363680013850931	0.05596401754631614	-0.1216694841966201	-0.08606647386434546	0.07266102678731205	0.06669139721063612	0	0.4675435754196074	-0.1451760724906581	-0.1037501559542044	-1.08271230563912	0.01994361940287576	-0.004064402508858931	0	-0.1038640098899644	0.02876328211266782	0.05636148294766914	-0.03147150706952647	-0.1013464186951877	-0.2654368635743488	0.6785853370076329	-0.18176991758393	-0.0595015814248863	-0.4961803895784123	0.5487011093517231
0.29	-0.08388471540600848	-0.01818036072036575	-0.001528553031203316	0.04594266999999999	0.93176781	0.32773592	0.1195525865641809	0.05639312367261269	-0.1262441082304925	-0.07720371234307051	0.08109001220481089	0.06820519143312673	0	0.4866252955618452	-0.1409314682271892	-0.1039540838891988	-1.064357346880598	0.02355280391449906	-0.001961313746928628	0	-0.1026686930519351	0.02805226272614043	0.05688324476422971	-0.02265638640457979	-0.1048246317798792	-0.2654574129064289	0.6860184317943574	-0.1903316515226051	-0.05804714637385479	-0.4992420286989682	0.5449772547883817
0.3	-0.07545210254573199	-0.01365232417908994	-0.001032020244584011	0.04614615999999999	0.93280544	0.33827517	0.09088284135851649	0.05237973661419078	-0.1286292776297289	-0.06446609979634946	0.08730075535245845	0.08000372311809399	0	0.4919129213272094	-0.132483705161334	-0.1081542304278292	-1.038197457570465	0.03565812748098678	0.01094920298373389	0	-0.1129861587540122	0.02208730190521357	0.05760649018216731	-0.01643230196013002	-0.1077782442699817	-0.2621413229323564	0.7042269932078866	-0.1954645079476207	-0.05507399160665062	-0.5141208771454817	0.546331404442324
0.3100000000000001	-0.07539050517915614	-0.01343619400431323	-0.001014850933268073	0.04661712000000001	0.93261932	0.34837945	0.07307750196581193	0.0534245926316629	-0.1314334480479586	-0.05415230888501241	0.09553378619711764	0.08504797092231506	0	0.5069582047202589	-0.1287944761850228	-0.1111188257513157	-1.010010588594692	0.04121346423885955	0.0167368388762569	0	-0.1128342995756584	0.02147032068425072	0.05714765778258372	-0.007346637633298783	-0.1091874971100022	-0.2605958701825638	0.7137591588340704	-0.2023078177573855	-0.05442578644536959	-0.5197115850950411	0.5426185660481552
0.3199999999999998	-0.06794768812804014	-0.009399062785557157	-0.0006396166090706305	0.04666920999999999	0.93322558	0.35905189	0.04731908882365335	0.0499133786869418	-0.1362556618715251	-0.04506979993893585	0.1033668235310023	0.09254602424580474	0	0.5086993174313132	-0.1194450109268063	-0.114946401043313	-0.97274711494717	0.04778666479919065	0.03016154042559831	0	-0.1216197093262154	0.01654813562286053	0.05698414189922165	-0.002028083760924624	-0.1127711275579154	-0.2571324056536505	0.7287282378358522	-0.2077910223262014	-0.05031917576654504	-0.5320100207911487	0.541415117372075
0.3299999999999998	-0.06854035226380123	-0.01001196837492683	-0.0006872857063552643	0.04684338999999998	0.93256915	0.36901884	0.03198578159812891	0.05177425484407053	-0.1413422358299692	-0.0370189762321971	0.1114938821722707	0.09394057914459544	0	0.5207359682258544	-0.1145660355053064	-0.1156753266353013	-0.9347343758150896	0.04693020276277145	0.03835137768739624	0	-0.1208542848853107	0.01700820319195576	0.05785139530640594	0.006250965307457295	-0.1157886278252871	-0.256803573230737	0.7370844161454724	-0.2130106071288083	-0.04793192087338543	-0.5360362164718852	0.5385777530604005
0.3399999999999999	-0.05905181230859431	-0.004640872643902051	-0.001897139732311923	0.0470255	0.93312841	0.37961831	0.004580734082517778	0.04701952487416416	-0.1465327890003314	-0.02797695159438396	0.1144707476839975	0.1022023684774715	0	0.514427643545195	-0.105056845567929	-0.1234010255220566	-0.8854103070264849	0.05331642515313885	0.06062043085052964	0	-0.1326758016838621	0.01019756734205165	0.05942326343989448	0.01173545723112944	-0.1183706818833216	-0.2531857959396074	0.7531982958735455	-0.2130715733994426	-0.04446402181190864	-0.5511230280546237	0.5346058968096614
0.3499999999999999	-0.0597066394799545	-0.002847058382237708	-0.005547345912342691	0.04754301999999999	0.93227161	0.38965344	-0.009761163470553731	0.04618701416560302	-0.1426852961854432	-0.02208853777285691	0.1236757750783726	0.1055106568297875	0	0.520307727433801	-0.09959372886613896	-0.1300970005704875	-0.8360968793357966	0.05399808705445014	0.07170987103966128	0	-0.13254371568967	0.007238516231466986	0.06105810793971689	0.02031973750761468	-0.1202822905730156	-0.2514626091562344	0.7630047536052481	-0.2174215280054898	-0.04192717719202154	-0.5578199558782932	0.530704479604072
0.3599999999999999	-0.05455840712385592	0.0009341099190140722	-0.008963542826665212	0.04791034999999999	0.93207084	0.40003395	-0.02934429768280068	0.04291460070699583	-0.1436517513147841	-0.01832517192230999	0.133170540567614	0.1074611842674059	0	0.5152147463716729	-0.09196878190298179	-0.138610557662221	-0.7785074228689971	0.05097622259128375	0.0947606201737828	0	-0.1388592997182872	0.002273978835914975	0.06455824969019626	0.02630554663552247	-0.1218642130247261	-0.2496659672242314	0.774290342971431	-0.2182772685227963	-0.03947746464438175	-0.5668417149745627	0.5271200471773676
0.3699999999999999	-0.04828154892251538	0.004788606889035119	-0.01444301802019316	0.04851573000000001	0.93190052	0.41054016	-0.0498501063127668	0.03938335474578497	-0.1448242354064729	-0.0153210215038538	0.1386228179020846	0.1113948914604207	0	0.5055559831136629	-0.0850599789621017	-0.1497113564541246	-0.7162833227642771	0.04905762368340259	0.107910707953424	0	-0.1464052701837258	-0.003646671216896405	0.07029947361271731	0.03145276432775515	-0.1235227845775976	-0.2477069058247025	0.7857120736043229	-0.2170242898460055	-0.03558727060401431	-0.5810983584296621	0.5216291284277907
0.3799999999999999	-0.0446369985985674	0.006614808428548114	-0.01540578306484895	0.04850636	0.9312469	0.42091796	-0.06669274111416014	0.03783268974471428	-0.1464643801221677	-0.01429661899988579	0.1476452749555219	0.1122188092149426	0	0.4982881872386644	-0.07735684648444295	-0.154485767978407	-0.6512663933908068	0.0436349736620505	0.1204737531919594	0	-0.1509115701624362	-0.006508961797349274	0.07039200014861668	0.03706181900387873	-0.1249183400736485	-0.2459502179699362	0.7972459854494199	-0.216580761365968	-0.03201412277812157	-0.5919224534200862	0.5154735095847053
0.3899999999999999	-0.04670674621808793	0.0007792447620572773	-0.01486318614141773	0.04846830999999999	0.92969533	0.43114642	-0.07671927893041988	0.04470080661726942	-0.1427999348212349	-0.01509239035315955	0.1566948544255353	0.1108294815772616	0	0.4979218150524686	-0.07652941136787951	-0.1533128095062274	-0.5872597078868136	0.0375765508087452	0.1300783930917333	0	-0.148758567078294	-0.0005577414300245876	0.07042670916238525	0.04297011491811279	-0.1277368344090494	-0.2458041260575626	0.8041469687916523	-0.2180023508912733	-0.02824887808063488	-0.5947794176047279	0.5131599477285527
0.3999999999999999	-0.03944293001209663	0.005562565343244945	-0.01832924230733753	0.04855728000000001	0.92933364	0.44189295	-0.09665738064939838	0.03945904583571961	-0.1432403813988792	-0.01599772806635282	0.1677252255169295	0.1044122787200067	0	0.4791387460525212	-0.0672165383336944	-0.165466822522858	-0.5110338117193168	0.02720562200648806	0.1468371581903171	0	-0.15778657829301	-0.006773055594983094	0.07332661560247589	0.04671448163802128	-0.1283910799803386	-0.2438242702817267	0.8185963210307814	-0.2155675394411883	-0.02521395925279528	-0.6043829734805034	0.5056975462456934
0.4099999999999999	-0.04186922661685668	-0.002787671640222924	-0.01867786999255129	0.04830556999999999	0.92750325	0.45221406	-0.1051016595144678	0.04840317565392009	-0.1375557393053785	-0.01967732875931245	0.1754990275977319	0.1039657170322622	0	0.4740338796472529	-0.06888203098971474	-0.1635596172988669	-0.4400042681022207	0.02212969368381648	0.1582317953790988	0	-0.1556163114591045	0.00229525823922114	0.07416514472989669	0.05153401620665297	-0.1314411356997149	-0.2437657863928874	0.8252498268079905	-0.2163563593225842	-0.02067721043448749	-0.6070011900625073	0.5036959487288324
0.4199999999999999	-0.03494077127497862	-0.001115912754372246	-0.02173889876318829	0.04829718999999999	0.92674738	0.46305469	-0.1241171995639968	0.04663282169657774	-0.1389742868963305	-0.02206634486422025	0.1867731932603618	0.09480064877657851	0	0.4532769923144179	-0.06302782998484993	-0.1797241176839001	-0.3613548229197692	0.008708692057956382	0.1801663603798776	0	-0.1642019195820847	-0.001162394692348905	0.07660869591621108	0.05429244224331965	-0.133681484309872	-0.2401164708276413	0.8393498981721569	-0.2129457981667598	-0.01713518095649317	-0.6156325975449221	0.4964045722339091
0.4299999999999999	-0.03300783999401387	-0.006575699513945377	-0.02376252733240276	0.04811254000000001	0.92527058	0.47387442	-0.1379865952987831	0.05254039958235755	-0.1366392850665805	-0.02438310154556868	0.1947124419077449	0.08944072309601631	0	0.4393906569375106	-0.06352064726109542	-0.1922638187946242	-0.2867621472232258	-0.00355843068604115	0.1973059823266525	0	-0.1668183210216667	0.004433260043909563	0.07908219607982507	0.05696742286671802	-0.1364492953309925	-0.2378054623881843	0.8491042784205727	-0.210737261323813	-0.01204892482250586	-0.6240378443901987	0.490873822278275
0.4399999999999999	-0.03713114905514215	-0.01621455416329362	-0.02369835984984162	0.04773405999999999	0.92285697	0.48455651	-0.1448975324282726	0.06325900704732405	-0.1337110557724544	-0.02823468907741494	0.2017136664902363	0.08750947177278866	0	0.4347290601799515	-0.06697277046599637	-0.2001899690950369	-0.2183436543898239	-0.007431908137365919	0.21351649744475	0	-0.1618753997034335	0.01444840627067446	0.07881170181075833	0.06006908640127946	-0.1388572128281006	-0.2369776523748975	0.8555777931044128	-0.21196442378844	-0.007630323624450866	-0.625935034914942	0.4891981918772944
0.45	-0.03208504513033016	-0.0179263313900889	-0.02967850282473118	0.04773635000000001	0.9215597800000001	0.4956161	-0.1626091596829169	0.06417375871743675	-0.1300497620125518	-0.0300595332612021	0.2101603563531344	0.08113043176135906	0	0.4167614664278682	-0.06439627371083323	-0.2338698297479387	-0.1477346043972975	-0.02279130070482481	0.245530024192932	0	-0.1682746309053807	0.01466411098932967	0.08438815757617901	0.06132813777666967	-0.1414637192980213	-0.2316242952409752	0.8686059961648068	-0.2078839728025761	-0.00465390805860519	-0.632079749115394	0.4832511184122724
0.46	-0.03550523463358067	-0.02850885838682598	-0.02816874140920539	0.04690087000000001	0.9191420300000001	0.5064179	-0.1692450104075446	0.0751633376244875	-0.130289404270964	-0.0365123109900675	0.2177551138326211	0.07928495586595116	0	0.4130842568359839	-0.06620064622969205	-0.2473603576117496	-0.08722880101245233	-0.03098195041738954	0.2634592475795419	0	-0.1646201812796069	0.02661725912380308	0.08293017549250868	0.06332189981238676	-0.1444331141024179	-0.2308347753080163	0.8735605286349547	-0.2078512672522559	0.0005491182817892592	-0.6330229417983324	0.4818128245152292
0.47	-0.03370572187748042	-0.0303896621862737	-0.03257526917306958	0.04663037	0.9172731200000001	0.51770489	-0.182131030045892	0.07555538552384231	-0.1331614062124408	-0.04166424875072927	0.227782442283032	0.08293466849360208	0	0.4038151648624863	-0.06157597994097355	-0.2856443650664201	-0.03240778999395637	-0.04431335224997294	0.3031933525929868	0	-0.1666685747389053	0.02694248552194895	0.08660249379916436	0.0631417310444997	-0.1472083946091382	-0.224804436024106	0.8835393282055138	-0.2055435962313945	0.003346178926778092	-0.6364947954268284	0.4775548262460148
0.48	-0.03787857205071723	-0.03765595760009029	-0.03210287852390569	0.04568873000000001	0.91480898	0.5286423099999999	-0.1868817489001114	0.08199098834020344	-0.1346615437571334	-0.05018941402731776	0.2343537893036974	0.08457682068700259	0	0.4048098119461687	-0.0596081063740513	-0.2992060411026556	0.01235274772443575	-0.05477091745096983	0.3196457834353801	0	-0.1620891995697431	0.03487407985336452	0.08504186890218422	0.06432993810928805	-0.1490715260807264	-0.2238970658749988	0.887050142993435	-0.2049269471465884	0.007259097852138204	-0.6365124544936671	0.4764812656709997
0.49	-0.03844014091734944	-0.04309983812462884	-0.03344984862968702	0.04489652	0.91273528	0.53984983	-0.1946132080715301	0.08523806502859235	-0.1384010095925022	-0.060808562508596	0.2426806712146254	0.09175296949751173	0	0.4031564063933501	-0.05746452108655281	-0.3158344620456407	0.04817462217037756	-0.06189083489457237	0.3412240899093797	0	-0.1614804056883014	0.04018832520594721	0.08542318023411247	0.06491102471432146	-0.1511302435116162	-0.2209861153404674	0.8911212166742939	-0.2027953678044814	0.01061677483349551	-0.6366547175027277	0.4738966819327474
0.5	-0.03641381957638566	-0.04391645650346204	-0.03815499562125013	0.04440069999999999	0.9111298799999999	0.55104599	-0.2035542987479041	0.08190223730054198	-0.1444138854609829	-0.07388571524772436	0.2553453223663619	0.1125308412730092	0	0.4036343510209077	-0.05356318922756377	-0.3441951820464739	0.06671427498647126	-0.06279086925030053	0.3683474765393699	0	-0.1651723678502212	0.03924987580431679	0.08888928404992066	0.06587767776399947	-0.1542886611391952	-0.2154854604461913	0.8952559339608597	-0.1992496668518726	0.01324692248626619	-0.6352290405908472	0.4715179667610849
0.51	-0.03785567880768214	-0.04692732471242141	-0.03781355585434105	0.04366054	0.90933847	0.56250438	-0.212109408813002	0.08266882692325532	-0.1448508846642887	-0.08080727375290973	0.2553200241679201	0.1140549709862643	0	0.4090151042390327	-0.05212015484173921	-0.3494949453550553	0.07513787135083871	-0.05866761423906435	0.368195839017831	0	-0.1631011936553941	0.04110308926789758	0.08637808076020632	0.06507567680702658	-0.1523375408132299	-0.2150278520460122	0.8952927256760246	-0.1970487213185073	0.0139464600497764	-0.6346768147503247	0.4718502448130076
0.52	-0.03540424164872014	-0.04866164525798613	-0.043255194169168	0.04339397	0.90805618	0.57404526	-0.2206682460287175	0.07962607785025957	-0.1464247145478564	-0.09602261417429186	0.2570236786225682	0.1251716651897975	0	0.410615588616404	-0.05453060620785537	-0.3557573130730488	0.07139000000979222	-0.04448737065210889	0.3686535156603839	0	-0.1666080006437539	0.0405456588555457	0.08857917394842632	0.06769207946833902	-0.151098270650516	-0.2136298944533118	0.8945223340280688	-0.1951133157625941	0.01455808607699536	-0.6334361806128003	0.4699816129362818
0.53	-0.03426392789289164	-0.04845697119736586	-0.0450364390375867	0.04296148999999999	0.90682259	0.58581914	-0.2311239165002784	0.07578145959264945	-0.1439825721913142	-0.1049398596388263	0.2579864465693313	0.1348015285879213	0	0.4164351975445601	-0.05652825928060685	-0.3531145013112256	0.05553708644933343	-0.04172649923462723	0.364648386278252	0	-0.1675586217970548	0.03731939818554656	0.08916278168156422	0.06609418899930203	-0.1489080875154502	-0.213121255592864	0.8919670561132867	-0.1911648233618869	0.0138089041937085	-0.6318930130225975	0.4709419522573907
0.54	-0.03190624902502855	-0.04963767586463838	-0.0497124350131719	0.04259847999999999	0.90579722	0.59789425	-0.2412335188989637	0.07174071868699272	-0.1435221086070118	-0.1174688362248957	0.2587041435855768	0.1507517329095386	0	0.4212559189370832	-0.06233679357106033	-0.3462038237121959	0.03098524647168193	-0.02825445266226575	0.3475719442032018	0	-0.1697582426255178	0.03599030971433355	0.09153164097894075	0.06477204432051807	-0.1472558843199533	-0.2133120338682081	0.8873371772242241	-0.1889642911224885	0.01506207223872315	-0.6286589308340884	0.4697464682168191
0.55	-0.03063005729017605	-0.0497130438577185	-0.05190452490346449	0.04196574	0.9048223	0.6101704	-0.2504236931923385	0.06713169089743795	-0.1419062025003698	-0.1294169473391478	0.2562397416488206	0.1636218553909271	0	0.4268334917132252	-0.06668135877491034	-0.3297209197701287	0.002000439665435211	-0.01961115948764499	0.3182965240194688	0	-0.1701931346928176	0.0332743365427936	0.09241744845780422	0.06184584205178521	-0.1448946718336285	-0.2142547008579759	0.8817677544375573	-0.1857586195780764	0.01405539337877623	-0.6249594260572732	0.46989208086178
0.5600000000000001	-0.03373560149207164	-0.04858098618926198	-0.05274810380996154	0.04107169999999999	0.90350529	0.62266321	-0.2532596966707953	0.06129373576631653	-0.1406623939580019	-0.1451137509718595	0.2539968097768376	0.1769574968027965	0	0.4319234851207397	-0.06758018239573639	-0.2946480292871366	-0.02123568019040893	-0.01506498676404106	0.2638216283722713	0	-0.164683831517565	0.0302179739016323	0.09108922828789406	0.05817739924873357	-0.1407678020709786	-0.2172206289148793	0.8737041166979834	-0.1840384595446921	0.01174101959545555	-0.6178283070905314	0.4706775235310734
0.5699999999999998	-0.03063674479910776	-0.04437149468880867	-0.05612797209520677	0.04057357	0.9030560399999999	0.63568614	-0.2640198829399992	0.05195644295790215	-0.1373427754517807	-0.1579487445132615	0.2437323509458741	0.1799675743593925	0	0.4335261686129686	-0.0675046841646841	-0.2893991714732494	-0.05490968578726909	-0.01390768319712022	0.2425710709953184	0	-0.1661626400916006	0.0223651197503546	0.09256120075631546	0.05189147586902346	-0.1378179022452609	-0.2170671193531848	0.8679939198426408	-0.1815893936415402	0.009343842854564199	-0.6153215423476378	0.4728655026643598
0.5799999999999998	-0.03254732079312733	-0.04165840567861179	-0.06073710732437061	0.03993659999999999	0.90218562	0.64862674	-0.2674425458597911	0.04371964883430979	-0.1280391484738409	-0.1738617635479675	0.2316588285000881	0.1839451336479953	0	0.4368958513651845	-0.06618299780936174	-0.2817563711881077	-0.08042992711091031	-0.03852002955114815	0.1836617424429539	0	-0.1608478217474245	0.0163899274602867	0.09504938943638132	0.04576514155639135	-0.1330827648179386	-0.2200802428583913	0.8569956954471404	-0.1810800671213671	0.006218948987658711	-0.6082378551467797	0.4763733296231344
0.5899999999999999	-0.03454718186134415	-0.03581695252417511	-0.06192904907382819	0.03875571999999999	0.90157781	0.66161562	-0.2675274821333065	0.03254239240386406	-0.1239540660822739	-0.1952463573245517	0.2184779866227634	0.1850661301776845	0	0.442334371490892	-0.05988774721559603	-0.2789058989301518	-0.1039659446231966	-0.07828356325924267	0.1378603294540476	0	-0.1566938414364374	0.008132070877814195	0.0930363580930576	0.04007279819756628	-0.1293077844993514	-0.2214943075711596	0.8474021647425882	-0.1792240583384564	0.00387739955521985	-0.6013807225038721	0.4804422809836228
0.5999999999999999	-0.03319090874928844	-0.02696644754947764	-0.06244218501089159	0.03718166000000001	0.9017323900000001	0.67464511	-0.2685160915995075	0.01729967928569119	-0.1237935903879359	-0.2199532047054618	0.1998688262437419	0.1871650119979858	0	0.4406407795575135	-0.05041284270057767	-0.2724266417640068	-0.1224391546745291	-0.08767619801477684	0.1299145944650324	0	-0.1562059630929092	-0.003617824938618218	0.09173689955295693	0.03245747358364119	-0.1271025697161028	-0.2218961722494251	0.8380480029778875	-0.1750898156069143	0.001523649398644923	-0.5980514203873619	0.4830441649490197
0.6099999999999999	-0.03781667458131219	-0.007054394173912348	-0.06501239103025833	0.03547343999999999	0.90158664	0.68754563	-0.2546618786584173	-0.01126289397725456	-0.1242185600839052	-0.2595845300717836	0.1906249551506003	0.1961914347885494	0	0.4362231845417722	-0.02889346814143625	-0.264748165378158	-0.1235146914858561	-0.1125074318698839	0.1241523391504919	0	-0.1471035343550137	-0.02756779685036573	0.08795549328112968	0.02864917510416631	-0.1200369526071225	-0.2230845960841066	0.819157442989034	-0.173930938102074	-0.004523730931015942	-0.5910739328062965	0.4857526305867822
0.6199999999999999	-0.03868671439009494	0.0108222416272001	-0.06830533269730422	0.03384839000000001	0.90204939	0.70012042	-0.2396735692698712	-0.03877845294857517	-0.1266377023170316	-0.3067702403104008	0.1780342984542325	0.2123879534132435	0	0.430810637882394	-0.01074486105664087	-0.2635576755972411	-0.1338932608159797	-0.1352018802402583	0.1151133259037701	0	-0.1446431447556749	-0.04904847292213439	0.08662986946301481	0.02514743428302626	-0.1146508515256364	-0.2270112814684747	0.8011786423032908	-0.1700029718205678	-0.009150225626658832	-0.5814755675397164	0.4905832561992115
0.6299999999999999	-0.03578986984284422	0.01989927947017241	-0.06663147687775144	0.03203291	0.90329602	0.71312525	-0.2338677718302177	-0.05396933432581986	-0.1233882125364189	-0.3435267326366661	0.1433947706065167	0.2114360251828658	0	0.4258335873487699	-0.0005059154486829427	-0.2568979630801458	-0.1559437558216638	-0.1365408376757267	0.1167032941487994	0	-0.1471494229007731	-0.06038185167216488	0.0816744273272608	0.0178432432316689	-0.1115026969576579	-0.2268332043031633	0.792096154824764	-0.1642017396386388	-0.01209767291571161	-0.5787828077708268	0.4940674054977549
0.6399999999999999	-0.0418681158286062	0.03844394133461456	-0.06973629263432414	0.03066239000000001	0.90360132	0.72606424	-0.2077665473995677	-0.08068359710411953	-0.116983940998125	-0.3979396162119415	0.1175709610244835	0.2146168455076576	0	0.4305107465091372	0.01785151312526363	-0.2517645643813317	-0.1764781646384836	-0.1297720935675948	0.09884349524744483	0	-0.1355677949756571	-0.08269419790192693	0.07910051139046256	0.01377426534217587	-0.104904569081351	-0.2283517714775593	0.7669948061351696	-0.1642616156020894	-0.01799303454392499	-0.569302241233182	0.5008365450974952
0.6499999999999999	-0.04380802576344317	0.047676495190531	-0.06915079936379127	0.02887077999999998	0.90437989	0.73904022	-0.1872176823696195	-0.09635207142507751	-0.1100503960952357	-0.4483644950521067	0.0772847291306847	0.21285433663077	0	0.4335704341770565	0.02931634274417148	-0.2378843524921049	-0.2040430319536999	-0.1125338668012676	0.06718886404400892	0	-0.1306950472379943	-0.09334292535070331	0.07566670925578564	0.006034896164054274	-0.1016128767158263	-0.2292328473688206	0.751626709785264	-0.1616760815320595	-0.02167941217583719	-0.5604083852750195	0.5082880482209062
0.6599999999999999	-0.04721111030687495	0.05478241186920938	-0.06927380854187692	0.02696936	0.9050521	0.75145776	-0.1578810798434909	-0.1102623815172549	-0.1014635843932034	-0.5072685460778791	0.02876319362447474	0.2082007629772495	0	0.4377732842306982	0.03916235749070603	-0.2247492797800186	-0.2316295027798644	-0.0949952919090182	0.04628757410298347	0	-0.125212947288062	-0.1012840064192681	0.07295422429928873	-0.0003252564178090097	-0.09965497037519634	-0.2289917807472059	0.7354667652331771	-0.1590194458898959	-0.02463191236760742	-0.5508614248418324	0.5174451298499327
0.6699999999999999	-0.05175995302905631	0.06222165235419275	-0.06829205822844804	0.02496394999999998	0.90567611	0.76385403	-0.1246671109233982	-0.1234601735086762	-0.09183747484923478	-0.5668378796135315	-0.0309943630244968	0.1932265635285082	0	0.4393190139642431	0.05084246230274016	-0.2124516041748003	-0.2514919369708532	-0.07964746494038057	0.03921709206324612	0	-0.1181111798724168	-0.1092679009379831	0.06930531941001564	-0.007535251874903306	-0.09857130190035129	-0.2264780462064774	0.7188395073776055	-0.1582610453520329	-0.02816915807265493	-0.5388867044378043	0.529620050165673
0.6799999999999999	-0.0547118203224484	0.07144750710057265	-0.06975285570568467	0.02313841	0.90663724	0.77580486	-0.08947051377195275	-0.1386309401408246	-0.0785085677902842	-0.6267913798397684	-0.09786837735089465	0.1749669885844039	0	0.4358304868563368	0.06375053993577302	-0.2050058894358536	-0.2640558470200329	-0.06538774150275024	0.02782262382233609	0	-0.1140241734298824	-0.1190456579518672	0.06687333801131271	-0.01338465462058855	-0.09767113297973778	-0.2236670271162628	0.7031972688459636	-0.1555174982472395	-0.0306964861102626	-0.5304295014096239	0.5418978340788734
0.6899999999999999	-0.05980225885659896	0.08139797936671365	-0.07228211812479818	0.02151231000000001	0.9073796	0.78726387	-0.04889874339453382	-0.1538341166645179	-0.0623980745245588	-0.6874618007597995	-0.14199929888627	0.1525100859829442	0	0.4291936634597169	0.07649718595763653	-0.2067899852430615	-0.2646583683626759	-0.05371714664074437	0.01733946581131966	0	-0.1079619347632334	-0.1291147678392416	0.06437163297792065	-0.01756132124479181	-0.09647455514132397	-0.2201231016871021	0.6859134835756385	-0.1530780800005938	-0.03370250979060496	-0.5225838886294127	0.5556002801695273
0.7	-0.05930729558333975	0.09094403825780582	-0.0732506882333374	0.01979997	0.90869793	0.79867313	-0.01644657596088453	-0.1669988303032908	-0.04774500501167601	-0.7440546908043383	-0.1489629147649735	0.127954131740647	0	0.4142447005992949	0.09017309990206741	-0.2064569287742924	-0.2621565491847507	-0.03583742951836729	0.01264145659864215	0	-0.1087042180581189	-0.1390430792233308	0.06035971094887285	-0.0226267885875257	-0.0947138816526778	-0.2164215515589364	0.6720836167558831	-0.1485851214932186	-0.03744951003782178	-0.5171704125822079	0.5677310869393576
0.71	-0.06554858011124372	0.1007291153783459	-0.07822229804556863	0.01878371000000001	0.90947301	0.8094143499999999	0.02824319546312331	-0.1804659958878662	-0.03387038219031293	-0.8041571700665973	-0.1310425696937356	0.1185944316971638	0	0.4039626696188893	0.1004203536263307	-0.2219082150212639	-0.2522733439153172	-0.03416437696869192	0.01793369684001569	0	-0.1020811393038913	-0.1491045327003425	0.05728560721039795	-0.02329045143185995	-0.09246779370180848	-0.21181280529099	0.6524134351198575	-0.1489517973667042	-0.04168035168200695	-0.5051464712752797	0.5880887141487696
0.72	-0.06630949989494277	0.1081015238881317	-0.08035833253601318	0.01730461999999999	0.9108761	0.82038044	0.06393385657949896	-0.1922377886050941	-0.02734543788940437	-0.8556590833851206	-0.1102797754685803	0.09697786847862511	0	0.3883332480871422	0.1104759326741461	-0.23020244199642	-0.2457019026468721	-0.02177396050114208	0.02610212467147818	0	-0.1019290116938985	-0.1555027069308947	0.05262644222008576	-0.02626565713546814	-0.09139383746065199	-0.2091696884456136	0.6380559311816806	-0.1449873418355924	-0.04418847621092077	-0.497715162483979	0.6007135531185376
0.73	-0.0657564536777361	0.1164173934935585	-0.08408987340059525	0.01598068	0.91239448	0.83120474	0.1003524880691632	-0.2055493612284468	-0.022110449683484	-0.9047792954481646	-0.09400125115271789	0.07394022571998851	0	0.3694760619351796	0.1212533182904637	-0.2411391611636131	-0.2348278774517398	-0.01062240945445265	0.03714424514486389	0	-0.1025873203916864	-0.1635678934756469	0.04874151505980206	-0.0285333407433041	-0.0903831949579738	-0.2058524140911107	0.6231516258862964	-0.1439568306792424	-0.04781023372540959	-0.4895160391978958	0.6203902298228416
0.74	-0.06666898570661782	0.1225685819587881	-0.0844887074651416	0.01438440999999999	0.91397466	0.84198567	0.1364463650977114	-0.2154379881886688	-0.01985547154900379	-0.9481592115802504	-0.07506424760340306	0.04657160898545302	0	0.3503110949981423	0.1312955974057801	-0.2486034655789558	-0.2206676075872771	-0.001802552838580692	0.04726425930520194	0	-0.1020787265607334	-0.1680198829968254	0.04163504188742762	-0.03167476095836379	-0.08903053738600893	-0.2035619588234581	0.6085659983391716	-0.1393229293298529	-0.05143647760874065	-0.4821513000567929	0.6343337259544823
0.75	-0.06824180163256187	0.1263753604656405	-0.08643902611786096	0.01320062999999999	0.91556485	0.85248844	0.1756004080143938	-0.2255179075982325	-0.02343126023258772	-0.9894659285865111	-0.06112205750164167	0.02421307977288688	0	0.3330112394341967	0.1379073069107272	-0.2546892567657286	-0.2085073907978203	0.006263534121532606	0.06147805126197339	0	-0.1012484495245489	-0.1701554080047724	0.03510829919925781	-0.03288814876093529	-0.08764408744719865	-0.2013829189175347	0.5933447344448411	-0.1369370101371698	-0.0542216941003596	-0.4746803145210736	0.6497928879997035
0.76	-0.07055581099805305	0.1279484047829016	-0.08457624959927583	0.01169265	0.91706086	0.86278097	0.2131048802156901	-0.2291964057667036	-0.02376213940311495	-1.025131751049637	-0.04853423295105112	-0.002724307991382851	0	0.317054768682433	0.1430042062370261	-0.2572654508807996	-0.1981156105469896	0.01454428767846202	0.07211165124399106	0	-0.100078933539786	-0.1700988582898102	0.02615033101448411	-0.03503985681077255	-0.08677313149853919	-0.2002450787388333	0.5790347188212158	-0.1358969021133948	-0.05898258560612428	-0.4625622006582285	0.6695082443418241
0.77	-0.07029276824359672	0.1258350463238291	-0.08011973569234075	0.009817130000000007	0.9190455199999999	0.87345863	0.2434912192234782	-0.2298599043755552	-0.02825714779969668	-1.052806168318678	-0.03368021163861441	-0.01839909726264038	0	0.2960128341761624	0.1462421326877456	-0.2530929723486693	-0.1850913896298169	0.02560823907919753	0.08065149351785834	0	-0.101569041549932	-0.1643028381846265	0.01705506144264745	-0.04224640367179783	-0.08808075224541974	-0.2008024667396843	0.5718905081397547	-0.1268539931172497	-0.05883744402552844	-0.4597282435783195	0.6769674209798244
0.78	-0.07462502935876876	0.1255919726912856	-0.07357518710839807	0.00805125000000001	0.92039107	0.88384186	0.279033404482255	-0.2326417522071849	-0.03650903710145661	-1.076814601255451	-0.02866233628298975	-0.04825124997852175	0	0.2835697150483876	0.1498117800812905	-0.2546428566639656	-0.1786493629546108	0.03036514163495679	0.09541994151160273	0	-0.09744364885942794	-0.1614197043586475	0.002837589982746945	-0.04543471145908066	-0.0863511838401697	-0.2025064294194784	0.5596077905298248	-0.1267531642246315	-0.06268511992545513	-0.4527521400433508	0.6956829912908131
0.79	-0.07499910130766699	0.1213790494860585	-0.06843441346613593	0.006300479999999997	0.92220909	0.89441489	0.3080056119311645	-0.230326963733634	-0.04263956928000561	-1.094570801601198	-0.02377563900128036	-0.05814967591529612	0	0.2636781183254602	0.150298442104863	-0.2492305712803765	-0.166866738724045	0.03829437505949318	0.103992501378562	0	-0.09751488342565054	-0.1542802641856309	-0.00415702608506472	-0.05404715227398098	-0.08842950149309228	-0.2040600642728043	0.5530122363160329	-0.1190983257055071	-0.06247380977132351	-0.449251012356377	0.706451477298742
0.8	-0.07670880780300124	0.1172294471799336	-0.05927226472549679	0.004287979999999997	0.9237396	0.90485868	0.3361481739785459	-0.229135703738918	-0.05384023790610344	-1.106863250119839	-0.02468003755280313	-0.07901114424957514	0	0.2468514595699079	0.1509028737103723	-0.2454020341374284	-0.1582176905007487	0.04381672753796421	0.1182496829186698	0	-0.09720067546560546	-0.1465717978072451	-0.01936986981295188	-0.05954546249293993	-0.08789590913673001	-0.2085711429630067	0.5463874052512364	-0.1190132916935536	-0.06588732018451797	-0.4403503120895527	0.7281982885052377
0.8100000000000001	-0.07863539392118149	0.1115904442933934	-0.0532245498525773	0.002756989999999987	0.92525033	0.91542373	0.3635353158122949	-0.2240069774610444	-0.06113113513361421	-1.114016467572905	-0.02148381766442225	-0.08273201813962008	0	0.2277672575694737	0.1495474567728601	-0.2408666793135942	-0.1446983277032999	0.04988518516180385	0.1268432703379242	0	-0.09467061843117935	-0.1382328722518138	-0.0261497691929979	-0.06981811494660994	-0.08983494340669106	-0.2110763054936469	0.5413408991654962	-0.112805633415359	-0.06561043207626947	-0.4369152117789781	0.7394634268013773
0.8199999999999998	-0.0806330627281374	0.1056637635642374	-0.04435309552226313	0.00082175000000001	0.92660837	0.92585427	0.3881030585319589	-0.2198594147257169	-0.07217111862586378	-1.115249058884171	-0.01400695630324318	-0.08787596299043944	0	0.2088326596074669	0.1484802532105795	-0.2360353731972895	-0.130767842652167	0.05563977743373057	0.1399364137836593	0	-0.09279745375985318	-0.1290985724055136	-0.0361236748603345	-0.07999959820693983	-0.0915852836735008	-0.2148415730549468	0.5380920073346852	-0.1084404804821854	-0.06604122960114413	-0.4322345336857729	0.7542142956643626
0.8299999999999998	-0.07985559961737955	0.09739687853984219	-0.03254361830455884	-0.001137570000000004	0.92810192	0.93595726	0.4084036089369746	-0.2141826203306649	-0.08678100014093888	-1.11226196172877	-0.006699320495541164	-0.08817813707982497	0	0.1895998642887753	0.1438888675581698	-0.232816761956336	-0.121823214716998	0.0610913330745554	0.1649334764324532	0	-0.09752194380607365	-0.1176525422515777	-0.05220575224597524	-0.08696135094666692	-0.09057198181264134	-0.2238483080079492	0.5392901029114167	-0.1105029009781491	-0.06962497489172206	-0.4209690594137523	0.784408117001674
0.8399999999999999	-0.08097382404550825	0.09221046898770069	-0.02765608653318993	-0.00257114	0.92920033	0.9464160699999999	0.4315307293158404	-0.2084195358101968	-0.09286206148543889	-1.104993508388242	-0.0010251456651635	-0.08609573378565637	0	0.1702602139791571	0.1422442762671396	-0.2322962389744785	-0.1083384075188764	0.06862261921233233	0.1721272731396939	0	-0.09560225336927829	-0.1099707445041624	-0.05664349307367346	-0.09786439101888311	-0.09287325009314172	-0.2275819933128355	0.5356023251763784	-0.1042126317286015	-0.06814029729901078	-0.4169855145184797	0.7965182801916446
0.8499999999999999	-0.07768467847410723	0.08349598936554357	-0.01983007683731961	-0.004107379999999994	0.93057284	0.95655515	0.4467131952390307	-0.1995054975626958	-0.1023288444598489	-1.091098806426499	0.007389123834214231	-0.07336200651638321	0	0.147826927776872	0.1364350503027036	-0.2290330874546129	-0.09756666402843166	0.07365803460334076	0.1892011591800546	0	-0.1020494856635113	-0.09864458024712798	-0.06624515160201912	-0.1059241932228929	-0.09307461221960281	-0.2377066933331493	0.5401684306072376	-0.1046708077098534	-0.07046099790086993	-0.4060005851685563	0.8265073513693512
0.8599999999999999	-0.07480008624745647	0.07778786757189668	-0.01460676868338037	-0.005419599999999997	0.93151289	0.9669133	0.4626036754408424	-0.1931085359869079	-0.1092965597678996	-1.074609469549875	0.01717025648940465	-0.06147752766319779	0	0.1250810565962131	0.1334317395621505	-0.2297662269695471	-0.0852106748785091	0.08216432065341044	0.2033318436193009	0	-0.1062180522146561	-0.09046555215845349	-0.07183781868366404	-0.1161807336695731	-0.09292075690818345	-0.246363442996303	0.5412565999371578	-0.1023544723509865	-0.07122613209352004	-0.3974934213924057	0.8480668161414109
0.8699999999999999	-0.07274229526295614	0.0739091048074262	-0.007992353916152894	-0.006808620000000015	0.93212725	0.9769103099999999	0.4783456827521149	-0.1876377234303141	-0.1143420656054455	-1.053873356347528	0.02125954896419335	-0.05471782680405218	0	0.1055815833453972	0.1319709832776342	-0.2273748356460603	-0.0765197764522768	0.08960023606673892	0.2146649555084888	0	-0.1101521002704738	-0.08500605055714311	-0.07923745201796913	-0.1243531403281314	-0.09219312600143437	-0.2544698540434543	0.5424445717315629	-0.1012993663638832	-0.07408015871449762	-0.3872369292913458	0.8723869296269395
0.8799999999999999	-0.07032144335350991	0.07192320273784181	-0.003731273117558689	-0.007886740000000003	0.93259893	0.98714127	0.4920753383512744	-0.1822437427108541	-0.1163426354724429	-1.028020640971489	0.03009591377679529	-0.04392635131921612	0	0.08533524792840312	0.1318689452209102	-0.2302301398480504	-0.0667825276576668	0.09576573888391136	0.2272776914925589	0	-0.1137794344609885	-0.08196990493737227	-0.08410317323459636	-0.1328330638779814	-0.09125875543426586	-0.2613595009485962	0.5427471236847315	-0.1004747368640924	-0.07602539413929103	-0.3794507257735433	0.8957054113956526
0.8899999999999999	-0.06598150280653003	0.0694352117675313	-0.0003633720011791347	-0.008996790000000005	0.93290376	0.9973411699999999	0.5026857415112697	-0.1767030436803519	-0.1183903114268858	-0.9983449623360011	0.03946702740092191	-0.03006280505541789	0	0.06283169773749243	0.1313993097568555	-0.2300388997585862	-0.05762866930270288	0.1033951256156198	0.2380320433006062	0	-0.1195032892158596	-0.07835684911093513	-0.08768952081108901	-0.1402764529656998	-0.09094076010974392	-0.2682544772166091	0.5431766132598648	-0.09883840290028628	-0.07713166480248233	-0.3718883535764591	0.9182144059666318
0.8999999999999999	-0.06255499486704386	0.06817466583646781	0.003645785985658167	-0.01003385000000001	0.93307621	1.00751035	0.5117569820880965	-0.1716054409863645	-0.1191848296337566	-0.9634783029244843	0.0484561504109754	-0.01607134064368126	0	0.04202794988503782	0.1318378073253241	-0.2338637772951587	-0.04859599003036955	0.1086278543182905	0.2517606848634704	0	-0.1243193296353288	-0.07616669843899344	-0.09243030088788298	-0.1474685340142858	-0.08969109738399897	-0.2746374161190547	0.5426910652799538	-0.09742858317732475	-0.07888979534640833	-0.3648653265154846	0.9402621775605512
0.9099999999999999	-0.06452417221275392	0.06980529333596081	0.004506700479559034	-0.01054668	0.93242212	1.01767399	0.5275023196621149	-0.1662801553790654	-0.1135575359178839	-0.9265490600032518	0.05129277557571185	-0.01143411915445561	0	0.0270899188943856	0.135226492524304	-0.237783548732228	-0.04050492723412728	0.1181461714549912	0.2540791390520493	0	-0.121404614076535	-0.07806836957299246	-0.09293517908739146	-0.1557762038644066	-0.08776341473549289	-0.2760860950742131	0.5395127762061762	-0.09301243713392854	-0.08027822972457813	-0.363560384849006	0.9501000046184988
0.9199999999999999	-0.0580587295018317	0.06697484860436601	0.00388992348847455	-0.01083054	0.93243558	1.02807652	0.5289939183579749	-0.1568144662024976	-0.1118505995461103	-0.8814583073866459	0.05835288355290828	0.005161780021379619	0	0.003043519461327578	0.1333188188539416	-0.2461215846933396	-0.0319998836839521	0.1267874070609568	0.2721458116551098	0	-0.1297127085652628	-0.0751786699929004	-0.09505394544386074	-0.1600178143646095	-0.08667414689534159	-0.2835451155052454	0.539181486359676	-0.09762292471686967	-0.0821863529917559	-0.3533282755211951	0.9834576919777152
0.9299999999999999	-0.06073757399765472	0.07194590584268795	0.004371402997564995	-0.01140680999999999	0.93127231	1.03786685	0.5421575331374507	-0.1554746535556957	-0.1063060562533977	-0.8360418665577737	0.0585874702906091	0.008067756193009906	0	-0.008177468811520745	0.1400867477187799	-0.2500676680160802	-0.0279013158313866	0.1330306080967037	0.2732581551914334	0	-0.126819587790771	-0.07973689404045643	-0.09749138169460782	-0.1633529619378503	-0.08563293390361715	-0.2840506412219064	0.5379786900876702	-0.09098580164721722	-0.0843506902440606	-0.352812674891427	0.9893363972307452
0.9399999999999999	-0.05533392970307424	0.06750876508369617	0.003736488567420467	-0.01159497000000001	0.93100659	1.04862106	0.538915990539054	-0.1438298550091001	-0.1043191992638003	-0.7806158584470909	0.05570424553297611	0.01941719127402705	0	-0.03366240090266365	0.1370727279870024	-0.2548473031362808	-0.0150587473864981	0.1414386162273899	0.2907510031554122	0	-0.1329865167164752	-0.07554663182497892	-0.09608289976651793	-0.1699362204815948	-0.0832444417465508	-0.2914325969888826	0.5325338968995652	-0.0973905491367982	-0.08371500520216875	-0.343194784451972	1.021218373800815
0.9499999999999997	-0.05780287145724504	0.07367342527032299	0.00425940644957377	-0.01182960999999999	0.92940106	1.05925289	0.5464187445578181	-0.1419504865649477	-0.09391588360834435	-0.727795460056159	0.05401362292825383	0.02356390630293684	0	-0.04585886940241488	0.1447504432347644	-0.2575541660381913	-0.01152994732970098	0.1485079756713524	0.2932175991455711	0	-0.1284379521936644	-0.08334843125591142	-0.09629992779381198	-0.1770040112236256	-0.08009297785977756	-0.2926117187422497	0.5296227742755696	-0.09557058663892888	-0.08592176687073336	-0.3427826303596342	1.028093540232752
0.96	-0.0528345543844099	0.07055110787064754	0.003727900168798671	-0.01205713999999999	0.92877069	1.06923711	0.5406366729494834	-0.1331720930379837	-0.09398890451905637	-0.6647838953182073	0.04222923608967644	0.0359844942772659	0	-0.0642564501484682	0.1423483455380471	-0.2613501709420138	-0.009807838461673964	0.1643345379016987	0.3022177470514437	0	-0.136258970666721	-0.07939634417507684	-0.09682966785944928	-0.1771285263285884	-0.0778843347262793	-0.3004418069932973	0.5239723936934172	-0.09692953612284719	-0.08641362578668658	-0.3344554374310336	1.055012435011867
0.9699999999999998	-0.05565182766351594	0.07799317392285102	0.004340521433767422	-0.01236780000000001	0.92703798	1.07947228	0.5440372834596434	-0.134068554879266	-0.08431479109027511	-0.6040999013216493	0.03837779132576299	0.04327795277545397	0	-0.07307845596278106	0.1510743126904067	-0.261203176694417	-0.01079908634210523	0.1707704759958092	0.3035837768125385	0	-0.132695014442801	-0.08826418320821169	-0.09726289732610367	-0.1821559285639351	-0.0745259727031906	-0.3017021443272804	0.5215905706139558	-0.0946802522995845	-0.08757195613080637	-0.3339199520905646	1.061486299110623
0.98	-0.05097583013118872	0.07735413585560773	0.003942658376366203	-0.01253892000000001	0.92600344	1.08999883	0.5339320483983454	-0.1287219638632549	-0.08385720852096885	-0.5354600551860009	0.02001292485667613	0.06153770748847119	0	-0.09220243785659253	0.1511217315408542	-0.2596550495766116	-0.009065603337875887	0.1836433725035108	0.3017854731525547	0	-0.1389685451121573	-0.08704966181429101	-0.09844873091764222	-0.1816876883160845	-0.07206210256825742	-0.3096309531132098	0.5145669159325822	-0.09621759764593568	-0.08800430315899095	-0.3280512987122957	1.082777486705365
0.9899999999999998	-0.05445880656877677	0.08432015841035026	0.004591046186109692	-0.01269471	0.92387677	1.10043512	0.5328949672990921	-0.130592610897135	-0.07739885586140673	-0.4679930685623636	0.008907651040570399	0.07372365758695233	0	-0.1011490926426219	0.1589309165070494	-0.2541499940091596	-0.009660604231304977	0.1928109814349866	0.3009282264161038	0	-0.1349354286773379	-0.09498665113295743	-0.09851105400723706	-0.1843229120844517	-0.06816856395344437	-0.3130109650730049	0.5099593371153724	-0.09480899057773841	-0.08945267022381205	-0.3265970870634085	1.09298745688068
1	-0.05611225718067259	0.0911990822983091	0.005115624207806917	-0.01302940999999999	0.92190861	1.11068546	0.5288896569263168	-0.1339277809851232	-0.07751757472792373	-0.3993971712135439	-0.006666793666936372	0.08873060395031709	0	-0.1111363492060716	0.1667738886041023	-0.2487400245029549	-0.01154110975746504	0.2018718978656892	0.2971276435136532	0	-0.1339253769686115	-0.1024668804559941	-0.09880955871640321	-0.1854726955512244	-0.06465617313320865	-0.3168875563662482	0.5045699078655358	-0.09421839681520354	-0.09015424196856547	-0.3235638100667961	1.104005744010465
1.01	-0.05611948135076533	0.09617572263662075	0.005394630167644251	-0.01323345000000001	0.92000572	1.12149431	0.5196102743170166	-0.1355691273600081	-0.08162697898074901	-0.3281001443694066	-0.02168569937540165	0.1023317197152587	0	-0.1231147379431215	0.1724365028971136	-0.2414009195361748	-0.01474549132902703	0.212366147444102	0.2862366147973493	0	-0.1331518816016468	-0.1076146543846594	-0.09968683537494875	-0.1866265653573749	-0.06109470417800563	-0.3235904076628661	0.496026650680454	-0.09665937974952363	-0.08995063203256073	-0.3197893784797257	1.116840833021377
1.02	-0.05944966032683895	0.1030890734475077	0.006124905021553107	-0.01333714	0.91772399	1.13230494	0.5138802934564709	-0.1390597577641958	-0.08812828174974174	-0.258175879370355	-0.03073568463446607	0.1136635620519486	0	-0.1312415222186314	0.1796885230900691	-0.2352424257867455	-0.01847449059940463	0.223488691816755	0.2799325858955777	0	-0.1290026929175882	-0.1151400880843885	-0.09972460953594968	-0.1881252253063227	-0.0568403494581376	-0.3296011746500115	0.4897872980957078	-0.09724913959374189	-0.09031489045049944	-0.3175380437200591	1.124868966226109
1.03	-0.06523466106634135	0.1112607745221	0.007253261581675254	-0.01348436	0.9150700899999999	1.142983	0.5121066759079602	-0.1433556661555599	-0.09334335505076516	-0.1932756779663239	-0.03446920989265994	0.1223585145289675	0	-0.1376241068192389	0.1884372770866099	-0.2292129122181043	-0.02032025691760008	0.2304862793076182	0.2771270576111899	0	-0.1222339088414164	-0.1243854582408247	-0.09905121176864659	-0.1909403506326685	-0.05328914443519971	-0.3322970198119529	0.4858325509585602	-0.09610913939555825	-0.0898789255293084	-0.3157564159829463	1.130252953713871
1.04	-0.06998427773928854	0.1178346907006818	0.008240780177214684	-0.01357906	0.91259827	1.15365216	0.5076833832648759	-0.1457683709162733	-0.1058358635057129	-0.1280646681545648	-0.04552577506000101	0.1302529979244979	0	-0.1430258067809146	0.1948424336813676	-0.2241596810296903	-0.02655474980757705	0.2398386917288096	0.2722964702214712	0	-0.116770307636226	-0.1309427361623899	-0.09794098793469952	-0.1915216107234295	-0.04955938699379503	-0.3357549570576581	0.4808441433929604	-0.09652624638324735	-0.08996788216875574	-0.3126802145332435	1.134253159522183
1.05	-0.07117878839213282	0.1203868908428033	0.008562569246722683	-0.01340633999999999	0.91050204	1.16485463	0.4971223790313646	-0.1423072255808701	-0.1272834593049709	-0.06350549937398445	-0.06020058107792104	0.1264975703549878	0	-0.1531159803488997	0.1965881236929183	-0.2212747807559755	-0.03213815337968407	0.2484951567287623	0.2691500093209988	0	-0.1152374249222393	-0.1333710110053603	-0.09669473366245079	-0.1915112794214552	-0.04645292223299428	-0.3429174737995116	0.4721256860433062	-0.0968668402309241	-0.09056950937922295	-0.3079023481297068	1.139029165055671
1.06	-0.075098960569603	0.1244450531819956	0.009338886083576669	-0.01309136999999999	0.90810524	1.17607405	0.4919382198747171	-0.1388031465421311	-0.1482197340217867	-0.008441908882478163	-0.06829720082796874	0.1181991446412502	0	-0.1597943931962653	0.1992447975577925	-0.2218539378995208	-0.03856190802841805	0.2571361844660139	0.2773638270576533	0	-0.1100842537373951	-0.1377198004295989	-0.09404067674425703	-0.192436584399423	-0.0421552924233889	-0.3506150142422469	0.4654831285419618	-0.09643609262246604	-0.09133630215826122	-0.304368064073867	1.141167171747282
1.07	-0.08019221238906231	0.1298250796217316	0.01040367908325413	-0.01289428000000001	0.90546911	1.18747032	0.493730923122197	-0.1361520151448296	-0.1747185870420748	0.03016006981117058	-0.07093974904507483	0.1166767764888092	0	-0.1673436867685997	0.2034532591940452	-0.222770272583265	-0.04101600466860592	0.2650891622223591	0.2846843716695689	0	-0.1032630855235869	-0.1434823007883664	-0.09144952306310149	-0.1949654436143834	-0.03849599968347377	-0.3537273461018612	0.4619973925645954	-0.09642957416677571	-0.09074426099417768	-0.3018383416190586	1.141118677599482
1.08	-0.0827320158523681	0.1348294659829211	0.01114593130927303	-0.01275277999999999	0.90327113	1.19879219	0.5000719205409868	-0.1341596582736932	-0.1985576553226299	0.04770520399981477	-0.06418752081312164	0.1088665052296875	0	-0.175022231745888	0.2068593741236001	-0.2224128434641564	-0.04816031151770876	0.2665937667627392	0.2872928292430604	0	-0.1006352317570521	-0.1482273488933132	-0.08994599765979792	-0.1947813995174253	-0.0362023169529684	-0.3540203804255528	0.4610444490761919	-0.09590907195433629	-0.0900738507069552	-0.3007247280066383	1.140850231125227
1.09	-0.08494711317491796	0.1380001654563441	0.01171319957157343	-0.01255669000000001	0.90133697	1.2104505	0.5068009144263386	-0.1316172937009809	-0.2154119758014971	0.05466639875778	-0.05972603704987808	0.1014479766118345	0	-0.1842596414556059	0.2081425518833723	-0.2229857060777545	-0.05345135393961665	0.2690277156711079	0.2911774504471263	0	-0.09803803138270306	-0.1510616993704355	-0.08736045625938509	-0.1967123745550324	-0.03403193702172746	-0.3545137111776642	0.458480826742256	-0.09661122786079035	-0.08924935612111554	-0.2995312236930372	1.139331025683923
1.1	-0.087771636755759	0.1370203456474429	0.01201920969651925	-0.01235354999999999	0.8993107	1.22220496	0.5193770103643558	-0.1278376102436583	-0.2167051701803794	0.04165035243922489	-0.05033261532538418	0.08740643416600206	0	-0.1900613286448709	0.2037803194096361	-0.2349269276793173	-0.06419901293358139	0.277968507372581	0.3232927665426138	0	-0.09277913391135963	-0.1483180552253357	-0.0810055820767786	-0.1957845008014715	-0.03269711217686192	-0.3608201578840486	0.4473138007337538	-0.09172973375464702	-0.09059653894428274	-0.2896569759769236	1.124111225073638
1.11	-0.08769642273839715	0.1371210923328091	0.01201763156622151	-0.01222723000000001	0.89785209	1.23393025	0.5245944222320439	-0.1260766527899428	-0.2104034388300352	0.03075147550087348	-0.05343621198662512	0.08638083541336475	0	-0.2003551348381409	0.2012591417377795	-0.2345659623486112	-0.07194493233238573	0.2763011329025611	0.3256759117089838	0	-0.09309232242458863	-0.1472792944212103	-0.078474021266669	-0.1956748888884585	-0.03185637590606905	-0.3612518060824007	0.4468274877760318	-0.09455417303054602	-0.08811912697421626	-0.2888163025379838	1.12222049366339
1.12	-0.08954217011508576	0.137791813471481	0.0123315263062456	-0.01194888999999999	0.89629798	1.24581388	0.5372589355027695	-0.1265955690216909	-0.1901286807261724	0.001640807242678921	-0.04323374515629728	0.06413675634103105	0	-0.2063267273866266	0.19835457788658	-0.2413544271064944	-0.08321294396407297	0.2757235006531833	0.3459350562718911	0	-0.09080517054161133	-0.1457223968493807	-0.0745273759479092	-0.1936844462944458	-0.03019646463846364	-0.3675117978836834	0.4432947287888923	-0.08865490535546668	-0.08769876913626241	-0.2853762980267441	1.107348807699061
1.13	-0.08916108577261085	0.1344708228816475	0.01198466971686132	-0.01155482999999999	0.8949267400000001	1.2579088	0.5470605865977123	-0.122976870894848	-0.1746755196465184	-0.03225353919092852	-0.03631820821156424	0.0472514651691202	0	-0.2168199011440885	0.1917421733915247	-0.2434973430602247	-0.09273512683053399	0.2723840431638875	0.3507738362371187	0	-0.09130140482346637	-0.1401624044257282	-0.07231267634737358	-0.1920059526808273	-0.03006809898810504	-0.3695119733062699	0.4418931180475346	-0.08942567626346901	-0.08684799879306689	-0.2834220642079262	1.10135344952575
1.14	-0.08879585727047654	0.1327207062170989	0.0117809196490899	-0.0111163	0.89375344	1.27043444	0.556457860961997	-0.1204650141538617	-0.1540460738122032	-0.06976987317342019	-0.02566565377933699	0.02535196871993577	0	-0.2272909277205401	0.1868606792853814	-0.2438949822963712	-0.1011034257536776	0.2673855804074011	0.3571637122997422	0	-0.09046114258409832	-0.1361339686148969	-0.06961434042605673	-0.1907361518225741	-0.02975709876869217	-0.3714962185851746	0.4403593218282173	-0.09069214493911434	-0.086364447993419	-0.2820132827813366	1.090479758735702
